{
"type": "FeatureCollection",
"name": "boundary",
"crs": { "type": "name", "properties": { "name": "urn:ogc:def:crs:OGC:1.3:CRS84" } },
"features": [
{ "type": "Feature", "properties": { "full_id": "r3692962", "osm_id": "3692962", "osm_type": "relation", "natural": null, "boundary": "protected_area", "landuse": null, "leisure": "nature_reserve", "name": "Hwange National Park" }, "geometry": { "type": "MultiPolygon", "coordinates": [ [ [ [ 27.107763465836435, -18.82063524665892 ], [ 27.042106505437765, -18.767564285058718 ], [ 27.0466269, -18.7711128 ], [ 27.108545539737548, -18.820290214055486 ], [ 27.107763465836435, -18.82063524665892 ] ] ] ] } },
{ "type": "Feature", "properties": { "full_id": "r9316159", "osm_id": "9316159", "osm_type": "relation", "natural": null, "boundary": "protected_area", "landuse": "forest", "leisure": null, "name": "Sikumi Forestry Area" }, "geometry": { "type": "MultiPolygon", "coordinates": [ [ [ [ 26.990659914874737, -18.623740655315785 ], [ 26.9906667, -18.6237761 ], [ 26.9906667, -18.6238906 ], [ 26.9906768, -18.624002 ], [ 26.99066, -18.6240974 ], [ 26.9906566, -18.6241961 ], [ 26.99066, -18.6242692 ], [ 26.9906533, -18.6243329 ], [ 26.9906398, -18.6244124 ], [ 26.9906398, -18.6244665 ], [ 26.9906566, -18.624581 ], [ 26.9907137, -18.6246192 ], [ 26.9907976, -18.6246383 ], [ 26.9909118, -18.624651 ], [ 26.9910091, -18.6246478 ], [ 26.9911132, -18.6246383 ], [ 26.9912274, -18.6246224 ], [ 26.9913684, -18.6245842 ], [ 26.9916, -18.6244665 ], [ 26.9917713, -18.6243806 ], [ 26.9919055, -18.6243201 ], [ 26.9920264, -18.6242629 ], [ 26.9921674, -18.6241929 ], [ 26.9922816, -18.624142 ], [ 26.9923554, -18.6240942 ], [ 26.9924696, -18.6240561 ], [ 26.9925569, -18.6240083 ], [ 26.9926341, -18.6239765 ], [ 26.9927012, -18.6239479 ], [ 26.992812, -18.6238938 ], [ 26.992953, -18.6238429 ], [ 26.9930974, -18.6237793 ], [ 26.9931947, -18.6237284 ], [ 26.9933693, -18.6236393 ], [ 26.9934633, -18.6235725 ], [ 26.993554, -18.6234898 ], [ 26.9936211, -18.623407 ], [ 26.9937185, -18.6233371 ], [ 26.993789, -18.6232734 ], [ 26.9938192, -18.6232002 ], [ 26.9938763, -18.623108 ], [ 26.9939669, -18.6230316 ], [ 26.9940441, -18.6229935 ], [ 26.9941448, -18.6229616 ], [ 26.9941885, -18.6229012 ], [ 26.9942153, -18.6228153 ], [ 26.9942959, -18.6227517 ], [ 26.9943651, -18.6226702 ], [ 26.9944565, -18.6225972 ], [ 26.994495, -18.6225151 ], [ 26.9944902, -18.6224467 ], [ 26.9944902, -18.6223783 ], [ 26.9945095, -18.6222324 ], [ 26.9945335, -18.6221184 ], [ 26.9945287, -18.6219998 ], [ 26.9944662, -18.6218994 ], [ 26.9943555, -18.6218128 ], [ 26.9942015, -18.6217352 ], [ 26.9940956, -18.6216532 ], [ 26.9940138, -18.6215984 ], [ 26.9939319, -18.6215483 ], [ 26.9938068, -18.6214616 ], [ 26.9937298, -18.6214206 ], [ 26.9936624, -18.6213886 ], [ 26.993595, -18.6213293 ], [ 26.9935036, -18.6212609 ], [ 26.9934218, -18.6212427 ], [ 26.9933159, -18.6212199 ], [ 26.993188687071736, -18.621211883118786 ], [ 26.994054579744429, -18.620345990446094 ], [ 27.007907438963759, -18.589754259670073 ], [ 27.019451488313202, -18.569552173308548 ], [ 27.022005725438259, -18.565209970195948 ], [ 27.0298453, -18.5693978 ], [ 27.0304534, -18.5697226 ], [ 27.0337473, -18.5714893 ], [ 27.0342735, -18.5717617 ], [ 27.0343851, -18.5718162 ], [ 27.0346922, -18.5719624 ], [ 27.0355669, -18.5724511 ], [ 27.0366127, -18.5730048 ], [ 27.0370556, -18.5732536 ], [ 27.0375534, -18.5736177 ], [ 27.038147, -18.5741036 ], [ 27.0386533, -18.574602 ], [ 27.039146, -18.575187 ], [ 27.0403293, -18.5766093 ], [ 27.0410729, -18.5774839 ], [ 27.0413803, -18.5778618 ], [ 27.0416652, -18.5782038 ], [ 27.0418393, -18.5784195 ], [ 27.0419853, -18.5785926 ], [ 27.0421006, -18.5787272 ], [ 27.0424393, -18.5791256 ], [ 27.0429601, -18.5797356 ], [ 27.0436046, -18.5804909 ], [ 27.0445896, -18.5816912 ], [ 27.0451847, -18.5824006 ], [ 27.0455029, -18.5827874 ], [ 27.0460508, -18.5834502 ], [ 27.0463719, -18.5838202 ], [ 27.0469121, -18.5844699 ], [ 27.0473997, -18.5850429 ], [ 27.0481346, -18.5859308 ], [ 27.0493645, -18.5873957 ], [ 27.051676, -18.5901511 ], [ 27.0532704, -18.5920289 ], [ 27.053865, -18.5927285 ], [ 27.0545214, -18.5934007 ], [ 27.0551659, -18.5939394 ], [ 27.0552331, -18.5939843 ], [ 27.0552762, -18.5940133 ], [ 27.0558209, -18.5943801 ], [ 27.0565383, -18.5947813 ], [ 27.0566014, -18.5948087 ], [ 27.0585947, -18.595675 ], [ 27.061494, -18.5969804 ], [ 27.0652787, -18.5986844 ], [ 27.068958, -18.6003349 ], [ 27.0704013, -18.6009645 ], [ 27.070739, -18.601119 ], [ 27.0714846, -18.6014492 ], [ 27.0724811, -18.6019043 ], [ 27.0739254, -18.6025538 ], [ 27.0748144, -18.6029836 ], [ 27.0750533, -18.6031295 ], [ 27.0756125, -18.6035275 ], [ 27.0761625, -18.6041168 ], [ 27.0772028, -18.6055804 ], [ 27.0774255, -18.6058685 ], [ 27.0771245, -18.6064935 ], [ 27.0767286, -18.6070562 ], [ 27.0764718, -18.607453 ], [ 27.0761388, -18.6079564 ], [ 27.0752344, -18.6093578 ], [ 27.0742684, -18.6107385 ], [ 27.0739775, -18.611184 ], [ 27.069333, -18.6182969 ], [ 27.0689712, -18.6188511 ], [ 27.0567561, -18.6374638 ], [ 27.0565777, -18.6377357 ], [ 27.0528566, -18.6433107 ], [ 27.0527525, -18.6434733 ], [ 27.0526566, -18.6435455 ], [ 27.0525703, -18.6436343 ], [ 27.052575, -18.6437426 ], [ 27.0525817, -18.6437708 ], [ 27.0526205, -18.643859 ], [ 27.0526405, -18.6439749 ], [ 27.0526637, -18.6441627 ], [ 27.0526544, -18.6442963 ], [ 27.0526085, -18.6445524 ], [ 27.0525359, -18.6446964 ], [ 27.0524706, -18.6447351 ], [ 27.0524196, -18.6447633 ], [ 27.052299, -18.6447728 ], [ 27.0521275, -18.6447531 ], [ 27.0519483, -18.6447603 ], [ 27.0518485, -18.6447972 ], [ 27.0517715, -18.6448733 ], [ 27.0427148, -18.6586387 ], [ 27.0384523, -18.6649581 ], [ 27.0815733, -18.6928067 ], [ 27.0951915, -18.701624 ], [ 27.1210876, -18.7183085 ], [ 27.1425234, -18.7321318 ], [ 27.1426231, -18.7321308 ], [ 27.1497979, -18.7320563 ], [ 27.1593444, -18.7318083 ], [ 27.1567457, -18.7444921 ], [ 27.1534322, -18.7601471 ], [ 27.1642286, -18.76551 ], [ 27.1699146, -18.7683158 ], [ 27.1738663, -18.7702749 ], [ 27.176111907863174, -18.771388142422843 ], [ 27.150035832220269, -18.792463326846562 ], [ 27.145494, -18.7888816 ], [ 27.1370309, -18.7822072 ], [ 27.1367754, -18.7824909 ], [ 27.1358007, -18.7836116 ], [ 27.1299929, -18.7902887 ], [ 27.1248002, -18.7962586 ], [ 27.1211269, -18.8004815 ], [ 27.1177545, -18.8043584 ], [ 27.1147952, -18.8077603 ], [ 27.1119542, -18.8110262 ], [ 27.1064071, -18.8174026 ], [ 27.1063043, -18.8175336 ], [ 27.1031333, -18.8150297 ], [ 27.1025667, -18.8145908 ], [ 27.0651628, -18.7851401 ], [ 27.0661676, -18.7839626 ], [ 27.067897, -18.7819156 ], [ 27.0694592, -18.7800393 ], [ 27.0708801, -18.7784052 ], [ 27.0725607, -18.7765089 ], [ 27.0729012, -18.7760762 ], [ 27.0744898, -18.7743532 ], [ 27.0763167, -18.7723163 ], [ 27.0774124, -18.771066 ], [ 27.0792904, -18.7689407 ], [ 27.0810875, -18.766892 ], [ 27.0811256, -18.7668511 ], [ 27.083308, -18.7643262 ], [ 27.0851589, -18.7621855 ], [ 27.0884905, -18.7582747 ], [ 27.0920201, -18.7541314 ], [ 27.0942968, -18.7514878 ], [ 27.0942863, -18.7514519 ], [ 27.0942618, -18.7514186 ], [ 27.0765092, -18.7374502 ], [ 27.0595185, -18.7240455 ], [ 27.0590074, -18.7236544 ], [ 27.0566191, -18.7263854 ], [ 27.0531525, -18.7303493 ], [ 27.0513833, -18.73234 ], [ 27.0477402, -18.7364391 ], [ 27.0436835, -18.7410035 ], [ 27.0420103, -18.7429783 ], [ 27.036255, -18.7497711 ], [ 27.0347526, -18.7515442 ], [ 27.0345565, -18.7517756 ], [ 27.0318076, -18.7550269 ], [ 27.0299868, -18.7571805 ], [ 27.0298261, -18.7573356 ], [ 27.0229396, -18.7519027 ], [ 27.014951, -18.7456 ], [ 27.0147956, -18.7454774 ], [ 27.0143561, -18.7451306 ], [ 27.014208585175925, -18.745014208936528 ], [ 26.994798727673018, -18.729325090891049 ], [ 26.9985629, -18.724977 ], [ 27.0024329, -18.7205066 ], [ 27.0131286, -18.7081507 ], [ 27.0133794, -18.707861 ], [ 27.0237895, -18.6958924 ], [ 27.0184749, -18.6916916 ], [ 27.0063963, -18.6821442 ], [ 26.9984375, -18.6758822 ], [ 26.9956088, -18.6736565 ], [ 26.9890835, -18.6685222 ], [ 26.9884336, -18.6682412 ], [ 26.9885474, -18.6679788 ], [ 26.9885743, -18.6647465 ], [ 26.9886043, -18.6635967 ], [ 26.9886806, -18.660673 ], [ 26.9886815, -18.66064 ], [ 26.98868, -18.6594951 ], [ 26.9897878, -18.6527756 ], [ 26.9908955, -18.646057 ], [ 26.9910862, -18.6448942 ], [ 26.9947895, -18.6437579 ], [ 26.9976275, -18.6428871 ], [ 27.0030097, -18.641284 ], [ 27.0093445, -18.6389044 ], [ 27.0218209, -18.6341637 ], [ 27.0266503, -18.6323017 ], [ 27.0283796, -18.6316661 ], [ 27.0316995, -18.6304459 ], [ 27.0365355, -18.6284576 ], [ 27.0423241, -18.6261915 ], [ 27.0440427, -18.6261536 ], [ 27.0436896, -18.6235277 ], [ 27.0463874, -18.6224672 ], [ 27.0460446, -18.6216443 ], [ 27.0456247, -18.6206363 ], [ 27.0454019, -18.6201016 ], [ 27.045212, -18.6196457 ], [ 27.0450305, -18.6192865 ], [ 27.0412766, -18.6205745 ], [ 27.0406122, -18.6207944 ], [ 27.0362015, -18.6223017 ], [ 27.0309934, -18.6240137 ], [ 27.0306641, -18.624123 ], [ 27.0304858, -18.6237111 ], [ 27.0282349, -18.618512 ], [ 27.0279173, -18.6177548 ], [ 27.0276957, -18.6176326 ], [ 27.0273536, -18.6177637 ], [ 27.0152464, -18.622403 ], [ 27.0013121, -18.6277422 ], [ 27.0023802, -18.6260396 ], [ 27.0029622, -18.6250001 ], [ 27.0034423, -18.6240698 ], [ 27.0036134, -18.6237077 ], [ 27.0038147, -18.6232861 ], [ 26.9907548, -18.6277215 ], [ 26.984631181684794, -18.629769388505729 ], [ 26.990659914874737, -18.623740655315785 ] ], [ [ 27.015056, -18.6148903 ], [ 27.014445, -18.6151826 ], [ 27.0140763, -18.6155464 ], [ 27.0139333, -18.6159902 ], [ 27.0141601, -18.616473 ], [ 27.0151257, -18.6167984 ], [ 27.0159196, -18.6169814 ], [ 27.0162844, -18.6165543 ], [ 27.01725, -18.6159443 ], [ 27.0182156, -18.6157003 ], [ 27.0195888, -18.6158833 ], [ 27.020533, -18.6158629 ], [ 27.021284, -18.6161883 ], [ 27.0217775, -18.6160256 ], [ 27.0224427, -18.6158223 ], [ 27.0235585, -18.6159239 ], [ 27.0245885, -18.6161273 ], [ 27.0263266, -18.6166357 ], [ 27.0274853, -18.6166153 ], [ 27.0284723, -18.6167373 ], [ 27.0302962, -18.6167373 ], [ 27.0317124, -18.617022 ], [ 27.0325278, -18.6173271 ], [ 27.0335363, -18.6171847 ], [ 27.0343946, -18.6168594 ], [ 27.0348196, -18.6162573 ], [ 27.0349891, -18.6158675 ], [ 27.0354586, -18.6155986 ], [ 27.035889, -18.6152371 ], [ 27.0363781, -18.614857 ], [ 27.0365273, -18.6147196 ], [ 27.0367408, -18.6144374 ], [ 27.0369943, -18.6143101 ], [ 27.037503, -18.6141432 ], [ 27.0378747, -18.6143657 ], [ 27.038266, -18.6147551 ], [ 27.0386964, -18.6150981 ], [ 27.0393126, -18.6152371 ], [ 27.0397781, -18.6154548 ], [ 27.0404098, -18.6155948 ], [ 27.0410688, -18.6156284 ], [ 27.0418897, -18.6155723 ], [ 27.0427382, -18.6154115 ], [ 27.0430934, -18.615333 ], [ 27.0435393, -18.6152918 ], [ 27.0437926, -18.6153483 ], [ 27.0445165, -18.6153113 ], [ 27.045299, -18.6152278 ], [ 27.0462565, -18.6150266 ], [ 27.0466673, -18.6149802 ], [ 27.0470586, -18.6149988 ], [ 27.0473325, -18.6149153 ], [ 27.0476436, -18.614757 ], [ 27.0478015, -18.6146972 ], [ 27.0483224, -18.6145251 ], [ 27.0490741, -18.6142937 ], [ 27.0492358, -18.6142713 ], [ 27.049427, -18.6142644 ], [ 27.0499681, -18.614302 ], [ 27.0504039, -18.6144518 ], [ 27.0507561, -18.6145723 ], [ 27.05103, -18.6147392 ], [ 27.0511865, -18.6149524 ], [ 27.0516364, -18.6149524 ], [ 27.0520414, -18.6149341 ], [ 27.0521933, -18.6149728 ], [ 27.0523787, -18.6149201 ], [ 27.0526233, -18.6149377 ], [ 27.0527234, -18.614899 ], [ 27.0529347, -18.6148709 ], [ 27.0530236, -18.6149447 ], [ 27.0532942, -18.6150325 ], [ 27.0534017, -18.6150571 ], [ 27.0535229, -18.6150612 ], [ 27.0535685, -18.6149658 ], [ 27.0536055, -18.6149236 ], [ 27.0535685, -18.6148744 ], [ 27.0535462, -18.6147866 ], [ 27.053587, -18.6147339 ], [ 27.0536537, -18.614755 ], [ 27.0537019, -18.6148217 ], [ 27.0537056, -18.6149025 ], [ 27.053776, -18.6149447 ], [ 27.0539243, -18.6149622 ], [ 27.0539947, -18.614899 ], [ 27.0540689, -18.6148007 ], [ 27.0541096, -18.6146637 ], [ 27.0542245, -18.6145056 ], [ 27.0544306, -18.6143641 ], [ 27.0545991, -18.6142696 ], [ 27.054821, -18.6141857 ], [ 27.0549573, -18.6141924 ], [ 27.0551047, -18.6141791 ], [ 27.0553379, -18.6141405 ], [ 27.0554525, -18.614169 ], [ 27.0556649, -18.6142897 ], [ 27.0560542, -18.6146453 ], [ 27.0567762, -18.6149471 ], [ 27.0571088, -18.615202 ], [ 27.057215, -18.6155643 ], [ 27.0575123, -18.6160741 ], [ 27.0577247, -18.6164564 ], [ 27.0578875, -18.6166443 ], [ 27.0579077, -18.616872 ], [ 27.0578906, -18.6169668 ], [ 27.0580644, -18.6170821 ], [ 27.0583201, -18.6172224 ], [ 27.0584501, -18.6172482 ], [ 27.0586264, -18.6172085 ], [ 27.0588729, -18.6172111 ], [ 27.0588821, -18.6171199 ], [ 27.0588843, -18.617013 ], [ 27.0589162, -18.6169243 ], [ 27.0589928, -18.6168335 ], [ 27.059078, -18.6167265 ], [ 27.0592079, -18.6165571 ], [ 27.0593548, -18.6163372 ], [ 27.0594229, -18.6162464 ], [ 27.059442, -18.6162242 ], [ 27.0595932, -18.6162262 ], [ 27.0595873, -18.6162748 ], [ 27.0595412, -18.6164058 ], [ 27.0595515, -18.6165223 ], [ 27.0595873, -18.6166145 ], [ 27.0595873, -18.6167019 ], [ 27.059659, -18.6167116 ], [ 27.0597973, -18.6166145 ], [ 27.0599254, -18.6164883 ], [ 27.0600432, -18.6163913 ], [ 27.0601637, -18.616313 ], [ 27.0603809, -18.6163795 ], [ 27.0605129, -18.6164219 ], [ 27.0605144, -18.6161922 ], [ 27.0605759, -18.6159592 ], [ 27.0606271, -18.6157845 ], [ 27.0606476, -18.6156 ], [ 27.0607347, -18.6154301 ], [ 27.0606937, -18.615202 ], [ 27.0608423, -18.6150078 ], [ 27.0609345, -18.6147748 ], [ 27.0608986, -18.6146001 ], [ 27.0608469, -18.6145445 ], [ 27.0614044, -18.6144426 ], [ 27.0621185, -18.6143313 ], [ 27.0627934, -18.6143128 ], [ 27.0633021, -18.6142664 ], [ 27.0637422, -18.6141181 ], [ 27.0644172, -18.6139605 ], [ 27.0648965, -18.6139049 ], [ 27.065454, -18.6137195 ], [ 27.0658258, -18.6135434 ], [ 27.0661388, -18.613358 ], [ 27.0664322, -18.6131726 ], [ 27.066779, -18.6128738 ], [ 27.0674013, -18.6125659 ], [ 27.0678931, -18.6123568 ], [ 27.0682311, -18.6122324 ], [ 27.0686094, -18.612122 ], [ 27.068961, -18.6120264 ], [ 27.0697031, -18.6118702 ], [ 27.0705772, -18.6116826 ], [ 27.0712554, -18.6116507 ], [ 27.0709905, -18.6115874 ], [ 27.0704427, -18.6114761 ], [ 27.0698852, -18.6113834 ], [ 27.069445, -18.6114669 ], [ 27.0690439, -18.6116801 ], [ 27.0683201, -18.6118655 ], [ 27.0679679, -18.6120138 ], [ 27.0675865, -18.6120323 ], [ 27.0672343, -18.6123846 ], [ 27.0665692, -18.6126164 ], [ 27.0660911, -18.6128971 ], [ 27.0658009, -18.6131587 ], [ 27.0654965, -18.6132929 ], [ 27.0652417, -18.6132862 ], [ 27.0651285, -18.613199 ], [ 27.0651709, -18.6130178 ], [ 27.0651639, -18.6128367 ], [ 27.0650506, -18.6127562 ], [ 27.0646967, -18.6126489 ], [ 27.0641587, -18.6125483 ], [ 27.0636279, -18.6126288 ], [ 27.0632315, -18.6129038 ], [ 27.0632598, -18.6131319 ], [ 27.0634155, -18.6134002 ], [ 27.0634155, -18.6136283 ], [ 27.0632244, -18.6138094 ], [ 27.0630845, -18.6139881 ], [ 27.062878, -18.6140742 ], [ 27.0626907, -18.6140925 ], [ 27.0623107, -18.6141394 ], [ 27.0618206, -18.6141603 ], [ 27.0614021, -18.6141107 ], [ 27.0610579, -18.6140742 ], [ 27.0607826, -18.6140038 ], [ 27.0602704, -18.6139255 ], [ 27.0598975, -18.61391 ], [ 27.0596569, -18.6137222 ], [ 27.0589278, -18.6136887 ], [ 27.0583474, -18.6139167 ], [ 27.0575263, -18.6140979 ], [ 27.0570591, -18.6141381 ], [ 27.0564999, -18.6140107 ], [ 27.0560894, -18.6138429 ], [ 27.0555089, -18.6136954 ], [ 27.0549497, -18.6136954 ], [ 27.0543253, -18.6134926 ], [ 27.0538022, -18.6134218 ], [ 27.0531671, -18.6135457 ], [ 27.0525694, -18.6135103 ], [ 27.0518969, -18.6137228 ], [ 27.0513178, -18.6136874 ], [ 27.0505332, -18.6134218 ], [ 27.0497487, -18.6132271 ], [ 27.0488707, -18.6132448 ], [ 27.0479741, -18.6133156 ], [ 27.047395, -18.6134218 ], [ 27.0460874, -18.6138467 ], [ 27.0454896, -18.6140591 ], [ 27.0449479, -18.6145371 ], [ 27.0442007, -18.6149266 ], [ 27.0434535, -18.6149443 ], [ 27.0427437, -18.6150505 ], [ 27.0420899, -18.6152275 ], [ 27.0415668, -18.6152629 ], [ 27.0403153, -18.6151921 ], [ 27.0395494, -18.6147141 ], [ 27.0390264, -18.6142361 ], [ 27.0386715, -18.6136874 ], [ 27.0384099, -18.6132094 ], [ 27.0380737, -18.6127491 ], [ 27.0376814, -18.6127137 ], [ 27.0371584, -18.6129438 ], [ 27.0366167, -18.6132448 ], [ 27.036131, -18.6135634 ], [ 27.0357387, -18.6139529 ], [ 27.0353277, -18.6142184 ], [ 27.0345992, -18.6150328 ], [ 27.0332543, -18.6156524 ], [ 27.0326005, -18.6161126 ], [ 27.031928, -18.6160595 ], [ 27.0312555, -18.6156878 ], [ 27.0303775, -18.6152806 ], [ 27.0297424, -18.614838 ], [ 27.0289579, -18.6145548 ], [ 27.0283788, -18.6145371 ], [ 27.0275195, -18.6148026 ], [ 27.0266789, -18.6149443 ], [ 27.0261185, -18.6146256 ], [ 27.0257262, -18.6141299 ], [ 27.0251098, -18.6139352 ], [ 27.0241011, -18.6142715 ], [ 27.0229055, -18.6143601 ], [ 27.021654, -18.6143424 ], [ 27.020253, -18.6144309 ], [ 27.0188146, -18.6145371 ], [ 27.0178806, -18.6144486 ], [ 27.0169093, -18.6146964 ], [ 27.015056, -18.6148903 ] ] ] ] } },
{ "type": "Feature", "properties": { "full_id": "r9319722", "osm_id": "9319722", "osm_type": "relation", "natural": "wetland", "boundary": null, "landuse": null, "leisure": null, "name": null }, "geometry": { "type": "MultiPolygon", "coordinates": [ [ [ [ 26.990753679564829, -18.623646890625693 ], [ 26.9907544, -18.6236594 ], [ 26.9907679, -18.6237071 ], [ 26.9907947, -18.6237262 ], [ 26.9908417, -18.6237389 ], [ 26.990882, -18.6237644 ], [ 26.9908988, -18.6238216 ], [ 26.9909122, -18.623863 ], [ 26.9909156, -18.6239107 ], [ 26.9909156, -18.6239489 ], [ 26.9909156, -18.6239903 ], [ 26.9909257, -18.6240316 ], [ 26.9909659, -18.6240571 ], [ 26.9910062, -18.6240284 ], [ 26.9910499, -18.6239807 ], [ 26.99107, -18.6239234 ], [ 26.99107, -18.6238916 ], [ 26.9910767, -18.6238471 ], [ 26.9910734, -18.6237994 ], [ 26.9910599, -18.6237421 ], [ 26.9910599, -18.6236816 ], [ 26.9910667, -18.6236307 ], [ 26.9910835, -18.623583 ], [ 26.9911103, -18.6235448 ], [ 26.9911472, -18.6235098 ], [ 26.9912077, -18.6234653 ], [ 26.9912715, -18.6234367 ], [ 26.9913285, -18.6234144 ], [ 26.9913722, -18.6233985 ], [ 26.9914091, -18.6233508 ], [ 26.9914561, -18.6232617 ], [ 26.9914763, -18.6231917 ], [ 26.9914729, -18.623144 ], [ 26.9914695, -18.6230867 ], [ 26.9914528, -18.6230326 ], [ 26.991425426802692, -18.62297514338783 ], [ 26.993188687071736, -18.621211883118786 ], [ 26.9933159, -18.6212199 ], [ 26.9934218, -18.6212427 ], [ 26.9935036, -18.6212609 ], [ 26.993595, -18.6213293 ], [ 26.9936624, -18.6213886 ], [ 26.9937298, -18.6214206 ], [ 26.9938068, -18.6214616 ], [ 26.9939319, -18.6215483 ], [ 26.9940138, -18.6215984 ], [ 26.9940956, -18.6216532 ], [ 26.9942015, -18.6217352 ], [ 26.9943555, -18.6218128 ], [ 26.9944662, -18.6218994 ], [ 26.9945287, -18.6219998 ], [ 26.9945335, -18.6221184 ], [ 26.9945095, -18.6222324 ], [ 26.9944902, -18.6223783 ], [ 26.9944902, -18.6224467 ], [ 26.994495, -18.6225151 ], [ 26.9944565, -18.6225972 ], [ 26.9943651, -18.6226702 ], [ 26.9942959, -18.6227517 ], [ 26.9942153, -18.6228153 ], [ 26.9941885, -18.6229012 ], [ 26.9941448, -18.6229616 ], [ 26.9940441, -18.6229935 ], [ 26.9939669, -18.6230316 ], [ 26.9938763, -18.623108 ], [ 26.9938192, -18.6232002 ], [ 26.993789, -18.6232734 ], [ 26.9937185, -18.6233371 ], [ 26.9936211, -18.623407 ], [ 26.993554, -18.6234898 ], [ 26.9934633, -18.6235725 ], [ 26.9933693, -18.6236393 ], [ 26.9931947, -18.6237284 ], [ 26.9930974, -18.6237793 ], [ 26.992953, -18.6238429 ], [ 26.992812, -18.6238938 ], [ 26.9927012, -18.6239479 ], [ 26.9926341, -18.6239765 ], [ 26.9925569, -18.6240083 ], [ 26.9924696, -18.6240561 ], [ 26.9923554, -18.6240942 ], [ 26.9922816, -18.624142 ], [ 26.9921674, -18.6241929 ], [ 26.9920264, -18.6242629 ], [ 26.9919055, -18.6243201 ], [ 26.9917713, -18.6243806 ], [ 26.9916, -18.6244665 ], [ 26.9913684, -18.6245842 ], [ 26.9912274, -18.6246224 ], [ 26.9911132, -18.6246383 ], [ 26.9910091, -18.6246478 ], [ 26.9909118, -18.624651 ], [ 26.9907976, -18.6246383 ], [ 26.9907137, -18.6246192 ], [ 26.9906566, -18.624581 ], [ 26.9906398, -18.6244665 ], [ 26.9906398, -18.6244124 ], [ 26.9906533, -18.6243329 ], [ 26.99066, -18.6242692 ], [ 26.9906566, -18.6241961 ], [ 26.99066, -18.6240974 ], [ 26.9906768, -18.624002 ], [ 26.9906667, -18.6238906 ], [ 26.9906667, -18.6237761 ], [ 26.990659914874737, -18.623740655315785 ], [ 26.990753679564829, -18.623646890625693 ] ] ], [ [ [ 26.990909924629168, -18.623490645561354 ], [ 26.9909089, -18.6235035 ], [ 26.9908954, -18.6235289 ], [ 26.990855829610897, -18.623544740579625 ], [ 26.990909924629168, -18.623490645561354 ] ] ] ] } },
{ "type": "Feature", "properties": { "full_id": "r9319723", "osm_id": "9319723", "osm_type": "relation", "natural": "water", "boundary": null, "landuse": null, "leisure": null, "name": "Mtandasokwe pan" }, "geometry": { "type": "MultiPolygon", "coordinates": [ [ [ [ 26.990855829610897, -18.623544740579625 ], [ 26.9908954, -18.6235289 ], [ 26.9909089, -18.6235035 ], [ 26.990909924629168, -18.623490645561354 ], [ 26.991425426802692, -18.62297514338783 ], [ 26.9914528, -18.6230326 ], [ 26.9914695, -18.6230867 ], [ 26.9914729, -18.623144 ], [ 26.9914763, -18.6231917 ], [ 26.9914561, -18.6232617 ], [ 26.9914091, -18.6233508 ], [ 26.9913722, -18.6233985 ], [ 26.9913285, -18.6234144 ], [ 26.9912715, -18.6234367 ], [ 26.9912077, -18.6234653 ], [ 26.9911472, -18.6235098 ], [ 26.9911103, -18.6235448 ], [ 26.9910835, -18.623583 ], [ 26.9910667, -18.6236307 ], [ 26.9910599, -18.6236816 ], [ 26.9910599, -18.6237421 ], [ 26.9910734, -18.6237994 ], [ 26.9910767, -18.6238471 ], [ 26.99107, -18.6238916 ], [ 26.99107, -18.6239234 ], [ 26.9910499, -18.6239807 ], [ 26.9910062, -18.6240284 ], [ 26.9909659, -18.6240571 ], [ 26.9909257, -18.6240316 ], [ 26.9909156, -18.6239903 ], [ 26.9909156, -18.6239489 ], [ 26.9909156, -18.6239107 ], [ 26.9909122, -18.623863 ], [ 26.9908988, -18.6238216 ], [ 26.990882, -18.6237644 ], [ 26.9908417, -18.6237389 ], [ 26.9907947, -18.6237262 ], [ 26.9907679, -18.6237071 ], [ 26.9907544, -18.6236594 ], [ 26.990753679564829, -18.623646890625693 ], [ 26.990855829610897, -18.623544740579625 ] ] ] ] } },
{ "type": "Feature", "properties": { "full_id": "r9319967", "osm_id": "9319967", "osm_type": "relation", "natural": "water", "boundary": null, "landuse": null, "leisure": null, "name": null }, "geometry": { "type": "MultiPolygon", "coordinates": [ [ [ [ 27.174475, -18.607688919040314 ], [ 27.174475, -18.6079216 ], [ 27.174458, -18.6080611 ], [ 27.1744297, -18.6082382 ], [ 27.174424, -18.60841 ], [ 27.174424, -18.6085979 ], [ 27.174356, -18.6087589 ], [ 27.1743447, -18.6088609 ], [ 27.174322, -18.6089951 ], [ 27.1742654, -18.6091453 ], [ 27.1742258, -18.6092956 ], [ 27.1741861, -18.6094674 ], [ 27.1741578, -18.6096338 ], [ 27.1741578, -18.6098109 ], [ 27.1741578, -18.6099773 ], [ 27.1741578, -18.6101007 ], [ 27.1741635, -18.6103208 ], [ 27.1741125, -18.6104657 ], [ 27.1740898, -18.6105945 ], [ 27.1740615, -18.6108253 ], [ 27.1739992, -18.6109649 ], [ 27.1738916, -18.6111474 ], [ 27.173801, -18.6112923 ], [ 27.1737444, -18.6114157 ], [ 27.1736821, -18.6115016 ], [ 27.1736368, -18.6116251 ], [ 27.1735914, -18.6117378 ], [ 27.1735292, -18.6118559 ], [ 27.1734952, -18.6120062 ], [ 27.1734725, -18.6121242 ], [ 27.1734499, -18.6122531 ], [ 27.1734159, -18.6123497 ], [ 27.1733479, -18.6124624 ], [ 27.1732969, -18.6126824 ], [ 27.1732403, -18.6128435 ], [ 27.173195, -18.6129454 ], [ 27.1731893, -18.6130259 ], [ 27.1731667, -18.6131494 ], [ 27.173144, -18.6132514 ], [ 27.1731384, -18.6133695 ], [ 27.1731327, -18.613509 ], [ 27.1731384, -18.6136432 ], [ 27.1731384, -18.6137935 ], [ 27.173161, -18.6139223 ], [ 27.173212, -18.6140565 ], [ 27.1732743, -18.6141584 ], [ 27.1733649, -18.6142873 ], [ 27.1734102, -18.6144375 ], [ 27.1734725, -18.6145234 ], [ 27.1735801, -18.6146147 ], [ 27.1736651, -18.6146898 ], [ 27.1737387, -18.6147381 ], [ 27.1738237, -18.6148025 ], [ 27.1739822, -18.6148991 ], [ 27.1741805, -18.6149796 ], [ 27.1743334, -18.615044 ], [ 27.1744863, -18.6151246 ], [ 27.1746279, -18.6151836 ], [ 27.1747978, -18.6152426 ], [ 27.1749394, -18.6152695 ], [ 27.1751376, -18.6153446 ], [ 27.1752905, -18.6153983 ], [ 27.1755284, -18.6154788 ], [ 27.1756926, -18.6155271 ], [ 27.1758229, -18.6155754 ], [ 27.1760041, -18.615613 ], [ 27.176225, -18.6156774 ], [ 27.1763892, -18.6156988 ], [ 27.1764855, -18.6157364 ], [ 27.1766271, -18.6157633 ], [ 27.17678, -18.6157901 ], [ 27.1769499, -18.6158062 ], [ 27.1770802, -18.6158545 ], [ 27.1772331, -18.6158921 ], [ 27.1773917, -18.6159296 ], [ 27.1775672, -18.6159994 ], [ 27.1777768, -18.6160799 ], [ 27.1780033, -18.6161175 ], [ 27.1782072, -18.6161765 ], [ 27.1784904, -18.6162678 ], [ 27.1786546, -18.6163214 ], [ 27.1788132, -18.6163697 ], [ 27.1789831, -18.6164288 ], [ 27.179204, -18.6164664 ], [ 27.1794419, -18.6165308 ], [ 27.1796118, -18.6165522 ], [ 27.1797817, -18.6165952 ], [ 27.1799742, -18.616622 ], [ 27.1801781, -18.616622 ], [ 27.180348, -18.6165952 ], [ 27.1805406, -18.616563 ], [ 27.1807445, -18.6165254 ], [ 27.1808974, -18.6165093 ], [ 27.181073, -18.6164771 ], [ 27.1812542, -18.6164234 ], [ 27.1814751, -18.6163644 ], [ 27.1816846, -18.6163053 ], [ 27.1819282, -18.6162302 ], [ 27.1820641, -18.6161712 ], [ 27.1822057, -18.6161068 ], [ 27.1823144, -18.6160535 ], [ 27.1824914, -18.6159874 ], [ 27.1826201, -18.6159467 ], [ 27.1827757, -18.6158959 ], [ 27.1829152, -18.6158451 ], [ 27.1830225, -18.6158095 ], [ 27.1831888, -18.6157739 ], [ 27.183339, -18.6157485 ], [ 27.1834194, -18.6157281 ], [ 27.1835267, -18.6157129 ], [ 27.1836555, -18.615662 ], [ 27.1837735, -18.6156214 ], [ 27.1838754, -18.6155807 ], [ 27.183972, -18.6155451 ], [ 27.1840524, -18.6155146 ], [ 27.1841061, -18.6154739 ], [ 27.1841597, -18.6154333 ], [ 27.184267, -18.6153875 ], [ 27.1843314, -18.6153468 ], [ 27.1844172, -18.6152655 ], [ 27.1845138, -18.6152045 ], [ 27.1847552, -18.6151079 ], [ 27.1848893, -18.6150266 ], [ 27.1849537, -18.6149656 ], [ 27.1850288, -18.6149046 ], [ 27.1851253, -18.6148588 ], [ 27.1851682, -18.6148283 ], [ 27.1852594, -18.6147825 ], [ 27.1853238, -18.6147317 ], [ 27.18536615922158, -18.614699601707869 ], [ 27.185952933338562, -18.615124240871474 ], [ 27.1858744, -18.6151627 ], [ 27.1857671, -18.6152085 ], [ 27.1856705, -18.6152237 ], [ 27.1855954, -18.6152339 ], [ 27.1854989, -18.6152492 ], [ 27.1854077, -18.6152593 ], [ 27.1852789, -18.6152847 ], [ 27.1851717, -18.6152949 ], [ 27.1850322, -18.6153102 ], [ 27.1848713, -18.6153305 ], [ 27.1847479, -18.6153407 ], [ 27.1846245, -18.615361 ], [ 27.1845118, -18.6153813 ], [ 27.1844582, -18.615422 ], [ 27.1844099, -18.6154779 ], [ 27.1843294, -18.615544 ], [ 27.184249, -18.6155949 ], [ 27.1841256, -18.6156609 ], [ 27.1839969, -18.6157169 ], [ 27.1838896, -18.6157677 ], [ 27.1837501, -18.6158135 ], [ 27.1836213, -18.6158592 ], [ 27.1834819, -18.6158948 ], [ 27.1833424, -18.6159456 ], [ 27.1832029, -18.6159863 ], [ 27.1830795, -18.6160371 ], [ 27.1828971, -18.616088 ], [ 27.1827845, -18.6161388 ], [ 27.1826879, -18.6161744 ], [ 27.182586, -18.6162202 ], [ 27.1824948, -18.6162761 ], [ 27.1824304, -18.6163218 ], [ 27.1823586, -18.6163644 ], [ 27.1821321, -18.6164664 ], [ 27.1820131, -18.6165254 ], [ 27.1818319, -18.6165898 ], [ 27.1816507, -18.6166488 ], [ 27.1814581, -18.616681 ], [ 27.1812769, -18.6167132 ], [ 27.1810956, -18.6167777 ], [ 27.1809031, -18.6168099 ], [ 27.1807105, -18.6168367 ], [ 27.1805123, -18.6168689 ], [ 27.1803537, -18.6168904 ], [ 27.1802178, -18.6169065 ], [ 27.1800592, -18.6169226 ], [ 27.1796458, -18.616885 ], [ 27.1793852, -18.6168421 ], [ 27.1791247, -18.6167723 ], [ 27.1789378, -18.6166971 ], [ 27.1787283, -18.6166274 ], [ 27.1784961, -18.6165469 ], [ 27.1782525, -18.6164878 ], [ 27.1781053, -18.6164664 ], [ 27.1778674, -18.6164234 ], [ 27.1776295, -18.6163536 ], [ 27.1774426, -18.6163 ], [ 27.1772444, -18.6162517 ], [ 27.1770632, -18.6162302 ], [ 27.1768367, -18.6162141 ], [ 27.1765988, -18.6161068 ], [ 27.1763722, -18.6161014 ], [ 27.1761287, -18.6160262 ], [ 27.1758965, -18.6159457 ], [ 27.1757209, -18.6158921 ], [ 27.1754831, -18.6158384 ], [ 27.1752905, -18.6157794 ], [ 27.1751433, -18.6157203 ], [ 27.1748884, -18.6156291 ], [ 27.1746845, -18.6155486 ], [ 27.1745769, -18.6154949 ], [ 27.1743447, -18.6154197 ], [ 27.1741748, -18.6153285 ], [ 27.1740332, -18.615248 ], [ 27.173852, -18.6151084 ], [ 27.1737104, -18.6149904 ], [ 27.1736141, -18.6149421 ], [ 27.1735008, -18.6148616 ], [ 27.1733932, -18.6147864 ], [ 27.1732856, -18.6146791 ], [ 27.173144, -18.6145395 ], [ 27.1730364, -18.6143624 ], [ 27.1729685, -18.6142336 ], [ 27.1729118, -18.6141209 ], [ 27.1728948, -18.6139813 ], [ 27.1729062, -18.6137988 ], [ 27.1729118, -18.6136808 ], [ 27.1729118, -18.6135627 ], [ 27.1729232, -18.6134178 ], [ 27.1729232, -18.613305 ], [ 27.1729345, -18.6129937 ], [ 27.1729571, -18.6128059 ], [ 27.1729741, -18.6126073 ], [ 27.1730138, -18.612398 ], [ 27.1730138, -18.6122155 ], [ 27.1730478, -18.6119632 ], [ 27.1730817, -18.6118666 ], [ 27.1731384, -18.6117163 ], [ 27.1732177, -18.6115016 ], [ 27.1733196, -18.6112762 ], [ 27.1734102, -18.6110615 ], [ 27.1734895, -18.6109488 ], [ 27.1735348, -18.6108414 ], [ 27.1736254, -18.6106751 ], [ 27.1736877, -18.6105033 ], [ 27.1737274, -18.6103262 ], [ 27.1737387, -18.6101383 ], [ 27.173801, -18.609929 ], [ 27.1738067, -18.6097572 ], [ 27.173835, -18.6095425 ], [ 27.173869, -18.6093654 ], [ 27.1739029, -18.6091292 ], [ 27.1739426, -18.6088823 ], [ 27.1739766, -18.6086462 ], [ 27.1740275, -18.6084422 ], [ 27.1740728, -18.6082329 ], [ 27.1741012, -18.6080289 ], [ 27.1740842, -18.6078947 ], [ 27.1740842, -18.6077444 ], [ 27.1740615, -18.6075995 ], [ 27.1740672, -18.6074653 ], [ 27.174054778609189, -18.607428781988858 ], [ 27.174475, -18.607688919040314 ] ] ], [ [ [ 27.211496429283361, -18.633609665568368 ], [ 27.2113879, -18.6338153 ], [ 27.211259, -18.6341643 ], [ 27.2112222, -18.6345133 ], [ 27.2112959, -18.6349146 ], [ 27.2115905, -18.6350193 ], [ 27.2118115, -18.6347576 ], [ 27.2120877, -18.6344959 ], [ 27.2123087, -18.6342167 ], [ 27.212317647228662, -18.634203968028782 ], [ 27.213452877305436, -18.635025516110659 ], [ 27.2134319, -18.6352636 ], [ 27.2133215, -18.6355254 ], [ 27.2131005, -18.6358918 ], [ 27.2129532, -18.6361535 ], [ 27.2128611, -18.6363978 ], [ 27.2127506, -18.6367119 ], [ 27.2126033, -18.6371481 ], [ 27.2124191, -18.6377065 ], [ 27.2123455, -18.638038 ], [ 27.2122902, -18.638387 ], [ 27.2122166, -18.6387011 ], [ 27.2121429, -18.6388581 ], [ 27.2120509, -18.6391896 ], [ 27.2118851, -18.6395212 ], [ 27.2118851, -18.63905 ], [ 27.2118667, -18.6387709 ], [ 27.2119588, -18.638387 ], [ 27.2120693, -18.6379857 ], [ 27.2121798, -18.6375669 ], [ 27.2122166, -18.637183 ], [ 27.2122166, -18.6367991 ], [ 27.2122166, -18.6364502 ], [ 27.2123455, -18.6361012 ], [ 27.2126033, -18.6357696 ], [ 27.2129348, -18.6354556 ], [ 27.2130452, -18.6352113 ], [ 27.2128058, -18.6350542 ], [ 27.2124376, -18.635316 ], [ 27.212235, -18.6356126 ], [ 27.2121613, -18.6359965 ], [ 27.2119772, -18.6367293 ], [ 27.2118483, -18.6371132 ], [ 27.2117194, -18.6376541 ], [ 27.21148, -18.6382299 ], [ 27.2112959, -18.6387185 ], [ 27.2111117, -18.6393641 ], [ 27.2110012, -18.639748 ], [ 27.210946, -18.6401493 ], [ 27.2108907, -18.6405681 ], [ 27.2108539, -18.6408647 ], [ 27.2106145, -18.6413009 ], [ 27.2106329, -18.6417546 ], [ 27.2106513, -18.6422257 ], [ 27.2105593, -18.6427142 ], [ 27.2104672, -18.6433249 ], [ 27.2103751, -18.6438833 ], [ 27.2103199, -18.6442671 ], [ 27.2102831, -18.6445812 ], [ 27.210412, -18.6448953 ], [ 27.2107066, -18.6445638 ], [ 27.2108723, -18.6441624 ], [ 27.2110196, -18.6437611 ], [ 27.2111117, -18.6433598 ], [ 27.2112774, -18.6430283 ], [ 27.2115905, -18.642784 ], [ 27.2119404, -18.6425223 ], [ 27.2125296, -18.6421035 ], [ 27.2126954, -18.6417895 ], [ 27.2127506, -18.6414405 ], [ 27.2127874, -18.6410741 ], [ 27.2129348, -18.6406902 ], [ 27.2131373, -18.6403063 ], [ 27.213303, -18.6399574 ], [ 27.2134319, -18.6396084 ], [ 27.2135424, -18.6393641 ], [ 27.2138555, -18.6388407 ], [ 27.214058, -18.638544 ], [ 27.2143711, -18.6381427 ], [ 27.2145921, -18.6377588 ], [ 27.2147946, -18.6372528 ], [ 27.2149604, -18.6367817 ], [ 27.215034, -18.6362757 ], [ 27.215042117253649, -18.636175623967919 ], [ 27.215607800918569, -18.636585000304372 ], [ 27.2155902, -18.6367018 ], [ 27.2156089, -18.6368558 ], [ 27.2156277, -18.6369861 ], [ 27.2156339, -18.6371282 ], [ 27.2156714, -18.6372822 ], [ 27.2156777, -18.6373948 ], [ 27.2156527, -18.6375547 ], [ 27.2155714, -18.637762 ], [ 27.2154901, -18.6379516 ], [ 27.2154651, -18.63807 ], [ 27.2153714, -18.6381826 ], [ 27.2152651, -18.6383247 ], [ 27.2151901, -18.6384669 ], [ 27.2151338, -18.6386505 ], [ 27.2150776, -18.6387512 ], [ 27.2150088, -18.6389052 ], [ 27.2149651, -18.6390296 ], [ 27.2148651, -18.639148 ], [ 27.214815, -18.639302 ], [ 27.21474, -18.6394975 ], [ 27.214665, -18.63961 ], [ 27.2145051, -18.6399571 ], [ 27.2143978, -18.6401807 ], [ 27.2142583, -18.6405061 ], [ 27.2141081, -18.6408619 ], [ 27.2138828, -18.6411872 ], [ 27.2137219, -18.6414312 ], [ 27.2136146, -18.6417666 ], [ 27.2134537, -18.6420716 ], [ 27.2132284, -18.6424274 ], [ 27.2131533, -18.6426816 ], [ 27.2131211, -18.6429255 ], [ 27.2131211, -18.6430984 ], [ 27.2131962, -18.6433119 ], [ 27.2132713, -18.6434542 ], [ 27.2134506, -18.6436046 ], [ 27.2136256, -18.6438237 ], [ 27.2137069, -18.644031 ], [ 27.2138006, -18.6442502 ], [ 27.2139069, -18.6444871 ], [ 27.2140006, -18.6447003 ], [ 27.2141194, -18.6448484 ], [ 27.2142132, -18.6450557 ], [ 27.2143444, -18.6452926 ], [ 27.2144257, -18.645494 ], [ 27.2146007, -18.6456657 ], [ 27.2147883, -18.6457131 ], [ 27.2150758, -18.6457546 ], [ 27.2154196, -18.6458197 ], [ 27.2156321, -18.6458553 ], [ 27.2157947, -18.6459204 ], [ 27.2160259, -18.6461396 ], [ 27.216251, -18.6463232 ], [ 27.2165323, -18.6465245 ], [ 27.2168198, -18.6466548 ], [ 27.2170386, -18.6468029 ], [ 27.2171699, -18.6469806 ], [ 27.2172261, -18.6471405 ], [ 27.2172261, -18.6472827 ], [ 27.2172699, -18.6474485 ], [ 27.2174199, -18.6476262 ], [ 27.2176074, -18.6477446 ], [ 27.2179512, -18.6480052 ], [ 27.21822, -18.6482007 ], [ 27.2184325, -18.6483961 ], [ 27.2186388, -18.6486508 ], [ 27.2187263, -18.6488522 ], [ 27.2187888, -18.649095 ], [ 27.2188076, -18.6492075 ], [ 27.2188764, -18.6495866 ], [ 27.2189639, -18.649782 ], [ 27.2190889, -18.6500071 ], [ 27.2192077, -18.6501078 ], [ 27.2193452, -18.6502085 ], [ 27.2195327, -18.6503092 ], [ 27.2197515, -18.6504099 ], [ 27.2200203, -18.6505283 ], [ 27.2201828, -18.6506468 ], [ 27.2203453, -18.6507593 ], [ 27.2205331, -18.6509421 ], [ 27.2206764, -18.651061 ], [ 27.2208288, -18.6512478 ], [ 27.221008, -18.6515194 ], [ 27.2210976, -18.6516808 ], [ 27.2211693, -18.6520034 ], [ 27.2212499, -18.6522666 ], [ 27.2212589, -18.6525552 ], [ 27.2211603, -18.6530222 ], [ 27.2209721, -18.6533533 ], [ 27.2208109, -18.6535995 ], [ 27.2207033, -18.6537524 ], [ 27.2205779, -18.6539561 ], [ 27.2205599, -18.6541005 ], [ 27.2206944, -18.6542618 ], [ 27.2209273, -18.6544316 ], [ 27.2211782, -18.6546183 ], [ 27.2214023, -18.6548391 ], [ 27.2215546, -18.6551617 ], [ 27.2216442, -18.6554843 ], [ 27.2217607, -18.6557305 ], [ 27.2220475, -18.655807 ], [ 27.2223163, -18.655756 ], [ 27.2225761, -18.6557221 ], [ 27.222827, -18.6557051 ], [ 27.223078, -18.6557051 ], [ 27.2233557, -18.6557645 ], [ 27.2234991, -18.6558579 ], [ 27.2237052, -18.6561296 ], [ 27.2238486, -18.6564182 ], [ 27.223992, -18.6565965 ], [ 27.2241443, -18.656656 ], [ 27.2246371, -18.6567748 ], [ 27.224897, -18.6566814 ], [ 27.2251031, -18.656605 ], [ 27.225130883845793, -18.656622768017456 ], [ 27.224877131344449, -18.658610495944661 ], [ 27.2246369, -18.6587835 ], [ 27.2242985, -18.6591186 ], [ 27.2239909, -18.6594829 ], [ 27.2237294, -18.6597598 ], [ 27.2232219, -18.6600949 ], [ 27.2226682, -18.6603281 ], [ 27.2221607, -18.6604009 ], [ 27.22173, -18.6604738 ], [ 27.2213609, -18.6605321 ], [ 27.2208072, -18.6605904 ], [ 27.2203458, -18.6606486 ], [ 27.2197921, -18.6607215 ], [ 27.2191308, -18.6607361 ], [ 27.2185617, -18.6608235 ], [ 27.2181311, -18.6608235 ], [ 27.2177466, -18.6607944 ], [ 27.2172237, -18.6606195 ], [ 27.2168238, -18.6604301 ], [ 27.2164239, -18.6602406 ], [ 27.216224, -18.6599638 ], [ 27.216024, -18.6596432 ], [ 27.2160086, -18.6593226 ], [ 27.216024, -18.6588709 ], [ 27.2160855, -18.6585358 ], [ 27.2162547, -18.6582297 ], [ 27.2165316, -18.6580112 ], [ 27.2169468, -18.657676 ], [ 27.2172698, -18.6574866 ], [ 27.2176543, -18.6574283 ], [ 27.2181465, -18.65737 ], [ 27.2185925, -18.6574137 ], [ 27.2190385, -18.6576906 ], [ 27.2193923, -18.6580257 ], [ 27.2199152, -18.6582735 ], [ 27.2203612, -18.6583172 ], [ 27.2208072, -18.65839 ], [ 27.2211148, -18.65839 ], [ 27.2215916, -18.6583463 ], [ 27.222053, -18.6583318 ], [ 27.2224529, -18.658288 ], [ 27.2228066, -18.6581569 ], [ 27.2230066, -18.6579092 ], [ 27.2230373, -18.6575886 ], [ 27.2230681, -18.6572097 ], [ 27.2226836, -18.657064 ], [ 27.2223606, -18.6568163 ], [ 27.222253, -18.656452 ], [ 27.2220069, -18.656146 ], [ 27.2217762, -18.6558837 ], [ 27.2215608, -18.6556505 ], [ 27.2213917, -18.6554611 ], [ 27.2212225, -18.6552134 ], [ 27.2210533, -18.6549219 ], [ 27.2206996, -18.6546451 ], [ 27.2204227, -18.6543682 ], [ 27.2202074, -18.6543245 ], [ 27.2196845, -18.6544265 ], [ 27.2193769, -18.6545576 ], [ 27.2186694, -18.6547908 ], [ 27.2179465, -18.6549074 ], [ 27.2173006, -18.6549948 ], [ 27.2166546, -18.6551114 ], [ 27.2159471, -18.6552571 ], [ 27.2151627, -18.6553737 ], [ 27.2145475, -18.6554611 ], [ 27.2139169, -18.655534 ], [ 27.2134248, -18.6556214 ], [ 27.2131326, -18.6558108 ], [ 27.212825, -18.6558983 ], [ 27.2123328, -18.6561023 ], [ 27.2121329, -18.6562771 ], [ 27.2118406, -18.6564083 ], [ 27.2114561, -18.6563937 ], [ 27.2112254, -18.6562188 ], [ 27.2109332, -18.6560148 ], [ 27.210764, -18.6557962 ], [ 27.2105795, -18.6555194 ], [ 27.2104257, -18.6551988 ], [ 27.2103641, -18.6548636 ], [ 27.2103641, -18.6545868 ], [ 27.2103641, -18.6543099 ], [ 27.2103334, -18.6539602 ], [ 27.2103334, -18.6537416 ], [ 27.2102872, -18.6533044 ], [ 27.2100412, -18.6531587 ], [ 27.2097797, -18.6530567 ], [ 27.2095798, -18.6526632 ], [ 27.2095644, -18.6523718 ], [ 27.2095644, -18.6520949 ], [ 27.2095029, -18.6516869 ], [ 27.2093029, -18.6513517 ], [ 27.2092414, -18.6509874 ], [ 27.2091953, -18.6506085 ], [ 27.2092568, -18.6502005 ], [ 27.2092722, -18.6498653 ], [ 27.209426, -18.649501 ], [ 27.2095951, -18.6492533 ], [ 27.2098566, -18.649093 ], [ 27.2102103, -18.6488161 ], [ 27.2104564, -18.6486121 ], [ 27.2106256, -18.6484081 ], [ 27.2109486, -18.6481312 ], [ 27.2110562, -18.6478398 ], [ 27.2109793, -18.6476212 ], [ 27.210764, -18.64749 ], [ 27.2105487, -18.6474317 ], [ 27.2103795, -18.6474172 ], [ 27.2100565, -18.6474609 ], [ 27.2097797, -18.6475483 ], [ 27.2096259, -18.6476066 ], [ 27.2095644, -18.6477669 ], [ 27.2095182, -18.6480146 ], [ 27.2094567, -18.6483352 ], [ 27.2093952, -18.6486413 ], [ 27.2092414, -18.6489181 ], [ 27.2088877, -18.6491659 ], [ 27.2087339, -18.6494573 ], [ 27.2085801, -18.6497925 ], [ 27.208457, -18.6501568 ], [ 27.2083647, -18.6504628 ], [ 27.2082417, -18.650798 ], [ 27.2081187, -18.6510749 ], [ 27.2079033, -18.6514975 ], [ 27.2077034, -18.6516723 ], [ 27.207565, -18.6518618 ], [ 27.2074419, -18.6520804 ], [ 27.2072574, -18.6524592 ], [ 27.2071958, -18.6528673 ], [ 27.2071497, -18.6533044 ], [ 27.2071189, -18.6536687 ], [ 27.2070574, -18.6541205 ], [ 27.2070728, -18.6544702 ], [ 27.2071805, -18.6549656 ], [ 27.207365, -18.6554757 ], [ 27.2075342, -18.6558983 ], [ 27.2077341, -18.6562043 ], [ 27.2080571, -18.6565248 ], [ 27.2087339, -18.6571952 ], [ 27.2092106, -18.6576469 ], [ 27.2095951, -18.6579237 ], [ 27.209995, -18.6581423 ], [ 27.2103949, -18.6583463 ], [ 27.2107025, -18.6584775 ], [ 27.2111793, -18.6587835 ], [ 27.2115177, -18.6590603 ], [ 27.2117484, -18.6594829 ], [ 27.2118253, -18.6600221 ], [ 27.2120867, -18.6603281 ], [ 27.2124712, -18.6606049 ], [ 27.2129788, -18.6609546 ], [ 27.2138093, -18.6614647 ], [ 27.2144552, -18.6617707 ], [ 27.2151474, -18.6619164 ], [ 27.215701, -18.6619309 ], [ 27.2162393, -18.6619309 ], [ 27.2168238, -18.6619309 ], [ 27.2175928, -18.6619309 ], [ 27.2181926, -18.6618727 ], [ 27.2188386, -18.6617998 ], [ 27.2194538, -18.6617124 ], [ 27.2198998, -18.6617415 ], [ 27.2203458, -18.6617415 ], [ 27.2207457, -18.6617415 ], [ 27.2211302, -18.6617415 ], [ 27.2217454, -18.6616395 ], [ 27.2223145, -18.6615521 ], [ 27.2227759, -18.6615667 ], [ 27.2232373, -18.6615521 ], [ 27.2238063, -18.6614647 ], [ 27.2244062, -18.6613044 ], [ 27.224537777094461, -18.661268770902893 ], [ 27.224424091776388, -18.662159305894473 ], [ 27.2241801, -18.6621744 ], [ 27.2237231, -18.6621744 ], [ 27.2233199, -18.6621319 ], [ 27.2229167, -18.6621828 ], [ 27.2225761, -18.6622593 ], [ 27.2221639, -18.6622932 ], [ 27.2218503, -18.6622677 ], [ 27.2216263, -18.6622508 ], [ 27.2212947, -18.6622508 ], [ 27.2210528, -18.6622508 ], [ 27.220775, -18.6622508 ], [ 27.2204703, -18.6622677 ], [ 27.2202374, -18.6623102 ], [ 27.2199237, -18.6623102 ], [ 27.2195922, -18.6623102 ], [ 27.2190276, -18.6623611 ], [ 27.2188305, -18.6623611 ], [ 27.2184541, -18.6623696 ], [ 27.2179703, -18.6623866 ], [ 27.2175043, -18.662446 ], [ 27.2170831, -18.6624885 ], [ 27.216662, -18.6624885 ], [ 27.2162946, -18.6624885 ], [ 27.2159093, -18.66248 ], [ 27.2155419, -18.6624545 ], [ 27.2152193, -18.6624121 ], [ 27.2149236, -18.6623951 ], [ 27.2144576, -18.6623696 ], [ 27.2142246, -18.6623442 ], [ 27.2139558, -18.6622762 ], [ 27.2137676, -18.6621998 ], [ 27.2133644, -18.6620215 ], [ 27.2130149, -18.6618942 ], [ 27.2126923, -18.6617499 ], [ 27.2123697, -18.6615546 ], [ 27.2117962, -18.6612575 ], [ 27.2115364, -18.6611556 ], [ 27.2113482, -18.6610792 ], [ 27.2111242, -18.6608924 ], [ 27.210936, -18.6606632 ], [ 27.2106672, -18.6604594 ], [ 27.2104252, -18.6602557 ], [ 27.2102191, -18.6599925 ], [ 27.2099145, -18.6597208 ], [ 27.2096635, -18.6595425 ], [ 27.2094754, -18.6593727 ], [ 27.2092962, -18.6592454 ], [ 27.2090452, -18.6590501 ], [ 27.2088302, -18.6587954 ], [ 27.2086241, -18.6585407 ], [ 27.2084538, -18.6583285 ], [ 27.2082746, -18.6581417 ], [ 27.2078266, -18.6577936 ], [ 27.207495, -18.6575219 ], [ 27.2072889, -18.6571569 ], [ 27.2071007, -18.6568937 ], [ 27.2068678, -18.656588 ], [ 27.2067333, -18.6563164 ], [ 27.2064735, -18.6559513 ], [ 27.2063211, -18.6556966 ], [ 27.2062674, -18.6554589 ], [ 27.2062136, -18.6551617 ], [ 27.2061509, -18.6548985 ], [ 27.2060613, -18.6547202 ], [ 27.2059627, -18.6545165 ], [ 27.2057835, -18.6540325 ], [ 27.2057835, -18.6538457 ], [ 27.2058731, -18.6534892 ], [ 27.2059179, -18.6531665 ], [ 27.2060344, -18.6528015 ], [ 27.2061867, -18.6523854 ], [ 27.2063122, -18.6520968 ], [ 27.2064645, -18.6517911 ], [ 27.2065272, -18.6514515 ], [ 27.2065541, -18.6511798 ], [ 27.2065541, -18.6509336 ], [ 27.2067244, -18.6503987 ], [ 27.2067513, -18.650127 ], [ 27.2067782, -18.6498214 ], [ 27.2068857, -18.6494987 ], [ 27.2068857, -18.6492016 ], [ 27.2068767, -18.6489469 ], [ 27.2068767, -18.6487091 ], [ 27.2068767, -18.6484459 ], [ 27.2067692, -18.6480893 ], [ 27.2067423, -18.6478856 ], [ 27.2067065, -18.6475799 ], [ 27.2067065, -18.6472573 ], [ 27.2066975, -18.6469177 ], [ 27.2067154, -18.6466714 ], [ 27.2066975, -18.6465016 ], [ 27.2066617, -18.6462384 ], [ 27.2066258, -18.6460007 ], [ 27.2066348, -18.645729 ], [ 27.2065989, -18.6454913 ], [ 27.2066169, -18.6450497 ], [ 27.2066348, -18.6448205 ], [ 27.2066617, -18.6445573 ], [ 27.2067244, -18.6442941 ], [ 27.2067513, -18.6440479 ], [ 27.2068319, -18.6438441 ], [ 27.2069305, -18.6436063 ], [ 27.2070271, -18.6434237 ], [ 27.2070486, -18.6432204 ], [ 27.2070057, -18.643017 ], [ 27.2070057, -18.6428442 ], [ 27.2069627, -18.6426409 ], [ 27.2068984, -18.6424376 ], [ 27.2068125, -18.6422139 ], [ 27.2066945, -18.64197 ], [ 27.2066301, -18.641787 ], [ 27.2065658, -18.6415836 ], [ 27.2064799, -18.6413905 ], [ 27.2063834, -18.6411973 ], [ 27.2062761, -18.6409839 ], [ 27.2061581, -18.6408009 ], [ 27.2060722, -18.6405975 ], [ 27.2060079, -18.6402926 ], [ 27.2059757, -18.6399571 ], [ 27.2059757, -18.6397029 ], [ 27.2060186, -18.6393268 ], [ 27.2061152, -18.6391031 ], [ 27.2062332, -18.6389303 ], [ 27.2063619, -18.6387575 ], [ 27.2065014, -18.6385745 ], [ 27.2068125, -18.6382695 ], [ 27.2071129, -18.6380459 ], [ 27.2074348, -18.6377815 ], [ 27.2076923, -18.6374664 ], [ 27.207982, -18.6372529 ], [ 27.2083253, -18.6369682 ], [ 27.2086043, -18.6367039 ], [ 27.2088296, -18.6365006 ], [ 27.2091943, -18.6360634 ], [ 27.2093445, -18.6358398 ], [ 27.2095377, -18.635545 ], [ 27.2097415, -18.6352705 ], [ 27.2098595, -18.6349655 ], [ 27.2099024, -18.6347113 ], [ 27.2099668, -18.634447 ], [ 27.2100205, -18.6341522 ], [ 27.2100634, -18.6338472 ], [ 27.2100205, -18.6336133 ], [ 27.2099132, -18.6333998 ], [ 27.2098381, -18.6331965 ], [ 27.2097415, -18.6330034 ], [ 27.2097415, -18.6327187 ], [ 27.2097308, -18.6324442 ], [ 27.2097308, -18.632331907534354 ], [ 27.211496429283361, -18.633609665568368 ] ], [ [ 27.2133554, -18.6518968 ], [ 27.2133554, -18.6520327 ], [ 27.2134092, -18.652194 ], [ 27.2135525, -18.6523723 ], [ 27.2137318, -18.6525081 ], [ 27.2138214, -18.652644 ], [ 27.2138124, -18.6528732 ], [ 27.2137766, -18.6531449 ], [ 27.2137586, -18.6533911 ], [ 27.213669, -18.6536373 ], [ 27.2135525, -18.6538496 ], [ 27.2135257, -18.6540703 ], [ 27.2134271, -18.6542996 ], [ 27.2133016, -18.6544694 ], [ 27.2130955, -18.6546052 ], [ 27.2128984, -18.6547071 ], [ 27.2128715, -18.6549278 ], [ 27.2130507, -18.6550722 ], [ 27.213454, -18.6552165 ], [ 27.2139468, -18.655242 ], [ 27.2144934, -18.6552759 ], [ 27.2147264, -18.6551401 ], [ 27.21504, -18.6550722 ], [ 27.2153895, -18.6550042 ], [ 27.2157569, -18.6549363 ], [ 27.216196, -18.6548514 ], [ 27.2166082, -18.6547665 ], [ 27.21711, -18.6546561 ], [ 27.217558, -18.6544863 ], [ 27.2178806, -18.6544269 ], [ 27.2182391, -18.654359 ], [ 27.21849, -18.654308 ], [ 27.2188753, -18.6541637 ], [ 27.2191531, -18.6540109 ], [ 27.2193144, -18.653909 ], [ 27.2196907, -18.6537222 ], [ 27.2200312, -18.6534845 ], [ 27.2203538, -18.6531873 ], [ 27.2205958, -18.6528477 ], [ 27.2207481, -18.652644 ], [ 27.2208198, -18.6524742 ], [ 27.2209273, -18.652211 ], [ 27.2209004, -18.6519817 ], [ 27.2207392, -18.6516761 ], [ 27.2205331, -18.6514469 ], [ 27.2202463, -18.6511837 ], [ 27.2200133, -18.6510139 ], [ 27.2197445, -18.6508865 ], [ 27.219404, -18.6507337 ], [ 27.2190366, -18.6505639 ], [ 27.2187946, -18.6504705 ], [ 27.2185617, -18.6503686 ], [ 27.2183197, -18.6502837 ], [ 27.2180829, -18.6501988 ], [ 27.2177906, -18.6500822 ], [ 27.2174369, -18.6500093 ], [ 27.217037, -18.6500093 ], [ 27.2166064, -18.6500093 ], [ 27.2162526, -18.6500531 ], [ 27.2158989, -18.6501551 ], [ 27.2155913, -18.6502862 ], [ 27.2151914, -18.6503882 ], [ 27.214607, -18.6505922 ], [ 27.2142532, -18.6507525 ], [ 27.213961, -18.6509274 ], [ 27.2137149, -18.6510731 ], [ 27.213515, -18.6513792 ], [ 27.2133766, -18.6517143 ], [ 27.2133554, -18.6518968 ] ], [ [ 27.2122251, -18.649093 ], [ 27.2119637, -18.6490493 ], [ 27.2117791, -18.6491513 ], [ 27.2115484, -18.6494427 ], [ 27.2113638, -18.6497925 ], [ 27.2114254, -18.6502588 ], [ 27.2115023, -18.6505648 ], [ 27.2117484, -18.6508271 ], [ 27.211856, -18.6510603 ], [ 27.2120713, -18.6511623 ], [ 27.2124097, -18.651206 ], [ 27.2127634, -18.6510894 ], [ 27.2130403, -18.6509 ], [ 27.2132864, -18.6507251 ], [ 27.2136247, -18.6505211 ], [ 27.2139169, -18.65039 ], [ 27.2142245, -18.6502588 ], [ 27.2145629, -18.6501131 ], [ 27.2148551, -18.6499819 ], [ 27.2151935, -18.6498799 ], [ 27.2156549, -18.6498071 ], [ 27.2160086, -18.6497342 ], [ 27.2163931, -18.6496613 ], [ 27.2167007, -18.649603 ], [ 27.2170852, -18.6495593 ], [ 27.2175774, -18.6495593 ], [ 27.2179619, -18.649603 ], [ 27.218331, -18.6497051 ], [ 27.2185002, -18.6497342 ], [ 27.2185463, -18.649501 ], [ 27.2185002, -18.6492679 ], [ 27.2184079, -18.6489473 ], [ 27.218208, -18.648685 ], [ 27.2180696, -18.6484081 ], [ 27.2178235, -18.6481458 ], [ 27.217562, -18.6479709 ], [ 27.2173467, -18.647796 ], [ 27.216993, -18.6475629 ], [ 27.2167776, -18.6474317 ], [ 27.2165008, -18.6473151 ], [ 27.2162547, -18.647184 ], [ 27.2158548, -18.6469654 ], [ 27.2156857, -18.6467614 ], [ 27.2154242, -18.6464845 ], [ 27.2151012, -18.6462222 ], [ 27.2146398, -18.645989 ], [ 27.2143783, -18.6458141 ], [ 27.2142245, -18.6455956 ], [ 27.2140246, -18.6453624 ], [ 27.2139323, -18.6451147 ], [ 27.2138708, -18.6448961 ], [ 27.2137478, -18.6445026 ], [ 27.2136247, -18.6442548 ], [ 27.2135324, -18.6440654 ], [ 27.2133325, -18.6438468 ], [ 27.2132402, -18.6436136 ], [ 27.2130095, -18.6437156 ], [ 27.2128096, -18.643978 ], [ 27.2127173, -18.6440654 ], [ 27.2125635, -18.6442111 ], [ 27.2124405, -18.644386 ], [ 27.2122251, -18.644692 ], [ 27.2121175, -18.6451147 ], [ 27.212056, -18.645377 ], [ 27.2120252, -18.6457559 ], [ 27.2120252, -18.6461056 ], [ 27.2120713, -18.6464116 ], [ 27.2122713, -18.6466302 ], [ 27.2126865, -18.6467905 ], [ 27.2130557, -18.6469363 ], [ 27.2131941, -18.647082 ], [ 27.2135017, -18.6473151 ], [ 27.2137478, -18.647592 ], [ 27.2138862, -18.6477669 ], [ 27.21404, -18.6479418 ], [ 27.2142707, -18.6481604 ], [ 27.2144399, -18.6483789 ], [ 27.2144706, -18.6486704 ], [ 27.2143014, -18.6489619 ], [ 27.2141784, -18.6492242 ], [ 27.2140092, -18.649501 ], [ 27.2138247, -18.6497196 ], [ 27.2135324, -18.6497342 ], [ 27.2132864, -18.6496759 ], [ 27.2130095, -18.6495739 ], [ 27.2127788, -18.649399 ], [ 27.2125943, -18.649297 ], [ 27.2124251, -18.6491513 ], [ 27.2122251, -18.649093 ] ], [ [ 27.212179, -18.6471986 ], [ 27.2120406, -18.6474026 ], [ 27.2119483, -18.6476357 ], [ 27.2118406, -18.6478252 ], [ 27.2117637, -18.6480292 ], [ 27.2117637, -18.6482769 ], [ 27.2118714, -18.6485684 ], [ 27.2120867, -18.6487433 ], [ 27.2123174, -18.6488744 ], [ 27.2125789, -18.6490493 ], [ 27.2128865, -18.6491222 ], [ 27.2132556, -18.6491076 ], [ 27.2134863, -18.6490056 ], [ 27.2136093, -18.6488307 ], [ 27.2137324, -18.6485538 ], [ 27.2137785, -18.6483352 ], [ 27.2137478, -18.6480729 ], [ 27.2136401, -18.6478543 ], [ 27.2134555, -18.647694 ], [ 27.2132864, -18.6475629 ], [ 27.2131326, -18.6474609 ], [ 27.2129326, -18.6473297 ], [ 27.2128096, -18.6472423 ], [ 27.2126404, -18.6471403 ], [ 27.2123789, -18.647082 ], [ 27.212179, -18.6471986 ] ], [ [ 27.2102094, -18.6500947 ], [ 27.2098595, -18.650182 ], [ 27.2096938, -18.6504611 ], [ 27.209657, -18.6508275 ], [ 27.2097122, -18.6512114 ], [ 27.2098595, -18.6515603 ], [ 27.2099332, -18.6517697 ], [ 27.2099884, -18.6521361 ], [ 27.2100621, -18.6523629 ], [ 27.2102831, -18.652677 ], [ 27.2103935, -18.6528514 ], [ 27.2105224, -18.6533051 ], [ 27.2106513, -18.6537064 ], [ 27.2107066, -18.6541774 ], [ 27.2108723, -18.6545787 ], [ 27.210946, -18.6549102 ], [ 27.2110196, -18.6552592 ], [ 27.211259, -18.6555383 ], [ 27.2115905, -18.6556604 ], [ 27.212014, -18.6556255 ], [ 27.2123639, -18.6554336 ], [ 27.2126217, -18.6551021 ], [ 27.2127322, -18.654823 ], [ 27.2128058, -18.6545613 ], [ 27.2128611, -18.6543345 ], [ 27.2129348, -18.6540902 ], [ 27.2129716, -18.6537761 ], [ 27.2130452, -18.6534272 ], [ 27.2131005, -18.6530608 ], [ 27.2131189, -18.6527119 ], [ 27.2131557, -18.6524327 ], [ 27.2128427, -18.6527468 ], [ 27.2126769, -18.6530608 ], [ 27.2124191, -18.6528689 ], [ 27.2124928, -18.6525548 ], [ 27.2126217, -18.6522408 ], [ 27.2127506, -18.6518744 ], [ 27.2125665, -18.6515778 ], [ 27.2122718, -18.6514208 ], [ 27.211793, -18.6512463 ], [ 27.2115721, -18.6510718 ], [ 27.2114063, -18.6509322 ], [ 27.2112406, -18.6507403 ], [ 27.2110012, -18.6506182 ], [ 27.2108355, -18.6504262 ], [ 27.210725, -18.6501645 ], [ 27.2106698, -18.6500424 ], [ 27.2102094, -18.6500947 ] ], [ [ 27.2075393, -18.6484023 ], [ 27.2078339, -18.6481755 ], [ 27.2080917, -18.6479138 ], [ 27.2083311, -18.6476521 ], [ 27.2085337, -18.6474252 ], [ 27.2087546, -18.6471286 ], [ 27.2089388, -18.6468495 ], [ 27.2091045, -18.646483 ], [ 27.2091413, -18.646169 ], [ 27.2093255, -18.6456979 ], [ 27.2095465, -18.6452093 ], [ 27.2096938, -18.6445289 ], [ 27.2097306, -18.644145 ], [ 27.2098227, -18.6437088 ], [ 27.2099332, -18.6433947 ], [ 27.20997, -18.6430632 ], [ 27.20997, -18.6426444 ], [ 27.2100621, -18.642278 ], [ 27.2101357, -18.6417371 ], [ 27.2101726, -18.6413184 ], [ 27.210191, -18.6408647 ], [ 27.2102831, -18.6404459 ], [ 27.2103199, -18.6398352 ], [ 27.2103015, -18.6395386 ], [ 27.2101726, -18.6394339 ], [ 27.2099148, -18.6397131 ], [ 27.2097122, -18.6401842 ], [ 27.2094912, -18.6406553 ], [ 27.2093071, -18.6410915 ], [ 27.2093071, -18.6414928 ], [ 27.2092702, -18.6418593 ], [ 27.2090677, -18.6420686 ], [ 27.2089204, -18.6426095 ], [ 27.2090309, -18.6433075 ], [ 27.2090309, -18.6436913 ], [ 27.2088835, -18.6441276 ], [ 27.2085705, -18.6445638 ], [ 27.2083127, -18.6447557 ], [ 27.2080365, -18.645 ], [ 27.2078339, -18.645506 ], [ 27.2075945, -18.6459945 ], [ 27.2074288, -18.6465179 ], [ 27.2073367, -18.6470065 ], [ 27.2072446, -18.6473729 ], [ 27.2072262, -18.6478265 ], [ 27.2071342, -18.6481231 ], [ 27.2072262, -18.648507 ], [ 27.2075393, -18.6484023 ] ] ] ] } },
{ "type": "Feature", "properties": { "full_id": "w355335163", "osm_id": "355335163", "osm_type": "way", "natural": "water", "boundary": null, "landuse": null, "leisure": null, "name": "Ivory Pan" }, "geometry": { "type": "MultiPolygon", "coordinates": [ [ [ [ 27.0594292, -18.6150744 ], [ 27.0595002, -18.6150201 ], [ 27.059589, -18.6150164 ], [ 27.0596482, -18.614964 ], [ 27.0596443, -18.6149079 ], [ 27.0596739, -18.6148687 ], [ 27.0597528, -18.6148836 ], [ 27.0599225, -18.6148911 ], [ 27.060031, -18.6148892 ], [ 27.0601415, -18.6148799 ], [ 27.0601928, -18.6148761 ], [ 27.0602718, -18.6148687 ], [ 27.0603428, -18.6148687 ], [ 27.0603862, -18.614936 ], [ 27.0603665, -18.6150033 ], [ 27.0603112, -18.6150052 ], [ 27.0602402, -18.6149696 ], [ 27.0601593, -18.6149696 ], [ 27.0601257, -18.6149958 ], [ 27.0601277, -18.6150725 ], [ 27.0601356, -18.6151622 ], [ 27.0601297, -18.615224 ], [ 27.0600942, -18.6153156 ], [ 27.0599738, -18.6153736 ], [ 27.059808, -18.6154727 ], [ 27.0596916, -18.6156185 ], [ 27.0595811, -18.6155905 ], [ 27.0595259, -18.6155007 ], [ 27.0594765, -18.6154409 ], [ 27.0595002, -18.6153848 ], [ 27.0594746, -18.6153362 ], [ 27.0594213, -18.61531 ], [ 27.0594173, -18.6152408 ], [ 27.0594173, -18.6151342 ], [ 27.0594292, -18.6150744 ] ] ] ] } },
{ "type": "Feature", "properties": { "full_id": "w495929390", "osm_id": "495929390", "osm_type": "way", "natural": null, "boundary": null, "landuse": null, "leisure": "swimming_pool", "name": null }, "geometry": { "type": "MultiPolygon", "coordinates": [ [ [ [ 26.9786244, -18.6580852 ], [ 26.9786334, -18.6581146 ], [ 26.9786224, -18.6581289 ], [ 26.9785852, -18.6581593 ], [ 26.9785341, -18.6581793 ], [ 26.9784839, -18.6581707 ], [ 26.9784648, -18.6581308 ], [ 26.978498, -18.6580918 ], [ 26.9785471, -18.6580709 ], [ 26.9786244, -18.6580852 ] ] ] ] } },
{ "type": "Feature", "properties": { "full_id": "w667187368", "osm_id": "667187368", "osm_type": "way", "natural": "water", "boundary": null, "landuse": null, "leisure": null, "name": "Khulu Pan" }, "geometry": { "type": "MultiPolygon", "coordinates": [ [ [ [ 27.0538329, -18.6142009 ], [ 27.0537829, -18.6142162 ], [ 27.0537358, -18.6142469 ], [ 27.0536711, -18.6142455 ], [ 27.0536314, -18.6142385 ], [ 27.0535637, -18.6142692 ], [ 27.0534931, -18.6142692 ], [ 27.0534005, -18.6142148 ], [ 27.0533431, -18.6142287 ], [ 27.053296, -18.614219 ], [ 27.0532416, -18.6141925 ], [ 27.0532136, -18.6142023 ], [ 27.0531548, -18.6142218 ], [ 27.0530754, -18.6142246 ], [ 27.0530695, -18.6141897 ], [ 27.0530768, -18.6141479 ], [ 27.0530871, -18.6140893 ], [ 27.0531269, -18.6140489 ], [ 27.0531828, -18.6140127 ], [ 27.0532637, -18.6139987 ], [ 27.053346, -18.613989 ], [ 27.0534078, -18.6139932 ], [ 27.0534284, -18.6140238 ], [ 27.0534519, -18.6140475 ], [ 27.0534961, -18.6140252 ], [ 27.0535505, -18.6140182 ], [ 27.0535843, -18.6139987 ], [ 27.0535946, -18.6139639 ], [ 27.0536314, -18.6139346 ], [ 27.0536785, -18.6139318 ], [ 27.0537167, -18.613936 ], [ 27.0537638, -18.6139276 ], [ 27.0538182, -18.6139207 ], [ 27.0538638, -18.6139123 ], [ 27.0539123, -18.6139248 ], [ 27.0539432, -18.6139444 ], [ 27.0539506, -18.6140224 ], [ 27.0539579, -18.61412 ], [ 27.0539712, -18.6141925 ], [ 27.0539565, -18.6142357 ], [ 27.0539447, -18.6142496 ], [ 27.0538653, -18.6142594 ], [ 27.0538462, -18.6142357 ], [ 27.0538329, -18.6142009 ] ] ] ] } },
{ "type": "Feature", "properties": { "full_id": "w667187374", "osm_id": "667187374", "osm_type": "way", "natural": "water", "boundary": null, "landuse": null, "leisure": null, "name": null }, "geometry": { "type": "MultiPolygon", "coordinates": [ [ [ [ 27.0585733, -18.6438392 ], [ 27.0587504, -18.6438494 ], [ 27.0587986, -18.643951 ], [ 27.0588415, -18.6441543 ], [ 27.0587235, -18.6442662 ], [ 27.0583802, -18.6442967 ], [ 27.0581442, -18.6442509 ], [ 27.0581281, -18.6440628 ], [ 27.0582193, -18.6439358 ], [ 27.0585733, -18.6438392 ] ] ] ] } },
{ "type": "Feature", "properties": { "full_id": "w667187377", "osm_id": "667187377", "osm_type": "way", "natural": "wetland", "boundary": null, "landuse": null, "leisure": null, "name": null }, "geometry": { "type": "MultiPolygon", "coordinates": [ [ [ [ 27.0219933, -18.6006991 ], [ 27.022336, -18.6006951 ], [ 27.0225938, -18.6006921 ], [ 27.0231497, -18.6005586 ], [ 27.024106, -18.6002494 ], [ 27.024751, -18.6001089 ], [ 27.0259519, -18.6000597 ], [ 27.0267896, -18.6002986 ], [ 27.0271232, -18.6005094 ], [ 27.0275976, -18.6005164 ], [ 27.0280573, -18.6003619 ], [ 27.0287615, -18.6002986 ], [ 27.0295621, -18.6002635 ], [ 27.0301997, -18.600397 ], [ 27.0306222, -18.6007694 ], [ 27.0310596, -18.6011628 ], [ 27.0316304, -18.6017038 ], [ 27.0324681, -18.6019848 ], [ 27.0333502, -18.6020411 ], [ 27.0341769, -18.60195 ], [ 27.0343065, -18.6019357 ], [ 27.0348329, -18.6016968 ], [ 27.0355445, -18.6014228 ], [ 27.0361524, -18.6012752 ], [ 27.0370346, -18.6011417 ], [ 27.0378871, -18.6010996 ], [ 27.0390584, -18.6011698 ], [ 27.0397181, -18.6011628 ], [ 27.0414825, -18.6008256 ], [ 27.0423498, -18.6005726 ], [ 27.0430392, -18.6005094 ], [ 27.0434989, -18.6004321 ], [ 27.0443069, -18.5999263 ], [ 27.0453373, -18.5993712 ], [ 27.0465012, -18.598781 ], [ 27.0474797, -18.5983524 ], [ 27.0490291, -18.5975725 ], [ 27.0499854, -18.5970526 ], [ 27.0507489, -18.5963851 ], [ 27.0515959, -18.595844 ], [ 27.0520685, -18.595542 ], [ 27.0530692, -18.5950572 ], [ 27.0533268, -18.5949705 ], [ 27.0538625, -18.5947902 ], [ 27.0542166, -18.5945928 ], [ 27.0544926, -18.5944389 ], [ 27.0549003, -18.5941508 ], [ 27.055201, -18.5940548 ], [ 27.0552441, -18.5940838 ], [ 27.0550411, -18.5943054 ], [ 27.0546705, -18.5946216 ], [ 27.0540404, -18.5949096 ], [ 27.0534621, -18.5951556 ], [ 27.052958, -18.595535 ], [ 27.0526393, -18.595802 ], [ 27.0522983, -18.5958863 ], [ 27.0517571, -18.5961673 ], [ 27.051379, -18.5963992 ], [ 27.0509639, -18.5967224 ], [ 27.0505562, -18.5970807 ], [ 27.0500002, -18.597418 ], [ 27.0494887, -18.5976639 ], [ 27.0490958, -18.5979519 ], [ 27.0481173, -18.5984227 ], [ 27.0472499, -18.5988161 ], [ 27.0466198, -18.5991393 ], [ 27.0459081, -18.5994766 ], [ 27.0452113, -18.5997787 ], [ 27.0446331, -18.6001511 ], [ 27.0437509, -18.6005797 ], [ 27.0430467, -18.6008326 ], [ 27.0421571, -18.6010855 ], [ 27.0413046, -18.6013104 ], [ 27.040326, -18.6014649 ], [ 27.0397256, -18.6013666 ], [ 27.0388063, -18.6013947 ], [ 27.0380428, -18.6013666 ], [ 27.0372496, -18.6014649 ], [ 27.0360486, -18.6016265 ], [ 27.0353592, -18.6020129 ], [ 27.0346179, -18.6022167 ], [ 27.0338247, -18.6023713 ], [ 27.033076, -18.6023923 ], [ 27.0326096, -18.6023386 ], [ 27.0320381, -18.6022729 ], [ 27.031534, -18.6019989 ], [ 27.0314381, -18.6019365 ], [ 27.0308001, -18.6015211 ], [ 27.0303924, -18.6014157 ], [ 27.029955, -18.6009942 ], [ 27.0293694, -18.6007553 ], [ 27.0288208, -18.6007413 ], [ 27.0282574, -18.6008326 ], [ 27.0277162, -18.6008748 ], [ 27.0271306, -18.6007904 ], [ 27.0267229, -18.6007483 ], [ 27.0260112, -18.6008256 ], [ 27.0252032, -18.6008888 ], [ 27.0246917, -18.6007202 ], [ 27.0242543, -18.6008607 ], [ 27.0235871, -18.600952 ], [ 27.0231275, -18.6010645 ], [ 27.0226531, -18.6010363 ], [ 27.0222379, -18.6009731 ], [ 27.0220081, -18.6008748 ], [ 27.0219933, -18.6006991 ] ] ] ] } },
{ "type": "Feature", "properties": { "full_id": "w667187378", "osm_id": "667187378", "osm_type": "way", "natural": "water", "boundary": null, "landuse": null, "leisure": null, "name": "Mabale Pan" }, "geometry": { "type": "MultiPolygon", "coordinates": [ [ [ [ 27.024211, -18.5833107 ], [ 27.0241212, -18.5833372 ], [ 27.0239844, -18.5833302 ], [ 27.0239094, -18.5833023 ], [ 27.0238609, -18.5832382 ], [ 27.0238418, -18.5831545 ], [ 27.0238697, -18.5831238 ], [ 27.0239374, -18.5830987 ], [ 27.0240315, -18.5831001 ], [ 27.0240933, -18.5831252 ], [ 27.0241654, -18.5831922 ], [ 27.0242139, -18.5832368 ], [ 27.0242301, -18.5832786 ], [ 27.024211, -18.5833107 ] ] ] ] } },
{ "type": "Feature", "properties": { "full_id": "w667187379", "osm_id": "667187379", "osm_type": "way", "natural": "water", "boundary": null, "landuse": null, "leisure": null, "name": null }, "geometry": { "type": "MultiPolygon", "coordinates": [ [ [ [ 27.024789, -18.5835045 ], [ 27.0247405, -18.5834501 ], [ 27.0246905, -18.5833901 ], [ 27.0247052, -18.5833344 ], [ 27.0248141, -18.5832884 ], [ 27.0249155, -18.5833121 ], [ 27.0250362, -18.583326 ], [ 27.0251141, -18.5833483 ], [ 27.0251465, -18.5834083 ], [ 27.0251391, -18.5834654 ], [ 27.0250832, -18.5835226 ], [ 27.02502, -18.5835296 ], [ 27.0249935, -18.58351 ], [ 27.0249406, -18.5834599 ], [ 27.0249067, -18.5834529 ], [ 27.0248655, -18.5834668 ], [ 27.0248346, -18.5834947 ], [ 27.024789, -18.5835045 ] ] ] ] } },
{ "type": "Feature", "properties": { "full_id": "w667192521", "osm_id": "667192521", "osm_type": "way", "natural": "water", "boundary": null, "landuse": null, "leisure": null, "name": null }, "geometry": { "type": "MultiPolygon", "coordinates": [ [ [ [ 27.0367015, -18.6138145 ], [ 27.0368419, -18.6138012 ], [ 27.0369318, -18.613873 ], [ 27.0368812, -18.6139662 ], [ 27.0367773, -18.6139742 ], [ 27.0366734, -18.6138943 ], [ 27.0367015, -18.6138145 ] ] ] ] } },
{ "type": "Feature", "properties": { "full_id": "w667192529", "osm_id": "667192529", "osm_type": "way", "natural": "wetland", "boundary": null, "landuse": null, "leisure": null, "name": null }, "geometry": { "type": "MultiPolygon", "coordinates": [ [ [ [ 27.0169093, -18.6146964 ], [ 27.0178806, -18.6144486 ], [ 27.0188146, -18.6145371 ], [ 27.020253, -18.6144309 ], [ 27.021654, -18.6143424 ], [ 27.0229055, -18.6143601 ], [ 27.0241011, -18.6142715 ], [ 27.0251098, -18.6139352 ], [ 27.0257262, -18.6141299 ], [ 27.0261185, -18.6146256 ], [ 27.0266789, -18.6149443 ], [ 27.0275195, -18.6148026 ], [ 27.0283788, -18.6145371 ], [ 27.0289579, -18.6145548 ], [ 27.0297424, -18.614838 ], [ 27.0303775, -18.6152806 ], [ 27.0312555, -18.6156878 ], [ 27.031928, -18.6160595 ], [ 27.0326005, -18.6161126 ], [ 27.0332543, -18.6156524 ], [ 27.0345992, -18.6150328 ], [ 27.0353277, -18.6142184 ], [ 27.0357387, -18.6139529 ], [ 27.036131, -18.6135634 ], [ 27.0366167, -18.6132448 ], [ 27.0371584, -18.6129438 ], [ 27.0376814, -18.6127137 ], [ 27.0380737, -18.6127491 ], [ 27.0384099, -18.6132094 ], [ 27.0386715, -18.6136874 ], [ 27.0390264, -18.6142361 ], [ 27.0395494, -18.6147141 ], [ 27.0403153, -18.6151921 ], [ 27.0415668, -18.6152629 ], [ 27.0420899, -18.6152275 ], [ 27.0427437, -18.6150505 ], [ 27.0434535, -18.6149443 ], [ 27.0442007, -18.6149266 ], [ 27.0449479, -18.6145371 ], [ 27.0454896, -18.6140591 ], [ 27.0460874, -18.6138467 ], [ 27.047395, -18.6134218 ], [ 27.0479741, -18.6133156 ], [ 27.0488707, -18.6132448 ], [ 27.0497487, -18.6132271 ], [ 27.0505332, -18.6134218 ], [ 27.0513178, -18.6136874 ], [ 27.0518969, -18.6137228 ], [ 27.0525694, -18.6135103 ], [ 27.0531671, -18.6135457 ], [ 27.0538022, -18.6134218 ], [ 27.0543253, -18.6134926 ], [ 27.0549497, -18.6136954 ], [ 27.0555089, -18.6136954 ], [ 27.0560894, -18.6138429 ], [ 27.0564999, -18.6140107 ], [ 27.0570591, -18.6141381 ], [ 27.0575263, -18.6140979 ], [ 27.0583474, -18.6139167 ], [ 27.0589278, -18.6136887 ], [ 27.0596569, -18.6137222 ], [ 27.0598975, -18.61391 ], [ 27.0602704, -18.6139255 ], [ 27.0607826, -18.6140038 ], [ 27.0610579, -18.6140742 ], [ 27.0614021, -18.6141107 ], [ 27.0618206, -18.6141603 ], [ 27.0623107, -18.6141394 ], [ 27.0626907, -18.6140925 ], [ 27.062878, -18.6140742 ], [ 27.0630845, -18.6139881 ], [ 27.0632244, -18.6138094 ], [ 27.0634155, -18.6136283 ], [ 27.0634155, -18.6134002 ], [ 27.0632598, -18.6131319 ], [ 27.0632315, -18.6129038 ], [ 27.0636279, -18.6126288 ], [ 27.0641587, -18.6125483 ], [ 27.0646967, -18.6126489 ], [ 27.0650506, -18.6127562 ], [ 27.0651639, -18.6128367 ], [ 27.0651709, -18.6130178 ], [ 27.0651285, -18.613199 ], [ 27.0652417, -18.6132862 ], [ 27.0654965, -18.6132929 ], [ 27.0658009, -18.6131587 ], [ 27.0660911, -18.6128971 ], [ 27.0665692, -18.6126164 ], [ 27.0672343, -18.6123846 ], [ 27.0675865, -18.6120323 ], [ 27.0679679, -18.6120138 ], [ 27.0683201, -18.6118655 ], [ 27.0690439, -18.6116801 ], [ 27.069445, -18.6114669 ], [ 27.0698852, -18.6113834 ], [ 27.0704427, -18.6114761 ], [ 27.0709905, -18.6115874 ], [ 27.0712554, -18.6116507 ], [ 27.0705772, -18.6116826 ], [ 27.0697031, -18.6118702 ], [ 27.068961, -18.6120264 ], [ 27.0686094, -18.612122 ], [ 27.0682311, -18.6122324 ], [ 27.0678931, -18.6123568 ], [ 27.0674013, -18.6125659 ], [ 27.066779, -18.6128738 ], [ 27.0664322, -18.6131726 ], [ 27.0661388, -18.613358 ], [ 27.0658258, -18.6135434 ], [ 27.065454, -18.6137195 ], [ 27.0648965, -18.6139049 ], [ 27.0644172, -18.6139605 ], [ 27.0637422, -18.6141181 ], [ 27.0633021, -18.6142664 ], [ 27.0627934, -18.6143128 ], [ 27.0621185, -18.6143313 ], [ 27.0614044, -18.6144426 ], [ 27.0608469, -18.6145445 ], [ 27.0608986, -18.6146001 ], [ 27.0609345, -18.6147748 ], [ 27.0608423, -18.6150078 ], [ 27.0606937, -18.615202 ], [ 27.0607347, -18.6154301 ], [ 27.0606476, -18.6156 ], [ 27.0606271, -18.6157845 ], [ 27.0605759, -18.6159592 ], [ 27.0605144, -18.6161922 ], [ 27.0605129, -18.6164219 ], [ 27.0603809, -18.6163795 ], [ 27.0601637, -18.616313 ], [ 27.0600432, -18.6163913 ], [ 27.0599254, -18.6164883 ], [ 27.0597973, -18.6166145 ], [ 27.059659, -18.6167116 ], [ 27.0595873, -18.6167019 ], [ 27.0595873, -18.6166145 ], [ 27.0595515, -18.6165223 ], [ 27.0595412, -18.6164058 ], [ 27.0595873, -18.6162748 ], [ 27.0595932, -18.6162262 ], [ 27.059442, -18.6162242 ], [ 27.0594229, -18.6162464 ], [ 27.0593548, -18.6163372 ], [ 27.0592079, -18.6165571 ], [ 27.059078, -18.6167265 ], [ 27.0589928, -18.6168335 ], [ 27.0589162, -18.6169243 ], [ 27.0588843, -18.617013 ], [ 27.0588821, -18.6171199 ], [ 27.0588729, -18.6172111 ], [ 27.0586264, -18.6172085 ], [ 27.0584501, -18.6172482 ], [ 27.0583201, -18.6172224 ], [ 27.0580644, -18.6170821 ], [ 27.0578906, -18.6169668 ], [ 27.0579077, -18.616872 ], [ 27.0578875, -18.6166443 ], [ 27.0577247, -18.6164564 ], [ 27.0575123, -18.6160741 ], [ 27.057215, -18.6155643 ], [ 27.0571088, -18.615202 ], [ 27.0567762, -18.6149471 ], [ 27.0560542, -18.6146453 ], [ 27.0556649, -18.6142897 ], [ 27.0554525, -18.614169 ], [ 27.0553379, -18.6141405 ], [ 27.0551047, -18.6141791 ], [ 27.0549573, -18.6141924 ], [ 27.054821, -18.6141857 ], [ 27.0545991, -18.6142696 ], [ 27.0544306, -18.6143641 ], [ 27.0542245, -18.6145056 ], [ 27.0541096, -18.6146637 ], [ 27.0540689, -18.6148007 ], [ 27.0539947, -18.614899 ], [ 27.0539243, -18.6149622 ], [ 27.053776, -18.6149447 ], [ 27.0537056, -18.6149025 ], [ 27.0537019, -18.6148217 ], [ 27.0536537, -18.614755 ], [ 27.053587, -18.6147339 ], [ 27.0535462, -18.6147866 ], [ 27.0535685, -18.6148744 ], [ 27.0536055, -18.6149236 ], [ 27.0535685, -18.6149658 ], [ 27.0535229, -18.6150612 ], [ 27.0534017, -18.6150571 ], [ 27.0532942, -18.6150325 ], [ 27.0530236, -18.6149447 ], [ 27.0529347, -18.6148709 ], [ 27.0527234, -18.614899 ], [ 27.0526233, -18.6149377 ], [ 27.0523787, -18.6149201 ], [ 27.0521933, -18.6149728 ], [ 27.0520414, -18.6149341 ], [ 27.0516364, -18.6149524 ], [ 27.0511865, -18.6149524 ], [ 27.05103, -18.6147392 ], [ 27.0507561, -18.6145723 ], [ 27.0504039, -18.6144518 ], [ 27.0499681, -18.614302 ], [ 27.049427, -18.6142644 ], [ 27.0492358, -18.6142713 ], [ 27.0490741, -18.6142937 ], [ 27.0483224, -18.6145251 ], [ 27.0478015, -18.6146972 ], [ 27.0476436, -18.614757 ], [ 27.0473325, -18.6149153 ], [ 27.0470586, -18.6149988 ], [ 27.0466673, -18.6149802 ], [ 27.0462565, -18.6150266 ], [ 27.045299, -18.6152278 ], [ 27.0445165, -18.6153113 ], [ 27.0437926, -18.6153483 ], [ 27.0435393, -18.6152918 ], [ 27.0430934, -18.615333 ], [ 27.0427382, -18.6154115 ], [ 27.0418897, -18.6155723 ], [ 27.0410688, -18.6156284 ], [ 27.0404098, -18.6155948 ], [ 27.0397781, -18.6154548 ], [ 27.0393126, -18.6152371 ], [ 27.0386964, -18.6150981 ], [ 27.038266, -18.6147551 ], [ 27.0378747, -18.6143657 ], [ 27.037503, -18.6141432 ], [ 27.0369943, -18.6143101 ], [ 27.0367408, -18.6144374 ], [ 27.0365273, -18.6147196 ], [ 27.0363781, -18.614857 ], [ 27.035889, -18.6152371 ], [ 27.0354586, -18.6155986 ], [ 27.0349891, -18.6158675 ], [ 27.0348196, -18.6162573 ], [ 27.0343946, -18.6168594 ], [ 27.0335363, -18.6171847 ], [ 27.0325278, -18.6173271 ], [ 27.0317124, -18.617022 ], [ 27.0302962, -18.6167373 ], [ 27.0284723, -18.6167373 ], [ 27.0274853, -18.6166153 ], [ 27.0263266, -18.6166357 ], [ 27.0245885, -18.6161273 ], [ 27.0235585, -18.6159239 ], [ 27.0224427, -18.6158223 ], [ 27.0217775, -18.6160256 ], [ 27.021284, -18.6161883 ], [ 27.020533, -18.6158629 ], [ 27.0195888, -18.6158833 ], [ 27.0182156, -18.6157003 ], [ 27.01725, -18.6159443 ], [ 27.0162844, -18.6165543 ], [ 27.0159196, -18.6169814 ], [ 27.0151257, -18.6167984 ], [ 27.0141601, -18.616473 ], [ 27.0139333, -18.6159902 ], [ 27.0140763, -18.6155464 ], [ 27.014445, -18.6151826 ], [ 27.015056, -18.6148903 ], [ 27.0169093, -18.6146964 ] ] ] ] } },
{ "type": "Feature", "properties": { "full_id": "w667196455", "osm_id": "667196455", "osm_type": "way", "natural": "water", "boundary": null, "landuse": null, "leisure": null, "name": null }, "geometry": { "type": "MultiPolygon", "coordinates": [ [ [ [ 27.0834645, -18.6053795 ], [ 27.0835024, -18.6052886 ], [ 27.0835603, -18.6052273 ], [ 27.0836785, -18.6052844 ], [ 27.0837253, -18.6053393 ], [ 27.0837008, -18.6054386 ], [ 27.083596, -18.6054999 ], [ 27.083489, -18.6055105 ], [ 27.08346, -18.6054576 ], [ 27.0834645, -18.6053795 ] ] ] ] } },
{ "type": "Feature", "properties": { "full_id": "w735433848", "osm_id": "735433848", "osm_type": "way", "natural": null, "boundary": null, "landuse": null, "leisure": "nature_reserve", "name": "Railway Farm 39" }, "geometry": { "type": "MultiPolygon", "coordinates": [ [ [ [ 26.96116267263108, -18.702136841927437 ], [ 26.9611734, -18.7020989 ], [ 26.961337, -18.7015425 ], [ 26.9613746, -18.701352 ], [ 26.9614336, -18.7011106 ], [ 26.9615301, -18.700755 ], [ 26.9618091, -18.6998022 ], [ 26.962302, -18.698186 ], [ 26.9630474, -18.6973358 ], [ 26.9646074, -18.6955565 ], [ 26.9674776, -18.6922828 ], [ 26.9675323, -18.6922204 ], [ 26.9722128, -18.6868163 ], [ 26.9753513, -18.6832565 ], [ 26.9760618, -18.6823723 ], [ 26.9810399, -18.6765688 ], [ 26.9865485, -18.6703487 ], [ 26.9884336, -18.6682412 ], [ 26.9890835, -18.6685222 ], [ 26.9956088, -18.6736565 ], [ 26.9984375, -18.6758822 ], [ 27.0063963, -18.6821442 ], [ 27.0184749, -18.6916916 ], [ 27.0237895, -18.6958924 ], [ 27.0131286, -18.7081507 ], [ 27.0024329, -18.7205066 ], [ 26.9985629, -18.724977 ], [ 26.994798727673018, -18.729325090891049 ], [ 26.96116267263108, -18.702136841927437 ] ] ] ] } },
{ "type": "Feature", "properties": { "full_id": "w735433849", "osm_id": "735433849", "osm_type": "way", "natural": "water", "boundary": null, "landuse": null, "leisure": null, "name": "Kakori Pan" }, "geometry": { "type": "MultiPolygon", "coordinates": [ [ [ [ 26.9938864, -18.701218 ], [ 26.9941759, -18.7011649 ], [ 26.994316, -18.7012887 ], [ 26.9944748, -18.7015099 ], [ 26.9943627, -18.701793 ], [ 26.9941759, -18.70197 ], [ 26.9938957, -18.7021292 ], [ 26.9935408, -18.7022265 ], [ 26.9931952, -18.7020319 ], [ 26.9932139, -18.7017134 ], [ 26.9933073, -18.7014303 ], [ 26.9935688, -18.7012534 ], [ 26.9938864, -18.701218 ] ] ] ] } },
{ "type": "Feature", "properties": { "full_id": "w1085690285", "osm_id": "1085690285", "osm_type": "way", "natural": "wetland", "boundary": null, "landuse": null, "leisure": null, "name": "Dete Vlei" }, "geometry": { "type": "MultiPolygon", "coordinates": [ [ [ [ 26.9735642, -18.6603761 ], [ 26.973284, -18.660385 ], [ 26.9729384, -18.6605354 ], [ 26.9727049, -18.6606239 ], [ 26.9723686, -18.6606593 ], [ 26.9718643, -18.6606328 ], [ 26.9711918, -18.6605885 ], [ 26.9709676, -18.6603142 ], [ 26.971061, -18.659916 ], [ 26.9712478, -18.6595709 ], [ 26.9715374, -18.6594028 ], [ 26.9720698, -18.6592966 ], [ 26.9725648, -18.6591904 ], [ 26.972929, -18.6590134 ], [ 26.9731158, -18.6588187 ], [ 26.9734988, -18.6587568 ], [ 26.9737323, -18.6586948 ], [ 26.9742086, -18.6585621 ], [ 26.9748157, -18.6583851 ], [ 26.9753761, -18.658394 ], [ 26.975647, -18.6584736 ], [ 26.9762447, -18.6585798 ], [ 26.9767211, -18.6586683 ], [ 26.9771881, -18.658686 ], [ 26.9776738, -18.658686 ], [ 26.9781594, -18.6585709 ], [ 26.9788319, -18.6584647 ], [ 26.979467, -18.6583055 ], [ 26.9799714, -18.658155 ], [ 26.9807919, -18.658248 ], [ 26.9817758, -18.658362 ], [ 26.9821653, -18.6585103 ], [ 26.9825323, -18.6588845 ], [ 26.9828967, -18.6592627 ], [ 26.9832302, -18.6594266 ], [ 26.9838073, -18.6594283 ], [ 26.9843028, -18.6594216 ], [ 26.9847063, -18.6593009 ], [ 26.9848761, -18.6590528 ], [ 26.9850106, -18.6586169 ], [ 26.9849965, -18.6583419 ], [ 26.9849115, -18.6580871 ], [ 26.9849328, -18.6578121 ], [ 26.9850956, -18.657631 ], [ 26.9853858, -18.6574634 ], [ 26.9858884, -18.6574097 ], [ 26.9863414, -18.6573427 ], [ 26.986975, -18.6573573 ], [ 26.9874209, -18.6573439 ], [ 26.9878598, -18.657592 ], [ 26.9879518, -18.6578804 ], [ 26.9878386, -18.6581822 ], [ 26.9877536, -18.6585309 ], [ 26.9877749, -18.6587925 ], [ 26.9879023, -18.6589803 ], [ 26.9880438, -18.6592284 ], [ 26.9882491, -18.6594229 ], [ 26.9885323, -18.6594832 ], [ 26.9888933, -18.6593894 ], [ 26.98941, -18.6592016 ], [ 26.9897922, -18.6589803 ], [ 26.990224, -18.658873 ], [ 26.9907336, -18.6587522 ], [ 26.9909814, -18.6585645 ], [ 26.9909389, -18.6584102 ], [ 26.9907053, -18.6583029 ], [ 26.9904363, -18.6581688 ], [ 26.9903089, -18.6579341 ], [ 26.9902806, -18.6575988 ], [ 26.9905284, -18.6573372 ], [ 26.9908894, -18.6571092 ], [ 26.9913211, -18.6570287 ], [ 26.9918379, -18.6570287 ], [ 26.9920892, -18.6570692 ], [ 26.9926363, -18.6571573 ], [ 26.9932804, -18.6571975 ], [ 26.9938255, -18.6572713 ], [ 26.9941298, -18.6574322 ], [ 26.9946041, -18.6574457 ], [ 26.9952058, -18.6573451 ], [ 26.9958924, -18.6570835 ], [ 26.9966639, -18.656889 ], [ 26.997393, -18.6565269 ], [ 26.9980796, -18.6561983 ], [ 26.9997169, -18.6555977 ], [ 27.0006276, -18.655305 ], [ 27.001213, -18.6550353 ], [ 27.0016684, -18.6548196 ], [ 27.0021074, -18.654627 ], [ 27.0024693, -18.6545877 ], [ 27.0028067, -18.6546887 ], [ 27.0029205, -18.6548736 ], [ 27.0033596, -18.6549429 ], [ 27.00388, -18.6547195 ], [ 27.0043841, -18.6543882 ], [ 27.0046768, -18.6540647 ], [ 27.0049207, -18.6537411 ], [ 27.0057436, -18.6529861 ], [ 27.0062965, -18.6524545 ], [ 27.0069876, -18.6519383 ], [ 27.0075487, -18.651453 ], [ 27.0081341, -18.6510293 ], [ 27.0087846, -18.6508444 ], [ 27.0096383, -18.6507751 ], [ 27.0104758, -18.6506518 ], [ 27.0112157, -18.6504515 ], [ 27.0129082, -18.6500824 ], [ 27.0137586, -18.6498722 ], [ 27.0143624, -18.6494752 ], [ 27.0149047, -18.6490081 ], [ 27.0153114, -18.6486694 ], [ 27.0158044, -18.648611 ], [ 27.0165931, -18.6486694 ], [ 27.0171354, -18.6487862 ], [ 27.0179118, -18.6486227 ], [ 27.0187499, -18.6482841 ], [ 27.0195756, -18.6479922 ], [ 27.0202781, -18.6476185 ], [ 27.0208326, -18.6470463 ], [ 27.0211531, -18.6465442 ], [ 27.0213379, -18.646007 ], [ 27.021301, -18.6454815 ], [ 27.0212013, -18.6450639 ], [ 27.0212947, -18.6448338 ], [ 27.0216589, -18.6446126 ], [ 27.0220138, -18.6444798 ], [ 27.0225369, -18.644471 ], [ 27.0229572, -18.6445241 ], [ 27.0238071, -18.6445329 ], [ 27.0246197, -18.6446568 ], [ 27.0253015, -18.6446834 ], [ 27.0262392, -18.6444228 ], [ 27.0269629, -18.6442302 ], [ 27.0276622, -18.6442533 ], [ 27.0283452, -18.6441069 ], [ 27.029142, -18.6438758 ], [ 27.0299632, -18.6436447 ], [ 27.0306056, -18.6434983 ], [ 27.0311747, -18.6434983 ], [ 27.0319553, -18.643583 ], [ 27.0325895, -18.6436293 ], [ 27.0329717, -18.6436293 ], [ 27.033427, -18.6433981 ], [ 27.0339392, -18.6431901 ], [ 27.0348011, -18.6430283 ], [ 27.0355458, -18.6428171 ], [ 27.0361963, -18.6427555 ], [ 27.0367166, -18.6428248 ], [ 27.0373508, -18.6428325 ], [ 27.0379769, -18.6427092 ], [ 27.038538, -18.6426014 ], [ 27.0390827, -18.6426322 ], [ 27.0394486, -18.6425243 ], [ 27.0399121, -18.6423471 ], [ 27.0403674, -18.642586 ], [ 27.0409203, -18.6427709 ], [ 27.0415708, -18.6428248 ], [ 27.0420993, -18.6427092 ], [ 27.0426116, -18.6426938 ], [ 27.0431076, -18.6426553 ], [ 27.0438475, -18.6426861 ], [ 27.0442784, -18.642663 ], [ 27.0447744, -18.6426553 ], [ 27.0451647, -18.6427555 ], [ 27.0454574, -18.6429172 ], [ 27.0457573, -18.6429731 ], [ 27.0460654, -18.6428621 ], [ 27.0465584, -18.6426636 ], [ 27.0468726, -18.642541 ], [ 27.0472362, -18.6423833 ], [ 27.0474703, -18.6424184 ], [ 27.0475689, -18.6425935 ], [ 27.0476799, -18.6427862 ], [ 27.0479695, -18.6428563 ], [ 27.0483885, -18.6428563 ], [ 27.0486658, -18.6428796 ], [ 27.0490047, -18.6427804 ], [ 27.0491526, -18.6426519 ], [ 27.0495162, -18.6425643 ], [ 27.0500153, -18.6425643 ], [ 27.0503111, -18.642687 ], [ 27.0506377, -18.6427687 ], [ 27.0509951, -18.642868 ], [ 27.0512908, -18.6430081 ], [ 27.0516606, -18.6430665 ], [ 27.0521104, -18.6431249 ], [ 27.0525849, -18.6430081 ], [ 27.0529115, -18.6428972 ], [ 27.0533182, -18.6431073 ], [ 27.0537064, -18.6432533 ], [ 27.0542296, -18.6434162 ], [ 27.0549452, -18.6433777 ], [ 27.0553354, -18.6432467 ], [ 27.0559534, -18.6431619 ], [ 27.0564412, -18.6431619 ], [ 27.0570185, -18.6433314 ], [ 27.0574414, -18.6433777 ], [ 27.0575633, -18.6431696 ], [ 27.0576609, -18.6429308 ], [ 27.0578154, -18.6427228 ], [ 27.0579699, -18.6425995 ], [ 27.0583601, -18.6426149 ], [ 27.058726, -18.6426303 ], [ 27.0586773, -18.6424686 ], [ 27.0584984, -18.6422914 ], [ 27.0586203, -18.642091 ], [ 27.0588724, -18.6418753 ], [ 27.0591407, -18.6416827 ], [ 27.0596448, -18.6416134 ], [ 27.0601327, -18.6416057 ], [ 27.0604742, -18.6417366 ], [ 27.060775, -18.6419832 ], [ 27.0611735, -18.6422451 ], [ 27.0617345, -18.64243 ], [ 27.0624907, -18.6425841 ], [ 27.0630842, -18.6424686 ], [ 27.0637591, -18.6423992 ], [ 27.0643283, -18.6421142 ], [ 27.0651597, -18.6416902 ], [ 27.0655662, -18.6413667 ], [ 27.0659647, -18.6411817 ], [ 27.0665176, -18.6411817 ], [ 27.0670135, -18.641228 ], [ 27.0676234, -18.6411124 ], [ 27.0685259, -18.6408813 ], [ 27.06903, -18.6407503 ], [ 27.0695097, -18.6404883 ], [ 27.0698431, -18.6402187 ], [ 27.0704611, -18.6400184 ], [ 27.0710302, -18.6399644 ], [ 27.0714774, -18.6398489 ], [ 27.0719165, -18.6398797 ], [ 27.0730954, -18.6401535 ], [ 27.0738349, -18.6404045 ], [ 27.074562, -18.6406498 ], [ 27.0751782, -18.6409067 ], [ 27.0759238, -18.6412336 ], [ 27.0764723, -18.6414497 ], [ 27.0770577, -18.6415489 ], [ 27.0777516, -18.6413957 ], [ 27.0782398, -18.6412635 ], [ 27.0785831, -18.6413703 ], [ 27.0789479, -18.641294 ], [ 27.0794253, -18.6413042 ], [ 27.0799081, -18.6414211 ], [ 27.0803855, -18.6414719 ], [ 27.0809542, -18.6414719 ], [ 27.0815925, -18.6414058 ], [ 27.0821826, -18.6414211 ], [ 27.0827083, -18.6412991 ], [ 27.0830892, -18.6411161 ], [ 27.0835559, -18.6409433 ], [ 27.0841963, -18.6407071 ], [ 27.0845785, -18.6405299 ], [ 27.085107, -18.6403296 ], [ 27.085416, -18.6402063 ], [ 27.0859933, -18.6402756 ], [ 27.0864649, -18.6404759 ], [ 27.0867413, -18.6407302 ], [ 27.0870828, -18.6410615 ], [ 27.0873577, -18.6413965 ], [ 27.0875698, -18.641762 ], [ 27.0877708, -18.6419302 ], [ 27.0880236, -18.6422125 ], [ 27.0881805, -18.6424097 ], [ 27.0884651, -18.6425484 ], [ 27.0888147, -18.6426563 ], [ 27.0892212, -18.6426871 ], [ 27.089701, -18.6426794 ], [ 27.0902945, -18.6424791 ], [ 27.0908474, -18.6422634 ], [ 27.0912621, -18.6421401 ], [ 27.0917012, -18.6420939 ], [ 27.092311, -18.6420939 ], [ 27.0927663, -18.6420939 ], [ 27.0931891, -18.6421247 ], [ 27.0938568, -18.6420234 ], [ 27.0943611, -18.6418201 ], [ 27.0948761, -18.6416168 ], [ 27.0956271, -18.6415456 ], [ 27.0963996, -18.6415253 ], [ 27.0971184, -18.6416575 ], [ 27.0977836, -18.6419523 ], [ 27.0984595, -18.6422979 ], [ 27.0988672, -18.6425521 ], [ 27.0994788, -18.6426131 ], [ 27.1000796, -18.6426029 ], [ 27.1007662, -18.6424911 ], [ 27.1013348, -18.6422166 ], [ 27.1019142, -18.6419828 ], [ 27.1025794, -18.6419218 ], [ 27.1032446, -18.6419116 ], [ 27.10406, -18.6419523 ], [ 27.1047252, -18.6421963 ], [ 27.1050685, -18.6424707 ], [ 27.1056907, -18.6427045 ], [ 27.1062165, -18.6428062 ], [ 27.1066134, -18.6430604 ], [ 27.1069353, -18.643345 ], [ 27.1073215, -18.6436296 ], [ 27.1075122, -18.643956 ], [ 27.1077882, -18.6442243 ], [ 27.1082059, -18.6443383 ], [ 27.1086093, -18.6442713 ], [ 27.1093172, -18.6441103 ], [ 27.1103011, -18.6438152 ], [ 27.1109735, -18.6436207 ], [ 27.1115186, -18.6433725 ], [ 27.1119857, -18.6432183 ], [ 27.1123113, -18.6433189 ], [ 27.1123397, -18.6434731 ], [ 27.1126865, -18.6435939 ], [ 27.1131607, -18.6436274 ], [ 27.1135642, -18.6435 ], [ 27.113812, -18.6433457 ], [ 27.1141163, -18.6430372 ], [ 27.1144207, -18.6428829 ], [ 27.1148596, -18.6425811 ], [ 27.1152701, -18.6423665 ], [ 27.1156311, -18.642172 ], [ 27.1159567, -18.6420848 ], [ 27.1163965, -18.6418626 ], [ 27.1168437, -18.6418241 ], [ 27.1174129, -18.6419011 ], [ 27.1181284, -18.6418703 ], [ 27.1185919, -18.6417625 ], [ 27.1189984, -18.641593 ], [ 27.1192993, -18.6413695 ], [ 27.1195676, -18.6412694 ], [ 27.1199579, -18.641046 ], [ 27.1204295, -18.6410151 ], [ 27.1209498, -18.6409997 ], [ 27.1212344, -18.6408842 ], [ 27.1213727, -18.6406761 ], [ 27.1216084, -18.6405375 ], [ 27.1219418, -18.6404296 ], [ 27.1221695, -18.6402755 ], [ 27.1222996, -18.6400367 ], [ 27.122511, -18.6399057 ], [ 27.1229013, -18.6396823 ], [ 27.1233241, -18.6395667 ], [ 27.1236981, -18.6394511 ], [ 27.1239989, -18.639297 ], [ 27.1241391, -18.6391733 ], [ 27.1242665, -18.6389989 ], [ 27.1244647, -18.6390458 ], [ 27.1246841, -18.6392202 ], [ 27.1249814, -18.6393678 ], [ 27.1254203, -18.6393678 ], [ 27.1256468, -18.6392739 ], [ 27.1259299, -18.6391062 ], [ 27.1262555, -18.6390123 ], [ 27.1265245, -18.6388848 ], [ 27.1268784, -18.6387775 ], [ 27.1273385, -18.638697 ], [ 27.1275862, -18.6386031 ], [ 27.1278481, -18.6384958 ], [ 27.12811, -18.6385092 ], [ 27.1282941, -18.6385763 ], [ 27.1284781, -18.638697 ], [ 27.1287754, -18.6388312 ], [ 27.1291435, -18.6388245 ], [ 27.1295611, -18.6388513 ], [ 27.1298513, -18.6387507 ], [ 27.1301415, -18.638744 ], [ 27.1304388, -18.6388379 ], [ 27.1310611, -18.638899 ], [ 27.1315424, -18.6387984 ], [ 27.132229, -18.6386039 ], [ 27.1328873, -18.6383557 ], [ 27.1333262, -18.638074 ], [ 27.1336022, -18.637846 ], [ 27.1337514, -18.6376539 ], [ 27.133942, -18.6374435 ], [ 27.1340977, -18.6373765 ], [ 27.1343323, -18.6375711 ], [ 27.134303, -18.6377118 ], [ 27.1341119, -18.6378661 ], [ 27.1340977, -18.6380069 ], [ 27.1340694, -18.6381344 ], [ 27.133758, -18.6381679 ], [ 27.1336022, -18.6383691 ], [ 27.1333616, -18.6385569 ], [ 27.1331634, -18.6386978 ], [ 27.1326467, -18.6388655 ], [ 27.1322573, -18.638899 ], [ 27.1318963, -18.6389594 ], [ 27.1314858, -18.6389996 ], [ 27.131146, -18.6390667 ], [ 27.1309549, -18.6391539 ], [ 27.1306789, -18.6393014 ], [ 27.130332, -18.6393148 ], [ 27.1300206, -18.6392008 ], [ 27.1295676, -18.639174 ], [ 27.129065, -18.6391069 ], [ 27.1287819, -18.6389392 ], [ 27.12852, -18.6389661 ], [ 27.1282934, -18.6388588 ], [ 27.1280811, -18.6387112 ], [ 27.127798, -18.6386777 ], [ 27.1275644, -18.6387716 ], [ 27.1273218, -18.6388758 ], [ 27.1269302, -18.6389622 ], [ 27.1266083, -18.6389825 ], [ 27.1262972, -18.6390333 ], [ 27.1261577, -18.6391248 ], [ 27.1259432, -18.6392366 ], [ 27.1257769, -18.6394146 ], [ 27.1256159, -18.6395467 ], [ 27.1253209, -18.639623 ], [ 27.1250473, -18.6396179 ], [ 27.1248113, -18.6396179 ], [ 27.1246074, -18.63975 ], [ 27.1243499, -18.63975 ], [ 27.124189, -18.6396331 ], [ 27.1240281, -18.6396941 ], [ 27.1238993, -18.639811 ], [ 27.1236686, -18.6398822 ], [ 27.1234916, -18.6399839 ], [ 27.1234272, -18.6400906 ], [ 27.1233629, -18.640238 ], [ 27.123277, -18.6402075 ], [ 27.1231215, -18.6401262 ], [ 27.122982, -18.6401516 ], [ 27.1227299, -18.6402583 ], [ 27.1224509, -18.6403905 ], [ 27.1223168, -18.6405633 ], [ 27.1221612, -18.6406904 ], [ 27.1219681, -18.6407209 ], [ 27.1218555, -18.6408175 ], [ 27.1216516, -18.640909 ], [ 27.1214317, -18.6410106 ], [ 27.1211581, -18.6411021 ], [ 27.1207983, -18.6411751 ], [ 27.1205395, -18.6411635 ], [ 27.1202437, -18.6411985 ], [ 27.1199418, -18.6412802 ], [ 27.1197076, -18.6414379 ], [ 27.1195104, -18.6416014 ], [ 27.1192639, -18.6418233 ], [ 27.1189928, -18.6419809 ], [ 27.1185738, -18.6421386 ], [ 27.1181548, -18.6423371 ], [ 27.1175201, -18.6424655 ], [ 27.1169408, -18.6424655 ], [ 27.1164171, -18.6425181 ], [ 27.115993, -18.6425743 ], [ 27.1156233, -18.6427144 ], [ 27.1153891, -18.6428779 ], [ 27.1151673, -18.6429888 ], [ 27.1148345, -18.6431115 ], [ 27.1146189, -18.6432341 ], [ 27.1143416, -18.6434092 ], [ 27.1141259, -18.6435844 ], [ 27.1138609, -18.6437596 ], [ 27.1137069, -18.6439172 ], [ 27.1134666, -18.6440982 ], [ 27.1132447, -18.6442325 ], [ 27.1129489, -18.6441332 ], [ 27.1126347, -18.6440106 ], [ 27.1123882, -18.6438705 ], [ 27.1121602, -18.6437888 ], [ 27.1118274, -18.6438647 ], [ 27.1115686, -18.6439814 ], [ 27.110984, -18.6441365 ], [ 27.1103675, -18.6444108 ], [ 27.1102928, -18.6446232 ], [ 27.1103302, -18.6448887 ], [ 27.1102928, -18.6451188 ], [ 27.1100126, -18.6451984 ], [ 27.1098071, -18.6449507 ], [ 27.1094709, -18.6447206 ], [ 27.109116, -18.6447029 ], [ 27.1080979, -18.644871 ], [ 27.1074441, -18.6449153 ], [ 27.106893, -18.6447294 ], [ 27.1062392, -18.6446232 ], [ 27.1055201, -18.6445347 ], [ 27.104941, -18.6443577 ], [ 27.1044833, -18.6442338 ], [ 27.1035587, -18.6441896 ], [ 27.1028395, -18.6440303 ], [ 27.1018961, -18.6440568 ], [ 27.1010929, -18.6441984 ], [ 27.1001776, -18.6441011 ], [ 27.0990755, -18.644163 ], [ 27.0983469, -18.6441011 ], [ 27.0974858, -18.6438919 ], [ 27.0968275, -18.6436169 ], [ 27.0961905, -18.6434425 ], [ 27.0956808, -18.6432883 ], [ 27.0950791, -18.6433419 ], [ 27.0944916, -18.6433285 ], [ 27.0938334, -18.6432614 ], [ 27.0933025, -18.6433553 ], [ 27.0927362, -18.6432771 ], [ 27.0917811, -18.643388 ], [ 27.0912327, -18.6435106 ], [ 27.0906781, -18.6436916 ], [ 27.0895627, -18.6438901 ], [ 27.0890944, -18.6438668 ], [ 27.088546, -18.6437967 ], [ 27.0880592, -18.643715 ], [ 27.0875292, -18.6436274 ], [ 27.0870363, -18.643569 ], [ 27.0866727, -18.6436099 ], [ 27.0860935, -18.6435923 ], [ 27.0852, -18.6433705 ], [ 27.0848487, -18.6433121 ], [ 27.0843539, -18.6432229 ], [ 27.0837441, -18.6433076 ], [ 27.0831993, -18.6430302 ], [ 27.0825732, -18.643038 ], [ 27.0818089, -18.6430688 ], [ 27.0812316, -18.6431843 ], [ 27.0804754, -18.643038 ], [ 27.0799469, -18.6430688 ], [ 27.0792477, -18.6431458 ], [ 27.0785159, -18.643323 ], [ 27.0777272, -18.643454 ], [ 27.0771743, -18.6435002 ], [ 27.0765888, -18.6435156 ], [ 27.075979, -18.6434771 ], [ 27.0755969, -18.6433153 ], [ 27.0752066, -18.6431535 ], [ 27.0747838, -18.6429378 ], [ 27.0742146, -18.6428222 ], [ 27.0735057, -18.6427189 ], [ 27.0728615, -18.6429134 ], [ 27.0723448, -18.6431951 ], [ 27.0715945, -18.6434097 ], [ 27.0707097, -18.6436914 ], [ 27.0701859, -18.643859 ], [ 27.0697329, -18.6438322 ], [ 27.0692586, -18.6436109 ], [ 27.0688127, -18.6434097 ], [ 27.0683243, -18.643403 ], [ 27.067935, -18.6436243 ], [ 27.0674324, -18.6439395 ], [ 27.0671351, -18.6443285 ], [ 27.0667246, -18.6445096 ], [ 27.0661066, -18.6446511 ], [ 27.0654736, -18.6447731 ], [ 27.0646368, -18.644824 ], [ 27.0641969, -18.64458 ], [ 27.0637034, -18.6444783 ], [ 27.0631347, -18.644641 ], [ 27.062094, -18.6447325 ], [ 27.0608388, -18.6448545 ], [ 27.0600985, -18.6448646 ], [ 27.0594333, -18.6450374 ], [ 27.0589719, -18.6451391 ], [ 27.0583282, -18.6451289 ], [ 27.057942, -18.6451493 ], [ 27.0574377, -18.6452204 ], [ 27.0572339, -18.6453932 ], [ 27.0569013, -18.6455864 ], [ 27.0565687, -18.6456575 ], [ 27.0562468, -18.6455457 ], [ 27.0558713, -18.6455152 ], [ 27.0555387, -18.6454441 ], [ 27.0551739, -18.6454949 ], [ 27.0546697, -18.645688 ], [ 27.0542513, -18.6459015 ], [ 27.053865, -18.646054 ], [ 27.0534788, -18.6461862 ], [ 27.0531355, -18.6462065 ], [ 27.0528029, -18.6460438 ], [ 27.052111, -18.6456539 ], [ 27.051757, -18.6454661 ], [ 27.0512474, -18.6452313 ], [ 27.0510067, -18.6451576 ], [ 27.0505891, -18.6452045 ], [ 27.0502352, -18.6453185 ], [ 27.0497326, -18.6454392 ], [ 27.0493433, -18.6455533 ], [ 27.0490106, -18.6456807 ], [ 27.0485788, -18.6458081 ], [ 27.0483169, -18.6458282 ], [ 27.0479418, -18.645788 ], [ 27.0476587, -18.6456874 ], [ 27.0472198, -18.6454996 ], [ 27.0468871, -18.6452917 ], [ 27.0465473, -18.6450637 ], [ 27.0462501, -18.6449027 ], [ 27.0459386, -18.6447551 ], [ 27.0456696, -18.644668 ], [ 27.0453723, -18.644621 ], [ 27.0450396, -18.6446814 ], [ 27.0447162, -18.6448592 ], [ 27.0442136, -18.6451408 ], [ 27.0436828, -18.6454024 ], [ 27.0432156, -18.645617 ], [ 27.0429112, -18.6457847 ], [ 27.0426493, -18.6458518 ], [ 27.0422105, -18.6459256 ], [ 27.0417008, -18.6459725 ], [ 27.0412053, -18.6459121 ], [ 27.0406603, -18.6458115 ], [ 27.0401931, -18.6457176 ], [ 27.0397472, -18.6455433 ], [ 27.0394216, -18.6454561 ], [ 27.0389332, -18.6454292 ], [ 27.0382961, -18.6454024 ], [ 27.0374821, -18.6454963 ], [ 27.0368167, -18.645664 ], [ 27.0361797, -18.6458585 ], [ 27.0351976, -18.6460584 ], [ 27.0344971, -18.6462354 ], [ 27.0338993, -18.6462354 ], [ 27.0331054, -18.6463858 ], [ 27.0323489, -18.6465628 ], [ 27.0317885, -18.6467752 ], [ 27.0311253, -18.6469433 ], [ 27.0304622, -18.6470672 ], [ 27.0298177, -18.6471911 ], [ 27.0290332, -18.6472619 ], [ 27.0287556, -18.6473371 ], [ 27.0285755, -18.6473858 ], [ 27.0282019, -18.6475717 ], [ 27.0275294, -18.6478902 ], [ 27.0270344, -18.6482796 ], [ 27.0262405, -18.6488372 ], [ 27.0259309, -18.6490516 ], [ 27.0252154, -18.6493829 ], [ 27.0247194, -18.6495832 ], [ 27.0240527, -18.6497218 ], [ 27.023703, -18.6497449 ], [ 27.02302, -18.6498374 ], [ 27.0224753, -18.6498143 ], [ 27.0219061, -18.6497449 ], [ 27.0213938, -18.6497295 ], [ 27.0210686, -18.6497295 ], [ 27.0206539, -18.6497989 ], [ 27.0202474, -18.649822 ], [ 27.0194653, -18.6501665 ], [ 27.0187905, -18.6504207 ], [ 27.0182863, -18.6508906 ], [ 27.017831, -18.6512219 ], [ 27.0175302, -18.6516841 ], [ 27.0172131, -18.6521387 ], [ 27.0167659, -18.6526009 ], [ 27.0163674, -18.6528012 ], [ 27.0159609, -18.6528012 ], [ 27.0155625, -18.6527088 ], [ 27.0154256, -18.6528827 ], [ 27.0152224, -18.653083 ], [ 27.0150516, -18.6532987 ], [ 27.0146207, -18.6535529 ], [ 27.0140515, -18.6537147 ], [ 27.0128969, -18.6538996 ], [ 27.0122627, -18.6540537 ], [ 27.0113927, -18.6542694 ], [ 27.0106934, -18.6546469 ], [ 27.0099779, -18.654955 ], [ 27.0093193, -18.6552401 ], [ 27.0087745, -18.6554866 ], [ 27.0082541, -18.65571 ], [ 27.0078151, -18.6558641 ], [ 27.00745, -18.6560002 ], [ 27.0063599, -18.6561679 ], [ 27.0056096, -18.6562819 ], [ 27.0049018, -18.656463 ], [ 27.0041373, -18.6566642 ], [ 27.0035923, -18.6567983 ], [ 27.002934, -18.6569123 ], [ 27.0021837, -18.6569861 ], [ 27.0018793, -18.6571001 ], [ 27.0015466, -18.6573147 ], [ 27.0010299, -18.6575897 ], [ 27.0006123, -18.6578982 ], [ 27.0001097, -18.6582 ], [ 26.9995788, -18.6584213 ], [ 26.99914, -18.6585621 ], [ 26.998694, -18.6587633 ], [ 26.9983118, -18.6589779 ], [ 26.9979437, -18.6591992 ], [ 26.9971384, -18.6596424 ], [ 26.9961952, -18.6600738 ], [ 26.9949918, -18.6604667 ], [ 26.9936014, -18.660744 ], [ 26.9926176, -18.6608673 ], [ 26.991341, -18.6611061 ], [ 26.9905605, -18.6611831 ], [ 26.9895116, -18.6612294 ], [ 26.9881715, -18.6612528 ], [ 26.9867705, -18.6613679 ], [ 26.9858459, -18.6613413 ], [ 26.9848185, -18.6612794 ], [ 26.984585, -18.6612275 ], [ 26.9834642, -18.6609785 ], [ 26.9827823, -18.6610847 ], [ 26.9819978, -18.6610139 ], [ 26.9812693, -18.6608015 ], [ 26.9805314, -18.6606157 ], [ 26.9801111, -18.6604918 ], [ 26.9796348, -18.6605537 ], [ 26.9793079, -18.6607042 ], [ 26.978548, -18.6607711 ], [ 26.977678, -18.6609637 ], [ 26.9770112, -18.6611717 ], [ 26.9762469, -18.6611948 ], [ 26.9755151, -18.660956 ], [ 26.974824, -18.6607017 ], [ 26.9743663, -18.6606326 ], [ 26.9740353, -18.6606247 ], [ 26.9737588, -18.6605246 ], [ 26.9736938, -18.6604552 ], [ 26.9735642, -18.6603761 ] ] ] ] } },
{ "type": "Feature", "properties": { "full_id": "w1085691330", "osm_id": "1085691330", "osm_type": "way", "natural": "water", "boundary": null, "landuse": null, "leisure": null, "name": null }, "geometry": { "type": "MultiPolygon", "coordinates": [ [ [ [ 26.9795652, -18.6597362 ], [ 26.9795663, -18.6597507 ], [ 26.9795624, -18.6597647 ], [ 26.9795539, -18.6597768 ], [ 26.9795417, -18.6597856 ], [ 26.9795272, -18.6597901 ], [ 26.979512, -18.65979 ], [ 26.9794976, -18.6597851 ], [ 26.9794857, -18.6597762 ], [ 26.9794774, -18.659764 ], [ 26.9794738, -18.65975 ], [ 26.9794751, -18.6597356 ], [ 26.9794813, -18.6597224 ], [ 26.9794918, -18.6597118 ], [ 26.9795053, -18.6597049 ], [ 26.9795204, -18.6597026 ], [ 26.9795355, -18.6597051 ], [ 26.9795489, -18.6597121 ], [ 26.9795592, -18.6597229 ], [ 26.9795652, -18.6597362 ] ] ] ] } },
{ "type": "Feature", "properties": { "full_id": "w1085691332", "osm_id": "1085691332", "osm_type": "way", "natural": "water", "boundary": null, "landuse": null, "leisure": null, "name": "Hwange Safari Lodge Pan" }, "geometry": { "type": "MultiPolygon", "coordinates": [ [ [ [ 26.9797627, -18.6598795 ], [ 26.9798048, -18.6598331 ], [ 26.9798795, -18.6597866 ], [ 26.9799519, -18.6597578 ], [ 26.9800336, -18.6597578 ], [ 26.980064, -18.6597932 ], [ 26.9801527, -18.659791 ], [ 26.9802764, -18.6597645 ], [ 26.9803488, -18.6597047 ], [ 26.9803862, -18.6596229 ], [ 26.9804352, -18.6595543 ], [ 26.9805123, -18.6595189 ], [ 26.9806127, -18.6595278 ], [ 26.9806757, -18.6595831 ], [ 26.9807318, -18.6596583 ], [ 26.9807528, -18.6597866 ], [ 26.9807528, -18.659895 ], [ 26.9806991, -18.6599547 ], [ 26.980629, -18.6600145 ], [ 26.9804843, -18.6600167 ], [ 26.9803815, -18.6599614 ], [ 26.9803021, -18.6599038 ], [ 26.9802087, -18.6598972 ], [ 26.9800896, -18.6599127 ], [ 26.980057, -18.6599746 ], [ 26.9800173, -18.6600299 ], [ 26.9799472, -18.6600786 ], [ 26.9798211, -18.6601472 ], [ 26.9797067, -18.6601406 ], [ 26.979646, -18.6600764 ], [ 26.9796483, -18.6600122 ], [ 26.9796997, -18.6599282 ], [ 26.9797627, -18.6598795 ] ] ] ] } },
{ "type": "Feature", "properties": { "full_id": "w1085691333", "osm_id": "1085691333", "osm_type": "way", "natural": "water", "boundary": null, "landuse": null, "leisure": null, "name": "Sable Valley Pan" }, "geometry": { "type": "MultiPolygon", "coordinates": [ [ [ [ 27.0215509, -18.6482782 ], [ 27.0216341, -18.6483336 ], [ 27.0216556, -18.6483979 ], [ 27.0217203, -18.6484854 ], [ 27.0216556, -18.6485759 ], [ 27.0215909, -18.6486168 ], [ 27.0215201, -18.648646 ], [ 27.0214153, -18.6486927 ], [ 27.021326, -18.6487102 ], [ 27.021212, -18.6487423 ], [ 27.0210764, -18.6487744 ], [ 27.0209809, -18.6487453 ], [ 27.020947, -18.6486431 ], [ 27.0209624, -18.6485555 ], [ 27.0210271, -18.6484738 ], [ 27.0211473, -18.6484154 ], [ 27.0212489, -18.6483599 ], [ 27.0213537, -18.648319 ], [ 27.0214677, -18.6482898 ], [ 27.0215509, -18.6482782 ] ] ] ] } },
{ "type": "Feature", "properties": { "full_id": "w1085691335", "osm_id": "1085691335", "osm_type": "way", "natural": "water", "boundary": null, "landuse": null, "leisure": null, "name": "Muddy Pan" }, "geometry": { "type": "MultiPolygon", "coordinates": [ [ [ [ 27.028106, -18.6457892 ], [ 27.0282584, -18.6462517 ], [ 27.0282161, -18.6462751 ], [ 27.0280568, -18.6463154 ], [ 27.0277631, -18.6465602 ], [ 27.0276038, -18.6465937 ], [ 27.027533, -18.6464763 ], [ 27.0275755, -18.6462651 ], [ 27.0276781, -18.6460773 ], [ 27.027802, -18.6459532 ], [ 27.0279931, -18.6458392 ], [ 27.028106, -18.6457892 ] ] ] ] } },
{ "type": "Feature", "properties": { "full_id": "w1085691336", "osm_id": "1085691336", "osm_type": "way", "natural": "water", "boundary": null, "landuse": null, "leisure": null, "name": null }, "geometry": { "type": "MultiPolygon", "coordinates": [ [ [ [ 27.0879641, -18.6426124 ], [ 27.0878986, -18.642609 ], [ 27.0878438, -18.6425872 ], [ 27.0878031, -18.642552 ], [ 27.08775, -18.642547 ], [ 27.0877111, -18.6424816 ], [ 27.0876881, -18.6424514 ], [ 27.0876244, -18.6424246 ], [ 27.0876137, -18.6423843 ], [ 27.0875837, -18.6423391 ], [ 27.0875306, -18.6422854 ], [ 27.0875111, -18.642215 ], [ 27.0875323, -18.6421898 ], [ 27.0875695, -18.6421882 ], [ 27.0876155, -18.6422234 ], [ 27.0876987, -18.6422519 ], [ 27.0877872, -18.6422888 ], [ 27.0878526, -18.6423441 ], [ 27.0879287, -18.6424112 ], [ 27.08798, -18.6424514 ], [ 27.0880331, -18.6424749 ], [ 27.0880915, -18.6425201 ], [ 27.0880756, -18.6425604 ], [ 27.0880225, -18.6425805 ], [ 27.0879641, -18.6426124 ] ] ] ] } },
{ "type": "Feature", "properties": { "full_id": "w1158939149", "osm_id": "1158939149", "osm_type": "way", "natural": null, "boundary": null, "landuse": null, "leisure": "pitch", "name": null }, "geometry": { "type": "MultiPolygon", "coordinates": [ [ [ [ 27.0360436, -18.5707913 ], [ 27.0364405, -18.5711528 ], [ 27.0358724, -18.5716545 ], [ 27.0354988, -18.5712709 ], [ 27.0360436, -18.5707913 ] ] ] ] } }
]
}
