{
"type": "FeatureCollection",
"name": "safarisites",
"crs": { "type": "name", "properties": { "name": "urn:ogc:def:crs:OGC:1.3:CRS84" } },
"features": [
{ "type": "Feature", "properties": { "Name": "Khulu Lodge" }, "geometry": { "type": "Point", "coordinates": [ 27.053655294438599, -18.615066761644488 ] } },
{ "type": "Feature", "properties": { "Name": "Ivory Lodge" }, "geometry": { "type": "Point", "coordinates": [ 27.059675705244814, -18.616916151642371 ] } },
{ "type": "Feature", "properties": { "Name": "Sable Lodge" }, "geometry": { "type": "Point", "coordinates": [ 27.022272825839234, -18.651121512249905 ] } },
{ "type": "Feature", "properties": { "Name": "Tuskers Campsite" }, "geometry": { "type": "Point", "coordinates": [ 27.075457518322292, -18.640749802485288 ] } }
]
}
