{
"type": "FeatureCollection",
"name": "vleis",
"crs": { "type": "name", "properties": { "name": "urn:ogc:def:crs:OGC:1.3:CRS84" } },
"features": [
{ "type": "Feature", "properties": { "Vlei_Name": "Zingweni_Vlei" }, "geometry": { "type": "MultiPolygon", "coordinates": [ [ [ [ 26.997613164885113, -18.612800092250577 ], [ 26.999865565267321, -18.612980284281154 ], [ 27.002838733771831, -18.613881244434037 ], [ 27.005091134154036, -18.614151532479902 ], [ 27.006757910436868, -18.614872300602208 ], [ 27.009415742887867, -18.615052492632781 ], [ 27.012569103422955, -18.614962396617496 ], [ 27.014551215759294, -18.614737156579274 ], [ 27.016983808172075, -18.614511916541055 ], [ 27.018019912347889, -18.614421820525767 ], [ 27.020407456753027, -18.61448939253723 ], [ 27.02263733313141, -18.614421820525763 ], [ 27.024011297364556, -18.614241628495186 ], [ 27.025520405620632, -18.614061436464613 ], [ 27.026218649739114, -18.614556964548697 ], [ 27.027029513876709, -18.61491734860985 ], [ 27.028245810083099, -18.61460201255634 ], [ 27.02867376615572, -18.614466868533409 ], [ 27.02939453427803, -18.614680846569719 ], [ 27.030627723487285, -18.615424138695847 ], [ 27.031844019693679, -18.616066072804774 ], [ 27.032469060799738, -18.616116751813372 ], [ 27.033127887911533, -18.615677533738843 ], [ 27.03402321706346, -18.615305887675781 ], [ 27.034969225223985, -18.614866669601252 ], [ 27.035729410352982, -18.614005126455059 ], [ 27.036388237464777, -18.613413871354727 ], [ 27.037131529590901, -18.613076011297398 ], [ 27.037908607722763, -18.6127719372458 ], [ 27.038567434834558, -18.613532122374792 ], [ 27.039310726960686, -18.614376772518121 ], [ 27.039783731040949, -18.614748418581183 ], [ 27.040222949115478, -18.615018706627048 ], [ 27.040864883224408, -18.61520452965858 ], [ 27.041844677390667, -18.615187636655715 ], [ 27.042875150565525, -18.614984920621318 ], [ 27.043804265723185, -18.614849776598383 ], [ 27.044564450852178, -18.614511916541051 ], [ 27.045341528984039, -18.614190949486588 ], [ 27.046186179127368, -18.613734838409194 ], [ 27.047064615276426, -18.613346299343263 ], [ 27.047638977373889, -18.613346299343263 ], [ 27.048432948508619, -18.613244941326066 ], [ 27.049083329118982, -18.613278727331799 ], [ 27.049801281740809, -18.613278727331799 ], [ 27.050806415411369, -18.613532122374799 ], [ 27.051448349520296, -18.613726391907761 ], [ 27.052073390626358, -18.613625033890564 ], [ 27.052613966718088, -18.613540568876232 ], [ 27.05323900782415, -18.61348988986763 ], [ 27.053880941933077, -18.613515229371931 ], [ 27.054396178520506, -18.613557461879097 ], [ 27.054962094116537, -18.613701052403464 ], [ 27.05564626073263, -18.613785517417796 ], [ 27.05657537589029, -18.614013572956495 ], [ 27.05703993346912, -18.614140270477993 ], [ 27.057664974575179, -18.614106484472256 ], [ 27.05851807121994, -18.613861535930692 ], [ 27.059058647311669, -18.613692605902028 ], [ 27.059497865386199, -18.613743284910626 ], [ 27.059970869466461, -18.613937554443591 ], [ 27.060899984624122, -18.614047358962225 ], [ 27.061989583309014, -18.614148716979422 ], [ 27.062808893948041, -18.614081144967955 ], [ 27.063315684034038, -18.613768624414924 ], [ 27.063400149048373, -18.61355746187909 ], [ 27.063442381555539, -18.613396978351858 ], [ 27.063307237532605, -18.613152029810294 ], [ 27.063256558524007, -18.612923974271595 ], [ 27.063594418581339, -18.612763490744364 ], [ 27.063873153128636, -18.612636793222865 ], [ 27.064253245693131, -18.612603007217132 ], [ 27.064633338257629, -18.612636793222865 ], [ 27.064962751813528, -18.612755044242931 ], [ 27.06515702134649, -18.612890188265862 ], [ 27.065140128343625, -18.613067564795962 ], [ 27.065224593357957, -18.613261834328927 ], [ 27.065545560412421, -18.613320959838958 ], [ 27.065858080965452, -18.613152029810294 ], [ 27.066255066532815, -18.612873295262997 ], [ 27.066744963615946, -18.612603007217132 ], [ 27.067150395684742, -18.612383398179865 ], [ 27.067471362739209, -18.612146896139734 ], [ 27.067834562300838, -18.611961073108205 ], [ 27.068163975856734, -18.611893501096738 ], [ 27.068662319441298, -18.611741464070938 ], [ 27.06903396550436, -18.611665445558039 ], [ 27.069354932558827, -18.611547194537973 ], [ 27.069616774103256, -18.611454283022209 ], [ 27.069633667106125, -18.611454283022209 ], [ 27.06982793663909, -18.611412050515042 ], [ 27.070123564189252, -18.611412050515042 ], [ 27.070512103255183, -18.611471176025074 ], [ 27.070917535323982, -18.611580980543707 ], [ 27.071086465352646, -18.611597873546572 ], [ 27.071027339842612, -18.611648552555177 ], [ 27.070461424246584, -18.611733017569509 ], [ 27.069785704131924, -18.611918840601042 ], [ 27.06900017949863, -18.61204553812254 ], [ 27.068729891452765, -18.61212155663544 ], [ 27.068020385332364, -18.612307379666969 ], [ 27.067437576733468, -18.6125185422028 ], [ 27.066939233148908, -18.612797276750097 ], [ 27.066432443062912, -18.613067564795962 ], [ 27.06601856449268, -18.613472996864758 ], [ 27.06519080735222, -18.613836196426391 ], [ 27.064565766246158, -18.61394600094502 ], [ 27.063814027618598, -18.61409803797082 ], [ 27.063349470039768, -18.614283861002352 ], [ 27.062808893948038, -18.614342986512387 ], [ 27.062133173833377, -18.614359879515252 ], [ 27.061491239724447, -18.614419005025287 ], [ 27.061001342641319, -18.61456259554965 ], [ 27.060925324128419, -18.614672400068283 ], [ 27.060790180105489, -18.61502715312848 ], [ 27.060747947598319, -18.615441031698712 ], [ 27.060612803575388, -18.615761998753175 ], [ 27.060519892059624, -18.616243449334871 ], [ 27.060426980543856, -18.616412379363535 ], [ 27.060139799495126, -18.616285681842037 ], [ 27.05965834891343, -18.616699560412268 ], [ 27.05955699089623, -18.616344807352071 ], [ 27.059514758389064, -18.616201216827704 ], [ 27.059278256348932, -18.616479951375002 ], [ 27.0590164148045, -18.616792471928033 ], [ 27.058813698770102, -18.617181010993963 ], [ 27.058501178217071, -18.61722324350113 ], [ 27.058104192649708, -18.617045866971029 ], [ 27.057952155623909, -18.616817811432334 ], [ 27.057817011600978, -18.616488397876434 ], [ 27.057597402563712, -18.616167430821971 ], [ 27.057403133030746, -18.615761998753175 ], [ 27.057208863497781, -18.615441031698712 ], [ 27.056955468454788, -18.615077832137082 ], [ 27.056634501400325, -18.614866669601248 ], [ 27.056229069331529, -18.614714632575453 ], [ 27.055756065251266, -18.614402112022422 ], [ 27.0554604377011, -18.61416560998229 ], [ 27.055063452133737, -18.614174056483723 ], [ 27.054742485079274, -18.614309200506653 ], [ 27.054294820503308, -18.614410558523854 ], [ 27.053999192953146, -18.614799097589785 ], [ 27.053872495431644, -18.61499336712275 ], [ 27.05370356540298, -18.61473997207975 ], [ 27.053559974878613, -18.614824437094082 ], [ 27.053483956365717, -18.614951134615584 ], [ 27.053196775316984, -18.614951134615584 ], [ 27.052918040769686, -18.614866669601248 ], [ 27.052521055202323, -18.614883562604117 ], [ 27.052174748643559, -18.614900455606982 ], [ 27.052140962637825, -18.614892009105549 ], [ 27.051203400978732, -18.614900455606982 ], [ 27.050890880425701, -18.614638614062553 ], [ 27.050274285821075, -18.614385219019553 ], [ 27.049243812646214, -18.614292307503788 ], [ 27.048627218041588, -18.614435898028152 ], [ 27.048010623436959, -18.614689293071152 ], [ 27.047461600843796, -18.614925795111287 ], [ 27.046794327230568, -18.615018706627051 ], [ 27.046008802597274, -18.615136957647117 ], [ 27.045164152453946, -18.61524676216575 ], [ 27.044387074322085, -18.615297441174349 ], [ 27.043728247210293, -18.615348120182947 ], [ 27.043322815141494, -18.615280548171484 ], [ 27.042571076513934, -18.615449478200148 ], [ 27.041802444883505, -18.615601515225947 ], [ 27.040805757714381, -18.615643747733113 ], [ 27.040290521126952, -18.615593068724515 ], [ 27.03930228045926, -18.615348120182947 ], [ 27.038449183814496, -18.614984920621314 ], [ 27.038111323757164, -18.614604828056819 ], [ 27.037570747665438, -18.614233181993754 ], [ 27.037435603642503, -18.614165609982287 ], [ 27.037004832069407, -18.614326093509519 ], [ 27.036785223032144, -18.614419005025287 ], [ 27.036590953499179, -18.614714632575449 ], [ 27.036337558456179, -18.614807544091217 ], [ 27.036168628427514, -18.615018706627048 ], [ 27.035788535863016, -18.615381906188677 ], [ 27.03535776428992, -18.615677533738843 ], [ 27.035121262249788, -18.615829570764642 ], [ 27.034969225223989, -18.61610830531194 ], [ 27.034690490676692, -18.616505290879303 ], [ 27.034437095633695, -18.616876936942369 ], [ 27.033904966043401, -18.617045866971029 ], [ 27.033246138931606, -18.617231690002562 ], [ 27.032629544326976, -18.617324601518327 ], [ 27.032190326252447, -18.617273922509728 ], [ 27.03119363908332, -18.616919169449531 ], [ 27.030391221447161, -18.616800918429465 ], [ 27.029681715326767, -18.616708006913701 ], [ 27.028955316203504, -18.616741792919434 ], [ 27.028220470578809, -18.616691113910832 ], [ 27.027367373934052, -18.616623541899369 ], [ 27.026564956297889, -18.616674220907967 ], [ 27.02612573822336, -18.616581309392199 ], [ 27.025382446097233, -18.616353253853504 ], [ 27.025002353532734, -18.616235002833438 ], [ 27.024461777441008, -18.616167430821971 ], [ 27.024216828899444, -18.616040733300473 ], [ 27.022949853684455, -18.615914035778975 ], [ 27.022451510099891, -18.615821124263206 ], [ 27.022079864036826, -18.615939375283272 ], [ 27.021488608936497, -18.616142091317673 ], [ 27.021100069870567, -18.616133644816237 ], [ 27.020643958793173, -18.615863356770372 ], [ 27.018371849907624, -18.615745105750307 ], [ 27.017881952824492, -18.615745105750307 ], [ 27.016843033148202, -18.616040733300473 ], [ 27.016479833586569, -18.616387039859237 ], [ 27.016082848019206, -18.616809364930901 ], [ 27.015888578486241, -18.616961401956697 ], [ 27.014815872804217, -18.616969848458126 ], [ 27.013160358523297, -18.61703742046959 ], [ 27.011639988265308, -18.61703742046959 ], [ 27.009714185938524, -18.616530630383593 ], [ 27.008058671657601, -18.616902276446659 ], [ 27.007078877491342, -18.616631988400794 ], [ 27.00505171714736, -18.615652194234535 ], [ 27.004105708986835, -18.615280548171469 ], [ 27.003159700826306, -18.614739972079743 ], [ 27.00163933056832, -18.614334540010944 ], [ 27.00045682036766, -18.614435898028145 ], [ 26.998868878098207, -18.613996679953615 ], [ 26.997821511920481, -18.613489889867619 ], [ 26.997517437868883, -18.613388531850418 ], [ 26.997613164885113, -18.612800092250577 ] ] ] ] } },
{ "type": "Feature", "properties": { "Vlei_Name": "Dete_Vlei" }, "geometry": { "type": "MultiPolygon", "coordinates": [ [ [ [ 26.96977912716202, -18.659067211601528 ], [ 26.97143464144294, -18.658932067578593 ], [ 26.97265093764933, -18.658492849504064 ], [ 26.973495587792659, -18.658357705481134 ], [ 26.975556534142374, -18.658560421515531 ], [ 26.977955340549425, -18.658627993526999 ], [ 26.979982500893406, -18.658256347463933 ], [ 26.981401513134198, -18.658053631429535 ], [ 26.982550237329122, -18.658661779532732 ], [ 26.983597603506848, -18.6583239194754 ], [ 26.985354475804964, -18.657546841343539 ], [ 26.987178920114552, -18.657580627349272 ], [ 26.989003364424139, -18.657749557377937 ], [ 26.990118302613329, -18.657918487406604 ], [ 26.991300812813986, -18.65710762326901 ], [ 26.993496903186635, -18.656871121228878 ], [ 26.994780771404493, -18.657073837263276 ], [ 26.995997067610883, -18.65724276729194 ], [ 26.997044433788609, -18.65670219120021 ], [ 26.998193157983536, -18.65595889907409 ], [ 26.999612170224324, -18.655181820942229 ], [ 27.001267684505248, -18.655350750970893 ], [ 27.003024556803364, -18.654438528816101 ], [ 27.004578713067087, -18.654066882753039 ], [ 27.005828795279211, -18.652715442523714 ], [ 27.007214021514265, -18.651803220368922 ], [ 27.008666819760787, -18.650890998214127 ], [ 27.011065626167838, -18.650553138156798 ], [ 27.012991428494622, -18.650046348070802 ], [ 27.014140152689546, -18.649404413961872 ], [ 27.015153732861538, -18.64859354982428 ], [ 27.016775461136724, -18.64859354982428 ], [ 27.01836340340618, -18.648694907841477 ], [ 27.019917559669903, -18.647681327669488 ], [ 27.02110006987056, -18.646600175486029 ], [ 27.021336571910691, -18.645654167325503 ], [ 27.02123521389349, -18.645046019222303 ], [ 27.022046078031085, -18.644505443130576 ], [ 27.022958300185877, -18.644336513101909 ], [ 27.02397188035787, -18.644370299107642 ], [ 27.024478670443866, -18.64453922913631 ], [ 27.025762538661724, -18.644336513101909 ], [ 27.027418052942643, -18.644370299107642 ], [ 27.029512785298092, -18.644032439050314 ], [ 27.031033155556081, -18.643559434970051 ], [ 27.032249451762471, -18.643559434970051 ], [ 27.034682044175252, -18.643154002901252 ], [ 27.036878134547901, -18.642647212815255 ], [ 27.038466076817357, -18.642680998820989 ], [ 27.040222949115478, -18.64278235683819 ], [ 27.041371673310401, -18.642816142843923 ], [ 27.042283895465193, -18.642714784826723 ], [ 27.043365047648653, -18.642613426809522 ], [ 27.044750273883707, -18.642613426809522 ], [ 27.045493566009835, -18.642816142843923 ], [ 27.046236858135963, -18.643018858878321 ], [ 27.046946364256357, -18.64291750086112 ], [ 27.047284224313689, -18.642883714855387 ], [ 27.047791014399685, -18.642680998820989 ], [ 27.049953318766601, -18.642714784826723 ], [ 27.051743977070455, -18.642613426809522 ], [ 27.05377113741444, -18.64278235683819 ], [ 27.054683359569232, -18.642816142843923 ], [ 27.056338873850152, -18.64278235683819 ], [ 27.056845663936148, -18.642816142843923 ], [ 27.057352454022144, -18.642816142843923 ], [ 27.058636322239995, -18.64237692476939 ], [ 27.060258050515184, -18.64173499066046 ], [ 27.061271630687177, -18.642106636723526 ], [ 27.061981136807571, -18.642512068792321 ], [ 27.063062288991027, -18.642174208734989 ], [ 27.063906939134355, -18.641903920689128 ], [ 27.065427309392344, -18.641329558591664 ], [ 27.066103029507005, -18.641261986580197 ], [ 27.067184181690465, -18.640856554511402 ], [ 27.068299119879654, -18.640349764425405 ], [ 27.069278914045913, -18.639741616322208 ], [ 27.070258708212172, -18.639505114282077 ], [ 27.071035786344034, -18.639437542270613 ], [ 27.072319654561891, -18.639640258305011 ], [ 27.073569736774015, -18.639910546350876 ], [ 27.074650888957471, -18.640484908448336 ], [ 27.075968543181062, -18.641295772585931 ], [ 27.076036115192526, -18.641295772585931 ], [ 27.07617125921546, -18.641363344597398 ], [ 27.076982123353055, -18.641295772585931 ], [ 27.078401135593843, -18.641329558591664 ], [ 27.080056649874763, -18.641397130603131 ], [ 27.08177973616715, -18.641025484540066 ], [ 27.083435250448069, -18.640890340517135 ], [ 27.084820476683127, -18.640147048391007 ], [ 27.08583405685512, -18.639741616322208 ], [ 27.086678706998445, -18.640451122442602 ], [ 27.087219283090175, -18.641295772585931 ], [ 27.087759859181904, -18.641903920689128 ], [ 27.088368007285098, -18.642207994740723 ], [ 27.089145085416959, -18.642714784826719 ], [ 27.08982080553162, -18.642714784826719 ], [ 27.090057307571751, -18.642478282786588 ], [ 27.090327595617616, -18.642444496780854 ], [ 27.090733027686415, -18.642309352757923 ], [ 27.091070887743744, -18.64227556675219 ], [ 27.091172245760944, -18.642241780746456 ], [ 27.091510105818276, -18.642174208734989 ], [ 27.091915537887072, -18.642039064712058 ], [ 27.093435908145061, -18.642039064712058 ], [ 27.094381916305586, -18.641566060631796 ], [ 27.096240146620904, -18.641633632643256 ], [ 27.097895660901827, -18.641802562671923 ], [ 27.099956607251542, -18.642613426809515 ], [ 27.1013418334866, -18.642613426809515 ], [ 27.102490557681524, -18.642174208734986 ], [ 27.104483932019775, -18.642072850717788 ], [ 27.106781380409622, -18.642545854798051 ], [ 27.108234178656147, -18.643694578992974 ], [ 27.110430269028797, -18.64342429094711 ], [ 27.112018211298249, -18.64298507287258 ], [ 27.113133149487442, -18.643491862958577 ], [ 27.114653519745428, -18.64244449678085 ], [ 27.115869815951818, -18.642174208734986 ], [ 27.117728046267139, -18.641903920689121 ], [ 27.119315988536592, -18.641363344597394 ], [ 27.120566070748716, -18.640755196494197 ], [ 27.122120227012438, -18.64068762448273 ], [ 27.123505453247493, -18.639403756264876 ], [ 27.124654177442419, -18.639065896207544 ], [ 27.125127181522682, -18.638998324196077 ], [ 27.126478621752003, -18.63889696617888 ], [ 27.126799588806467, -18.638871626674572 ], [ 27.127145895365231, -18.638837840668838 ], [ 27.127694917958394, -18.638609785130143 ], [ 27.128007438511425, -18.638525320115811 ], [ 27.128294619560155, -18.638609785130143 ], [ 27.128733837634687, -18.638804054663108 ], [ 27.129046358187718, -18.638905412680305 ], [ 27.129409557749348, -18.63896453819034 ], [ 27.130169742878341, -18.638820947665973 ], [ 27.130727211972939, -18.638820947665973 ], [ 27.131732345643496, -18.63878716166024 ], [ 27.13228981473809, -18.638601338628707 ], [ 27.132762818818353, -18.638432408600043 ], [ 27.133235822898619, -18.638255032069946 ], [ 27.134249403070619, -18.637444167932347 ], [ 27.134452119105017, -18.637697562975347 ], [ 27.133691933976024, -18.63845774810434 ], [ 27.132602335291132, -18.639040556703236 ], [ 27.13047381692995, -18.639598025797831 ], [ 27.129080144193459, -18.639243272737634 ], [ 27.128193261542965, -18.638964538190336 ], [ 27.127103662858076, -18.639065896207534 ], [ 27.126090082686083, -18.639395309763433 ], [ 27.125279218548489, -18.639800741832229 ], [ 27.124316317385095, -18.639699383815032 ], [ 27.123733508786202, -18.640130155388128 ], [ 27.122998663161507, -18.640459568944024 ], [ 27.122339836049711, -18.640941019525727 ], [ 27.12142761389492, -18.641067717047225 ], [ 27.120515391740124, -18.641371791098823 ], [ 27.119907243636931, -18.64162518614182 ], [ 27.119197737516537, -18.642157315732117 ], [ 27.11858958941334, -18.642436050279414 ], [ 27.117069219155351, -18.642714784826712 ], [ 27.11592894146186, -18.642638766313812 ], [ 27.114763324264068, -18.643246914417006 ], [ 27.114129836656574, -18.643627006981504 ], [ 27.113673725579179, -18.6440577785546 ], [ 27.113293633014681, -18.644159136571801 ], [ 27.112786842928685, -18.644108457563199 ], [ 27.112128015816889, -18.643880402024504 ], [ 27.111646565235194, -18.643981760041701 ], [ 27.111038417131997, -18.6442098155804 ], [ 27.1108610406019, -18.6443111735976 ], [ 27.110506287541703, -18.644463210623396 ], [ 27.110252892498703, -18.645223395752392 ], [ 27.109771441917008, -18.644995340213693 ], [ 27.10939134935251, -18.644741945170697 ], [ 27.108833880257915, -18.644792624179296 ], [ 27.108529806206317, -18.644919321700794 ], [ 27.108149713641822, -18.644995340213693 ], [ 27.107617584051525, -18.644995340213693 ], [ 27.106604003879532, -18.644665926657794 ], [ 27.104576843535547, -18.644311173597593 ], [ 27.102980454764662, -18.644235155084697 ], [ 27.101485424010974, -18.643905741528798 ], [ 27.10026912780458, -18.644184476076095 ], [ 27.099483603171286, -18.644159136571798 ], [ 27.098292646469197, -18.644007099545998 ], [ 27.096392183646714, -18.643576327972902 ], [ 27.094466381319926, -18.643398951442801 ], [ 27.092869992549041, -18.643398951442801 ], [ 27.091780393864148, -18.643652346485801 ], [ 27.089803912528762, -18.643981760041697 ], [ 27.088232863262174, -18.643829723015898 ], [ 27.087168604081583, -18.643677685990099 ], [ 27.086839190525687, -18.6436270069815 ], [ 27.086028326388092, -18.6436270069815 ], [ 27.0852681412591, -18.643550988468601 ], [ 27.084279900591405, -18.643500309460002 ], [ 27.08389980802691, -18.643297593425604 ], [ 27.083519715462412, -18.643120216895504 ], [ 27.082962246367817, -18.643094877391203 ], [ 27.08268351182052, -18.643094877391203 ], [ 27.08098576503243, -18.643272253921303 ], [ 27.079972184860438, -18.643094877391206 ], [ 27.077412894926159, -18.643525648964303 ], [ 27.075335055573575, -18.643424290947102 ], [ 27.074270796392984, -18.642942840365407 ], [ 27.073510611263988, -18.642866821852508 ], [ 27.072598389109196, -18.643272253921303 ], [ 27.071306074389906, -18.643601667477203 ], [ 27.070343173226515, -18.644184476076099 ], [ 27.069076198011523, -18.643601667477203 ], [ 27.068442710404028, -18.643474969955701 ], [ 27.067910580813734, -18.644133797067497 ], [ 27.067226414197638, -18.644463210623396 ], [ 27.066238173529946, -18.644741945170693 ], [ 27.065604685922452, -18.64491932170079 ], [ 27.064312371203162, -18.644868642692192 ], [ 27.063400149048366, -18.644767284674991 ], [ 27.062386568876377, -18.64499534021369 ], [ 27.060714161592589, -18.64491932170079 ], [ 27.060334069028091, -18.644970000709392 ], [ 27.059447186377596, -18.645096698230891 ], [ 27.058458945709905, -18.645198056248088 ], [ 27.057521384050812, -18.645628827821184 ], [ 27.056811877930418, -18.645679506829786 ], [ 27.055874316271325, -18.645578148812586 ], [ 27.055443544698228, -18.645552809308285 ], [ 27.053162989311254, -18.646211636420077 ], [ 27.052098730130663, -18.64578086484698 ], [ 27.051211847480168, -18.645122037735185 ], [ 27.049919532760878, -18.645755525342683 ], [ 27.047689656382495, -18.645730185838381 ], [ 27.046600057697603, -18.645299414265285 ], [ 27.046549378689004, -18.645223395752385 ], [ 27.045991909594409, -18.644970000709389 ], [ 27.045510459012711, -18.644944661205088 ], [ 27.045155705952514, -18.645046019222285 ], [ 27.04437018131922, -18.645451451291084 ], [ 27.043103206104231, -18.645907562368478 ], [ 27.042317681470937, -18.646008920385679 ], [ 27.041329440803246, -18.645983580881378 ], [ 27.039783731040956, -18.645679506829783 ], [ 27.038972866903361, -18.645400772282485 ], [ 27.03808598425287, -18.645172716743787 ], [ 27.037325799123874, -18.645350093273883 ], [ 27.036008144900286, -18.645806204351281 ], [ 27.035349317788491, -18.646084938898579 ], [ 27.033930305547702, -18.64595824137708 ], [ 27.032866046367111, -18.646008920385679 ], [ 27.031193639083323, -18.646769105514672 ], [ 27.030534811971528, -18.646693087001772 ], [ 27.028380954106044, -18.647478611635069 ], [ 27.027494071455553, -18.648238796764062 ], [ 27.02637913326636, -18.648872284371556 ], [ 27.025314874085769, -18.649429753466151 ], [ 27.02404789887078, -18.649860525039248 ], [ 27.022172775552594, -18.649708488013449 ], [ 27.021007158354802, -18.649784506526348 ], [ 27.019613485618311, -18.650139259586545 ], [ 27.01854922643772, -18.650595370663943 ], [ 27.017763701804427, -18.651634290340233 ], [ 27.01733293023133, -18.652343796460627 ], [ 27.016572745102337, -18.652673210016527 ], [ 27.015711201956144, -18.653180000102523 ], [ 27.01474830079275, -18.653686790188519 ], [ 27.01363336260356, -18.653813487710018 ], [ 27.012771819457367, -18.654066882753014 ], [ 27.011580862755274, -18.654599012343311 ], [ 27.010769998617683, -18.65472570986481 ], [ 27.010263208531686, -18.654928425899207 ], [ 27.008945554308095, -18.655435215985204 ], [ 27.008565461743597, -18.655764629541103 ], [ 27.007957313640404, -18.6558659875583 ], [ 27.006791696442612, -18.6561193826013 ], [ 27.00570209775772, -18.656043364088401 ], [ 27.005372684201824, -18.656600833182996 ], [ 27.003674937413738, -18.656752870208795 ], [ 27.002534659720247, -18.657006265251791 ], [ 27.001217005496645, -18.657538394842089 ], [ 27.000710215410649, -18.658146542945282 ], [ 26.999874011768757, -18.658551975014081 ], [ 26.998201604484969, -18.659261481134475 ], [ 26.996630555218381, -18.659920308246271 ], [ 26.996073086123786, -18.660376419323665 ], [ 26.995794351576489, -18.660528456349464 ], [ 26.994856789917396, -18.660579135358063 ], [ 26.9941979628056, -18.660579135358063 ], [ 26.993311080155109, -18.660629814366665 ], [ 26.992626913539013, -18.661035246435461 ], [ 26.991892067914318, -18.66111126494836 ], [ 26.991055864272425, -18.661009906931159 ], [ 26.990219660630533, -18.66093388841826 ], [ 26.988547253346745, -18.66118728346126 ], [ 26.986874846062957, -18.661440678504256 ], [ 26.985075741257671, -18.661364659991357 ], [ 26.983707408025481, -18.661339320487059 ], [ 26.982389753801893, -18.661263301974159 ], [ 26.981680247681499, -18.661060585939762 ], [ 26.980362593457908, -18.660579135358063 ], [ 26.979678426841815, -18.660781851392464 ], [ 26.978791544191321, -18.661035246435461 ], [ 26.978006019558027, -18.66111126494836 ], [ 26.97747388996773, -18.661161943956959 ], [ 26.976561667812945, -18.66128864147846 ], [ 26.975446729623755, -18.661035246435464 ], [ 26.973672964322766, -18.660604474862367 ], [ 26.972912779193774, -18.660731172383866 ], [ 26.972253952081978, -18.660731172383866 ], [ 26.971696482987383, -18.660731172383866 ], [ 26.97101231637129, -18.660781851392464 ], [ 26.970404168268093, -18.660705832879565 ], [ 26.970100094216495, -18.660604474862367 ], [ 26.969821359669197, -18.660427098332267 ], [ 26.969694662147699, -18.660351079819367 ], [ 26.969339909087502, -18.66040175882797 ], [ 26.96977912716202, -18.659067211601528 ] ] ] ] } }
]
}
