{
"type": "FeatureCollection",
"name": "waterways",
"crs": { "type": "name", "properties": { "name": "urn:ogc:def:crs:OGC:1.3:CRS84" } },
"features": [
{ "type": "Feature", "properties": { "full_id": "w667196453", "osm_id": "667196453", "osm_type": "way", "natural": null, "waterway": "stream", "name": null }, "geometry": { "type": "MultiLineString", "coordinates": [ [ [ 27.012051670141144, -18.582501855109651 ], [ 27.0123659, -18.5825423 ], [ 27.0133959, -18.5829288 ], [ 27.0151984, -18.5831525 ], [ 27.016636, -18.5833152 ], [ 27.0178377, -18.5832338 ], [ 27.0194684, -18.5833355 ], [ 27.0213996, -18.5835389 ], [ 27.0225583, -18.5834169 ], [ 27.0236741, -18.5833559 ], [ 27.0255624, -18.5833966 ], [ 27.0266138, -18.5834169 ], [ 27.0282446, -18.5833355 ], [ 27.0293604, -18.5833762 ], [ 27.030841, -18.5835186 ], [ 27.0321714, -18.5835593 ], [ 27.0337807, -18.5836813 ], [ 27.0347034, -18.5834779 ], [ 27.0351969, -18.5833966 ], [ 27.036141, -18.5836813 ], [ 27.0372783, -18.5838643 ], [ 27.0381795, -18.583844 ], [ 27.039467, -18.5840474 ], [ 27.0403897, -18.5842101 ], [ 27.0410978, -18.5841491 ], [ 27.0419775, -18.5841491 ], [ 27.0430504, -18.5841694 ], [ 27.0437156, -18.5841084 ], [ 27.0448099, -18.5839254 ], [ 27.0455395, -18.5838847 ], [ 27.0460791, -18.5838038 ], [ 27.046641, -18.583889 ], [ 27.0471466, -18.5837399 ], [ 27.0474724, -18.5836228 ], [ 27.0480342, -18.5835375 ], [ 27.0484163, -18.583431 ], [ 27.0487309, -18.5833991 ], [ 27.049259, -18.5835589 ], [ 27.0500792, -18.5837612 ], [ 27.050495, -18.583921 ], [ 27.0510119, -18.5839103 ], [ 27.0514276, -18.583889 ], [ 27.0518096, -18.5840594 ], [ 27.0522928, -18.5841766 ], [ 27.0526861, -18.5842511 ], [ 27.0531692, -18.5843363 ], [ 27.053754100230567, -18.5842139387636 ] ] ] } },
{ "type": "Feature", "properties": { "full_id": "w667196454", "osm_id": "667196454", "osm_type": "way", "natural": null, "waterway": "stream", "name": null }, "geometry": { "type": "MultiLineString", "coordinates": [ [ [ 27.0196528, -18.599767 ], [ 27.0207182, -18.5999293 ], [ 27.0214069, -18.6004106 ], [ 27.0222153, -18.60084 ], [ 27.0223173, -18.60084 ], [ 27.0230072, -18.60084 ], [ 27.0237525, -18.6007812 ], [ 27.0242339, -18.6005751 ], [ 27.024622, -18.600634 ], [ 27.0255071, -18.6006781 ], [ 27.0260972, -18.600634 ], [ 27.026594, -18.6006487 ], [ 27.0272617, -18.6006929 ], [ 27.0278983, -18.6006487 ], [ 27.0292027, -18.6006193 ], [ 27.0299635, -18.6007812 ], [ 27.0305225, -18.6012374 ], [ 27.0311436, -18.6016347 ], [ 27.0314381, -18.6019365 ], [ 27.0320381, -18.6022729 ], [ 27.0326096, -18.6023386 ], [ 27.0334417, -18.6022086 ], [ 27.0341769, -18.60195 ], [ 27.0349944, -18.6018554 ], [ 27.0356155, -18.6015611 ], [ 27.0362987, -18.6013992 ], [ 27.0371372, -18.6012668 ], [ 27.0378049, -18.6012521 ], [ 27.0384726, -18.6012815 ], [ 27.0393421, -18.6012815 ], [ 27.0399788, -18.6012815 ], [ 27.0405222, -18.6012226 ], [ 27.0416247, -18.6010902 ], [ 27.0424166, -18.6007812 ], [ 27.0431929, -18.6006046 ], [ 27.0439072, -18.6003397 ], [ 27.0445904, -18.6000012 ], [ 27.0453047, -18.5995744 ], [ 27.0461432, -18.5991035 ], [ 27.0470438, -18.5987356 ], [ 27.0478643, -18.5983413 ], [ 27.0481462, -18.5982058 ], [ 27.048845, -18.597882 ], [ 27.0497145, -18.5974111 ], [ 27.0503822, -18.5970431 ], [ 27.050848, -18.5966016 ], [ 27.0515778, -18.5961307 ], [ 27.0517709, -18.5960044 ], [ 27.05223, -18.5957039 ], [ 27.0530063, -18.595233 ], [ 27.0533268, -18.5949705 ], [ 27.0538625, -18.5947902 ], [ 27.0542166, -18.5945928 ], [ 27.0549007, -18.5942911 ], [ 27.0552331, -18.5939843 ] ] ] } },
{ "type": "Feature", "properties": { "full_id": "w667196456", "osm_id": "667196456", "osm_type": "way", "natural": null, "waterway": "stream", "name": "Zingweni" }, "geometry": { "type": "MultiLineString", "coordinates": [ [ [ 27.0692933, -18.6116711 ], [ 27.0695942, -18.6115633 ], [ 27.0701471, -18.6115324 ], [ 27.0706497, -18.6116198 ], [ 27.0709442, -18.611671 ], [ 27.0717325, -18.6116082 ], [ 27.0725457, -18.6115401 ], [ 27.0730254, -18.6113013 ], [ 27.0736596, -18.6112319 ], [ 27.0739775, -18.611184 ], [ 27.0743752, -18.611124 ], [ 27.0749931, -18.6108466 ], [ 27.0758713, -18.610523 ], [ 27.0764079, -18.6104767 ], [ 27.0773592, -18.6103689 ], [ 27.0779446, -18.6100915 ], [ 27.0782536, -18.6099759 ], [ 27.0785382, -18.6097832 ], [ 27.0789773, -18.6094981 ], [ 27.0794814, -18.6093055 ], [ 27.0798392, -18.6090358 ], [ 27.080018, -18.6088046 ], [ 27.0806766, -18.6084655 ], [ 27.0809287, -18.6080879 ], [ 27.081319, -18.6074252 ], [ 27.081815, -18.6068319 ], [ 27.0822134, -18.6065468 ], [ 27.0826769, -18.6061075 ], [ 27.0832867, -18.6056529 ], [ 27.0835956, -18.605414 ], [ 27.0838477, -18.6051751 ], [ 27.0839453, -18.6048283 ], [ 27.0839859, -18.6045047 ], [ 27.0844901, -18.6039344 ], [ 27.0846852, -18.6035568 ], [ 27.0851243, -18.6032871 ], [ 27.085212781474532, -18.603185844791469 ] ] ] } },
{ "type": "Feature", "properties": { "full_id": "w669901300", "osm_id": "669901300", "osm_type": "way", "natural": null, "waterway": "stream", "name": null }, "geometry": { "type": "MultiLineString", "coordinates": [ [ [ 27.0552331, -18.5939843 ], [ 27.0554012, -18.5938889 ], [ 27.0556612, -18.5938018 ], [ 27.0563603, -18.5935552 ], [ 27.0570745, -18.5933345 ], [ 27.0573874, -18.593038 ], [ 27.0574317, -18.592996 ], [ 27.0579596, -18.5926722 ], [ 27.0587515, -18.5922896 ], [ 27.05959, -18.5918333 ], [ 27.0597763, -18.5915979 ], [ 27.0602111, -18.5914948 ], [ 27.0605527, -18.5912741 ], [ 27.0608167, -18.5908178 ], [ 27.0610185, -18.5905971 ], [ 27.0617949, -18.5905529 ], [ 27.0619968, -18.5905235 ], [ 27.0621831, -18.5902733 ], [ 27.0624936, -18.5899348 ], [ 27.0626489, -18.5896993 ], [ 27.0627887, -18.5894491 ], [ 27.0630061, -18.5891548 ], [ 27.0630992, -18.5886838 ], [ 27.063181781180795, -18.588615342361191 ] ] ] } },
{ "type": "Feature", "properties": { "full_id": "w674245005", "osm_id": "674245005", "osm_type": "way", "natural": null, "waterway": "river", "name": "Gwayi River" }, "geometry": { "type": "MultiLineString", "coordinates": [ [ [ 27.224491052068611, -18.661634783605379 ], [ 27.2242647, -18.6616991 ], [ 27.2237771, -18.6617228 ], [ 27.223252, -18.6617228 ], [ 27.222877, -18.6618413 ], [ 27.2224894, -18.661865 ], [ 27.2217268, -18.6619005 ], [ 27.2208642, -18.6619952 ], [ 27.2199891, -18.6620308 ], [ 27.2190389, -18.6620782 ], [ 27.2181513, -18.6620426 ], [ 27.2175512, -18.6621018 ], [ 27.2165261, -18.6621611 ], [ 27.2157384, -18.6621492 ], [ 27.2148633, -18.6621374 ], [ 27.2141007, -18.6619597 ], [ 27.2132006, -18.6615925 ], [ 27.2124505, -18.6610714 ], [ 27.2120629, -18.6607516 ], [ 27.2114628, -18.6603133 ], [ 27.2108752, -18.6596737 ], [ 27.2105377, -18.6592591 ], [ 27.2100251, -18.6587261 ], [ 27.2091625, -18.6581813 ], [ 27.2087374, -18.6578852 ], [ 27.2082874, -18.6573403 ], [ 27.2077998, -18.656902 ], [ 27.2073497, -18.6564164 ], [ 27.2069872, -18.6556228 ], [ 27.2066621, -18.6548765 ], [ 27.2065621, -18.6542014 ], [ 27.2065621, -18.6534551 ], [ 27.2067621, -18.652626 ], [ 27.2070622, -18.6516665 ], [ 27.2073997, -18.6501266 ], [ 27.2073497, -18.6495462 ], [ 27.2073372, -18.649025 ], [ 27.2071372, -18.648563 ], [ 27.2069997, -18.6480774 ], [ 27.2069497, -18.6475206 ], [ 27.2070747, -18.6467862 ], [ 27.2071497, -18.6460873 ], [ 27.2073247, -18.6452226 ], [ 27.2079873, -18.6422256 ], [ 27.2078873, -18.6415504 ], [ 27.2079498, -18.6406856 ], [ 27.2085249, -18.6395366 ], [ 27.20945, -18.6383283 ], [ 27.2119695, -18.635346 ], [ 27.2121807, -18.6349664 ], [ 27.2124866, -18.6345868 ], [ 27.212663114718449, -18.634453977396394 ] ], [ [ 27.185523052212403, -18.614813142688071 ], [ 27.1849657, -18.61514 ], [ 27.1845867, -18.6152617 ], [ 27.1843041, -18.6154809 ], [ 27.1839316, -18.615633 ], [ 27.1834049, -18.61584 ], [ 27.1827562, -18.6160043 ], [ 27.1823708, -18.6161869 ], [ 27.1820047, -18.6163391 ], [ 27.1815359, -18.6165217 ], [ 27.1809899, -18.616613 ], [ 27.1804247, -18.6167043 ], [ 27.1799623, -18.6167469 ], [ 27.1793521, -18.6166556 ], [ 27.1788511, -18.6165339 ], [ 27.1781896, -18.6163148 ], [ 27.1748754, -18.6154322 ], [ 27.1741753, -18.61514 ], [ 27.173745, -18.6148844 ], [ 27.1733596, -18.6146105 ], [ 27.1731477, -18.6142939 ], [ 27.1730192, -18.6140322 ], [ 27.1730385, -18.6136244 ], [ 27.1730449, -18.6131374 ], [ 27.1731284, -18.61276 ], [ 27.1733917, -18.6117192 ], [ 27.1735716, -18.6113418 ], [ 27.17379, -18.6107818 ], [ 27.1739698, -18.6100027 ], [ 27.1741818, -18.60884 ], [ 27.1742909, -18.6081826 ], [ 27.1743038, -18.6078174 ], [ 27.174252730868535, -18.607551323863689 ] ] ] } },
{ "type": "Feature", "properties": { "full_id": "w1085691331", "osm_id": "1085691331", "osm_type": "way", "natural": null, "waterway": "drain", "name": null }, "geometry": { "type": "MultiLineString", "coordinates": [ [ [ 26.9795539, -18.6597768 ], [ 26.9795417, -18.6597856 ], [ 26.9795806, -18.6598131 ], [ 26.9795829, -18.6598441 ], [ 26.9795713, -18.6598751 ], [ 26.9795923, -18.6598972 ], [ 26.9796437, -18.6599061 ], [ 26.979688, -18.6598906 ], [ 26.9797627, -18.6598795 ] ] ] } }
]
}
