{
"type": "FeatureCollection",
"name": "waterholes",
"crs": { "type": "name", "properties": { "name": "urn:ogc:def:crs:OGC:1.3:CRS84" } },
"features": [
{ "type": "Feature", "properties": { "Pan_Name": "Khulu_Pan" }, "geometry": { "type": "MultiPolygon", "coordinates": [ [ [ [ 27.05190036575231, -18.614067673476974 ], [ 27.051894276304179, -18.614052449856644 ], [ 27.051909499924506, -18.614015913167854 ], [ 27.051967349681757, -18.613967197582802 ], [ 27.052006931094613, -18.613945884514344 ], [ 27.052098272816586, -18.613888034757093 ], [ 27.05219570398669, -18.613888034757093 ], [ 27.052265732640205, -18.613878900584893 ], [ 27.052302269328994, -18.613869766412698 ], [ 27.052347940189982, -18.613906303101487 ], [ 27.052402745223166, -18.613942839790276 ], [ 27.052545847254258, -18.613900213653356 ], [ 27.052609786459641, -18.613951973962475 ], [ 27.05275288849073, -18.613894124205224 ], [ 27.052862498557101, -18.613906303101487 ], [ 27.052953840279073, -18.613961108134671 ], [ 27.053039092552915, -18.614000689547527 ], [ 27.053157836791481, -18.614031136788185 ], [ 27.053224820720928, -18.614009823719723 ], [ 27.053398369992678, -18.613988510651264 ], [ 27.053444040853666, -18.61404027096038 ], [ 27.053520158955312, -18.614028092064117 ], [ 27.053584098160695, -18.613991555375328 ], [ 27.053693708227062, -18.613906303101487 ], [ 27.053769826328708, -18.613878900584893 ], [ 27.053879436395075, -18.61383931917204 ], [ 27.05399209118551, -18.613863676964566 ], [ 27.05399209118551, -18.613939795066212 ], [ 27.054001225357705, -18.614028092064117 ], [ 27.054001225357705, -18.614101165441699 ], [ 27.054004270081773, -18.614162059923014 ], [ 27.054010359529904, -18.614232088576529 ], [ 27.053934241428259, -18.614250356920923 ], [ 27.053864212774744, -18.614250356920923 ], [ 27.053775915776839, -18.614283848885645 ], [ 27.05368761877893, -18.614299072505975 ], [ 27.05359323233289, -18.614332564470697 ], [ 27.05351406950718, -18.614323430298501 ], [ 27.053383146372351, -18.614311251402238 ], [ 27.053236999617191, -18.614314296126302 ], [ 27.053145657895218, -18.614332564470697 ], [ 27.053090852862034, -18.614372145883554 ], [ 27.053051271449178, -18.614384324779817 ], [ 27.052987332243799, -18.614366056435422 ], [ 27.052938616658746, -18.614323430298501 ], [ 27.052877722177428, -18.614329519746633 ], [ 27.052841185488639, -18.614359966987291 ], [ 27.052713307077877, -18.614350832815092 ], [ 27.052631099528099, -18.614326475022565 ], [ 27.052512355289533, -18.614283848885645 ], [ 27.052454505532285, -18.614347788091028 ], [ 27.052387521602835, -18.614347788091028 ], [ 27.052329671845587, -18.614350832815092 ], [ 27.052317492949324, -18.614323430298501 ], [ 27.052305314053061, -18.614283848885645 ], [ 27.052268777364269, -18.61422295440433 ], [ 27.052268777364269, -18.614180328267409 ], [ 27.052235285399547, -18.614146836302684 ], [ 27.052189614538559, -18.61417119409521 ], [ 27.052150033125706, -18.614159015198947 ], [ 27.052089138644387, -18.614140746854552 ], [ 27.052025199439008, -18.614149881026751 ], [ 27.051982573302087, -18.614177283543341 ], [ 27.051909499924506, -18.614122478510158 ], [ 27.05190036575231, -18.614067673476974 ] ] ] ] } },
{ "type": "Feature", "properties": { "Pan_Name": "Ivory_Pan" }, "geometry": { "type": "MultiPolygon", "coordinates": [ [ [ [ 27.059688769912611, -18.61486539118221 ], [ 27.059801424703046, -18.614886704250672 ], [ 27.059965839802601, -18.614883659526608 ], [ 27.060118076005889, -18.614880614802541 ], [ 27.060340340862691, -18.614874525354409 ], [ 27.060382966999612, -18.614938464559792 ], [ 27.06037687755148, -18.615005448489239 ], [ 27.060306848897969, -18.615017627385502 ], [ 27.060236820244455, -18.614975001248581 ], [ 27.060151567970614, -18.614981090696713 ], [ 27.060127210178088, -18.615008493213303 ], [ 27.060133299626219, -18.615054164074291 ], [ 27.060133299626219, -18.615166818864726 ], [ 27.060127210178088, -18.615255115862634 ], [ 27.060087628765231, -18.615312965619882 ], [ 27.059962795078533, -18.615376904825265 ], [ 27.059841006115903, -18.615462157099106 ], [ 27.05977706691052, -18.61551696213229 ], [ 27.059707038257006, -18.615614393302398 ], [ 27.059688769912611, -18.615690511404043 ], [ 27.059664412120085, -18.615769674229753 ], [ 27.059627875431296, -18.615864060675793 ], [ 27.059582204570308, -18.615821434538869 ], [ 27.059573070398113, -18.615745316437227 ], [ 27.059606562362834, -18.61570573502437 ], [ 27.059548712605586, -18.61570573502437 ], [ 27.059512175916797, -18.615653974715251 ], [ 27.059499997020534, -18.615571767165477 ], [ 27.059496952296467, -18.615535230476688 ], [ 27.059433013091084, -18.615468246547238 ], [ 27.059420834194821, -18.61543779930658 ], [ 27.059490862848335, -18.615407352065922 ], [ 27.059475639228008, -18.615364725929002 ], [ 27.059442147263283, -18.615337323412408 ], [ 27.059411700022626, -18.615297741999555 ], [ 27.059420834194821, -18.61516986358879 ], [ 27.059426923642953, -18.615072432418685 ], [ 27.059512175916797, -18.615020672109566 ], [ 27.059597428190639, -18.615008493213303 ], [ 27.059652233223822, -18.614965867076382 ], [ 27.059637009603495, -18.614898883146935 ], [ 27.059688769912611, -18.61486539118221 ] ] ] ] } },
{ "type": "Feature", "properties": { "Pan_Name": "Sable_Pan" }, "geometry": { "type": "MultiPolygon", "coordinates": [ [ [ [ 27.021168050167283, -18.64835101596654 ], [ 27.02126489217472, -18.648285163401482 ], [ 27.021384976263938, -18.648230931877318 ], [ 27.021439207788102, -18.648250300278807 ], [ 27.021543797156131, -18.648180574033454 ], [ 27.021663881245352, -18.64813796355018 ], [ 27.021764596933082, -18.648145710910775 ], [ 27.02184207053903, -18.648157331951669 ], [ 27.021911796784384, -18.648161205631965 ], [ 27.021981523029737, -18.648161205631965 ], [ 27.022051249275091, -18.648161205631965 ], [ 27.022105480799254, -18.648176700353154 ], [ 27.022229438568772, -18.648161205631965 ], [ 27.0223340279368, -18.648145710910775 ], [ 27.022419248903343, -18.648184447713749 ], [ 27.022442490985128, -18.648277416040887 ], [ 27.022450238345723, -18.648374258048324 ], [ 27.022473480427507, -18.648443984293678 ], [ 27.022492848828993, -18.648509836858732 ], [ 27.022488975148697, -18.648595057825275 ], [ 27.022450238345723, -18.648703520873603 ], [ 27.022368891059479, -18.648684152472114 ], [ 27.022244933289961, -18.648622173587356 ], [ 27.022244933289961, -18.648505963178433 ], [ 27.022194575446093, -18.648494342137543 ], [ 27.022058996635685, -18.648540826301112 ], [ 27.022016386152416, -18.648591184144976 ], [ 27.022035754553901, -18.648649289349439 ], [ 27.02208223871747, -18.648680278791819 ], [ 27.022093859758364, -18.648753878717468 ], [ 27.022070617676579, -18.648842973364307 ], [ 27.022000891431226, -18.648846847044606 ], [ 27.021927291505573, -18.648831352323416 ], [ 27.021807207416355, -18.648854594405201 ], [ 27.021749102211896, -18.648842973364307 ], [ 27.021679375966542, -18.648835226003712 ], [ 27.021555418197025, -18.648854594405201 ], [ 27.021435334107803, -18.648842973364307 ], [ 27.021319123698884, -18.648827478643117 ], [ 27.021288134256505, -18.648959183773229 ], [ 27.021272639535315, -18.649005667936798 ], [ 27.021183544888473, -18.648939815371744 ], [ 27.021137060724904, -18.648947562732339 ], [ 27.021071208159849, -18.649001794256503 ], [ 27.021047966078065, -18.649021162657988 ], [ 27.020939503029737, -18.649028910018583 ], [ 27.020927881988847, -18.649028910018583 ], [ 27.020854282063194, -18.649106383624531 ], [ 27.020780682137545, -18.649145120427505 ], [ 27.020734197973976, -18.64913737306691 ], [ 27.020664471728622, -18.6491528677881 ], [ 27.02056375604089, -18.649191604591074 ], [ 27.020482408754646, -18.649210972992559 ], [ 27.020404935148697, -18.649187730910775 ], [ 27.020327461542749, -18.64914124674721 ], [ 27.020234493215611, -18.64917998355018 ], [ 27.020176388011151, -18.64916836250929 ], [ 27.020118282806688, -18.649075394182152 ], [ 27.020091167044608, -18.648924320650554 ], [ 27.020242240576206, -18.648831352323416 ], [ 27.020381693066913, -18.648746131356873 ], [ 27.020509524516726, -18.648746131356873 ], [ 27.020676092769516, -18.648653163029735 ], [ 27.02080005053903, -18.648525331579922 ], [ 27.020850408382898, -18.648443984293678 ], [ 27.020958871431226, -18.648354889646836 ], [ 27.02109832392193, -18.648277416040887 ], [ 27.021168050167283, -18.64835101596654 ] ] ] ] } },
{ "type": "Feature", "properties": { "Pan_Name": "Muddy_Pan" }, "geometry": { "type": "MultiPolygon", "coordinates": [ [ [ [ 27.035070688754629, -18.644535440873582 ], [ 27.035442562063178, -18.644519946152393 ], [ 27.035690477602213, -18.644457967267634 ], [ 27.036186308680279, -18.644318514776927 ], [ 27.036744118643107, -18.644225546449789 ], [ 27.036961044739758, -18.644272030613358 ], [ 27.037054013066896, -18.644550935594772 ], [ 27.037425886375448, -18.644612914479531 ], [ 27.037844243847566, -18.644488956710013 ], [ 27.03810765410779, -18.644426977825255 ], [ 27.038464032695149, -18.644272030613358 ], [ 27.038665464070615, -18.644086093959086 ], [ 27.038990853215594, -18.643838178420051 ], [ 27.039486684293664, -18.643729715371723 ], [ 27.040013504814109, -18.643838178420051 ], [ 27.040447357007416, -18.643993125631948 ], [ 27.040695272546451, -18.644349504219306 ], [ 27.040788240873589, -18.644473461988824 ], [ 27.041082640576189, -18.644473461988824 ], [ 27.041299566672844, -18.644395988382875 ], [ 27.041531987490689, -18.644318514776927 ], [ 27.041950344962807, -18.644256535892168 ], [ 27.042229249944221, -18.644272030613358 ], [ 27.042477165483252, -18.644411483104065 ], [ 27.042663102137528, -18.644364998940496 ], [ 27.042818049349425, -18.644241041170979 ], [ 27.043003986003701, -18.64419455700741 ], [ 27.043205417379163, -18.64416356756503 ], [ 27.043716743178422, -18.644101588680275 ], [ 27.044042132323401, -18.644070599237896 ], [ 27.044212574256488, -18.64417906228622 ], [ 27.04408861648697, -18.644426977825255 ], [ 27.043949163996263, -18.644566430315962 ], [ 27.043360364591059, -18.64493830362451 ], [ 27.042988491282511, -18.645139734999976 ], [ 27.042833544070614, -18.645124240278786 ], [ 27.042523649646821, -18.644984787788079 ], [ 27.042182765780652, -18.645232703327114 ], [ 27.041872871356858, -18.645031271951648 ], [ 27.041377040278793, -18.645217208605924 ], [ 27.040927693364296, -18.645093250836407 ], [ 27.040648788382882, -18.645155229721166 ], [ 27.040292409795519, -18.645155229721166 ], [ 27.03995152592935, -18.644783356412617 ], [ 27.039595147341988, -18.644597419758341 ], [ 27.039037337379163, -18.644736872249048 ], [ 27.038587990464666, -18.644736872249048 ], [ 27.038371064368011, -18.644907314182131 ], [ 27.038045675223032, -18.645093250836407 ], [ 27.037797759683997, -18.645000282509269 ], [ 27.03736390749069, -18.645108745557597 ], [ 27.037162476115224, -18.645031271951648 ], [ 27.037007528903327, -18.644845335297372 ], [ 27.036186308680279, -18.644860830018562 ], [ 27.035767951208161, -18.645124240278786 ], [ 27.035365088457233, -18.645310176933062 ], [ 27.034931236263922, -18.645279187490683 ], [ 27.034807278494405, -18.645201713884735 ], [ 27.034605847118943, -18.645062261394028 ], [ 27.035070688754629, -18.644535440873582 ] ] ] ] } },
{ "type": "Feature", "properties": { "Pan_Name": "Tuskers_Pan" }, "geometry": { "type": "MultiPolygon", "coordinates": [ [ [ [ 27.073811365408911, -18.64112660221187 ], [ 27.073904333736049, -18.641142096933059 ], [ 27.073977933661698, -18.641176960055738 ], [ 27.074043786226756, -18.641238938940493 ], [ 27.074043786226756, -18.641289296784361 ], [ 27.073946944219319, -18.641312538866146 ], [ 27.073865596933075, -18.641308665185846 ], [ 27.073826860130101, -18.641297044144956 ], [ 27.073788123327127, -18.641281549423766 ], [ 27.073726144442368, -18.641246686301088 ], [ 27.073695154999989, -18.641219570539008 ], [ 27.073722270762072, -18.641161465334548 ], [ 27.073730018122667, -18.641145970613358 ], [ 27.073730018122667, -18.641130475892169 ], [ 27.073811365408911, -18.64112660221187 ] ] ] ] } },
{ "type": "Feature", "properties": { "Pan_Name": "Arcacia_Pan" }, "geometry": { "type": "MultiPolygon", "coordinates": [ [ [ [ 26.995195023773217, -18.658419679479472 ], [ 26.995354813085484, -18.658379005836348 ], [ 26.995508791877306, -18.658445826821481 ], [ 26.995613381245334, -18.658396437397688 ], [ 26.995726686394033, -18.658367384795458 ], [ 26.995787696858716, -18.658428395260142 ], [ 26.995863233624515, -18.658506837286165 ], [ 26.995906812527863, -18.658559131970179 ], [ 26.995950391431208, -18.658631763475753 ], [ 26.995927149349424, -18.658724731802891 ], [ 26.995918433568754, -18.658797363308469 ], [ 26.99582837050184, -18.658872900074268 ], [ 26.995749928475817, -18.658936815799176 ], [ 26.995694728531578, -18.658931005278728 ], [ 26.99559885494422, -18.658893236895828 ], [ 26.995508791877306, -18.658858373773153 ], [ 26.995430349851283, -18.6587886475278 ], [ 26.995404202509274, -18.658718921282446 ], [ 26.995285086840131, -18.658736352843786 ], [ 26.995203739553883, -18.658739258104006 ], [ 26.995163065910763, -18.658718921282446 ], [ 26.9951049607063, -18.658663721338208 ], [ 26.995093339665409, -18.658593995092854 ], [ 26.99508462388474, -18.658495216245271 ], [ 26.99508462388474, -18.658440016301032 ], [ 26.995195023773217, -18.658419679479472 ] ] ] ] } },
{ "type": "Feature", "properties": { "Pan_Name": "Hwange_Safari_Lodge_Pan" }, "geometry": { "type": "MultiPolygon", "coordinates": [ [ [ [ 26.979529557254054, -18.659761936344381 ], [ 26.97957390138658, -18.659726038713291 ], [ 26.979595017640161, -18.659795722350115 ], [ 26.979639361772687, -18.659846401358717 ], [ 26.979673147778421, -18.659899191992672 ], [ 26.979704822158794, -18.65991397337018 ], [ 26.97974916629132, -18.659878075739091 ], [ 26.979782952297054, -18.659842178107997 ], [ 26.979835742931012, -18.659804168851547 ], [ 26.979915984694628, -18.659766159595097 ], [ 26.97996244045251, -18.659753489842949 ], [ 26.980017342711829, -18.659751378217589 ], [ 26.980059575218995, -18.65977882934725 ], [ 26.980080691472576, -18.659795722350115 ], [ 26.980274961005545, -18.659759824719025 ], [ 26.980348867893085, -18.65970281083435 ], [ 26.980422774780628, -18.659557108684623 ], [ 26.980522021172469, -18.659516987802817 ], [ 26.980598039685368, -18.65952543430425 ], [ 26.980695174451853, -18.659595117941073 ], [ 26.980752188336528, -18.659745043341516 ], [ 26.980769081339393, -18.659854847860149 ], [ 26.980737406959019, -18.659932977998405 ], [ 26.980644495443251, -18.66002800113953 ], [ 26.980551583927486, -18.660038559266322 ], [ 26.98046923053851, -18.660017443012741 ], [ 26.980287630757694, -18.659901303618032 ], [ 26.980091249599369, -18.659930866373049 ], [ 26.980006784585036, -18.660059675519907 ], [ 26.98000256133432, -18.660061787145263 ], [ 26.979801956925279, -18.660156810286388 ], [ 26.979698487282718, -18.660144140534239 ], [ 26.979641473398043, -18.660080791773488 ], [ 26.979645696648763, -18.660036447640966 ], [ 26.979550673507635, -18.660013219762025 ], [ 26.979516887501905, -18.6599942151338 ], [ 26.979516887501905, -18.659985768632364 ], [ 26.979552785132995, -18.65995409425199 ], [ 26.97960979901767, -18.659928754747689 ], [ 26.979654143150196, -18.659894968741956 ], [ 26.979576013011936, -18.659808392102263 ], [ 26.979521110752621, -18.659806280476907 ], [ 26.979514775876545, -18.659774606096533 ], [ 26.979529557254054, -18.659761936344381 ] ] ] ] } }
]
}
